ESTACION,ANO,MES,DIA,HORA,MINUTO,PARTE
41850,2024,05,17,00,00,AAXX 17004 41850 31425 80000 10246 20240 39974 40073 71022 8252/ 333 56999 59020 70020 82616 88458=
41850,2024,05,17,06,00,AAXX 17064 41850 32956 00000 10338 20230 39965 40060 333 59031 70020=
41850,2024,05,17,12,00,AAXX 17124 41850 32456 60000 10335 20270 39924 40019 81530 333 10362 56990 59021 70020 81616 86362=
41850,2024,05,17,18,00,AAXX 17184 41850 32440 50000 10290 20290 39946 40043 82520 333 56990 59024 70000 82617 85458=
41850,2024,05,18,00,00,AAXX 18004 41850 31440 50000 10258 20230 39936 40034 70522 82520 333 56990 59038 70000 82617 85458=
41850,2024,05,18,06,00,AAXX 18064 41850 32456 70803 10272 20230 39957 40055 83520 333 56990 59008 70000 83617 87458=
41850,2024,05,18,12,00,AAXX 18124 41850 32450 80603 10275 20230 39918 40015 8452/ 333 10300 56999 59006 70000 84617 88458=
41850,2024,05,19,00,00,AAXX 19004 41850 11440 70000 10223 20210 39953 40052 60457 70596 83520 333 56990 58017 70900 83617 86458=
41850,2024,05,19,06,00,AAXX 19064 41850 11956 42002 10310 20210 39943 40039 60166 70196 84030 333 56090 59014 71060 84362=
41850,2024,05,19,12,00,AAXX 19124 41850 32956 01802 10305 20250 39910 40006 333 10335 59008 71060=
41850,2024,05,19,18,00,AAXX 19184 41850 31440 80000 10268 20250 39941 40039 70522 8352/ 333 56999 59012 70610 83617 88458=
41850,2024,05,20,00,00,AAXX 20004 41850 NIL=
41850,2024,05,20,06,00,AAXX 20064 41850 31450 61502 10252 20230 39971 40069 60178 70596 83520 333 56990 58028 70230 83617 86458=
41850,2024,05,20,12,00,AAXX 20124 41850 32956 31803 10287 20230 39934 40031 83030 333 10336 56090 58024 70240 83362=
41850,2024,05,20,18,00,AAXX 20184 41850 31940 30000 10250 20240 39963 40061 70511 83030 333 56090 58022 70240 83362=
41850,2024,05,21,00,00,AAXX 21004 41850 31950 40000 10246 20240 39963 40061 70521 84030 333 56090 59011 70170 84362=
41850,2024,05,21,06,00,AAXX 21064 41850 32457 40803 10330 20220 39967 40063 82510 333 56990 59004 70000 82618 84460=
41850,2024,05,21,12,00,AAXX 21124 41850 32456 10000 10323 20240 39927 40023 81500 333 10343 56900 59007 70000 81618=
41850,2024,05,21,18,00,AAXX 21184 41850 31440 40000 10278 20250 39968 40065 70521 82510 333 56990 58005 70000 82618 84460=
41850,2024,05,22,00,00,AAXX 22004 41850 31950 20403 10260 20220 39952 40050 70510 82030 333 56090 59011 70000 82362=
41850,2024,05,22,06,00,AAXX 22064 41850 11450 83003 10258 20240 39975 40074 60047 72996 8432/ 333 56999 58008 70040 83616 81928 88458=
41850,2024,05,22,12,00,AAXX 22124 41850 31450 60000 10287 20250 39932 40029 70522 83520 333 10302 56990 58005 70040 83617 86458=
41850,2024,05,22,18,00,AAXX 22184 41850 31440 80000 10264 20250 39958 40056 70522 8452/ 333 56999 59010 70040 84617 88458=
41850,2024,05,23,00,00,AAXX 23004 41850 31450 80000 10248 20240 39955 40053 70522 8452/ 333 56999 58003 70040 84617 88458=
41850,2024,05,23,06,00,AAXX 23064 41850 32957 40000 10340 20220 39953 40048 84030 333 56090 59023 70000 84362=
41850,2024,05,23,12,00,AAXX 23124 41850 32456 21902 10348 20230 39904 49999 82500 333 10364 56900 59028 70000 82618=
41851,2024,05,17,00,00,AAXX 17004 41851 32950 00000 10242 20230 30011 40074 333 59022 70000=
41851,2024,05,17,06,00,AAXX 17064 41851 32950 01801 10364 20220 39997 40058 333 59033 70000=
41851,2024,05,17,12,00,AAXX 17124 41851 32450 60000 10365 20230 39959 40019 82520 333 10386 56990 59017 70000 82618 86458=
41851,2024,05,18,00,00,AAXX 18004 41851 32450 81801 10265 20250 39983 40046 8352/ 333 56999 59028 70000 83618 88458=
41851,2024,05,18,06,00,AAXX 18064 41851 32450 80904 10282 20230 30001 40063 8352/ 333 56999 58004 70000 83618 88458=
41851,2024,05,18,12,00,AAXX 18124 41851 32450 80903 10287 20230 39963 40025 8352/ 333 10335 56999 58004 70000 83618 88458=
41851,2024,05,18,18,00,AAXX 18184 41851 11350 82201 10213 20200 39988 40052 60523 79596 8492/ 333 56599 58011 70515 81708 84616 81929 88456=
41851,2024,05,19,00,00,AAXX 19004 41851 11450 80000 10235 20230 39989 40052 60034 70296 8352/ 333 56999 58006 70545 83618 88458=
41851,2024,05,19,06,00,AAXX 19064 41851 32450 71801 10324 20230 39983 40044 82520 333 56990 59018 70545 82618 87458=
41851,2024,05,19,12,00,AAXX 19124 41851 32450 81301 10318 20250 39946 40007 8352/ 333 10343 56999 59017 70545 83618 88458=
41851,2024,05,19,18,00,AAXX 19184 41851 31350 81302 10250 20230 39975 40038 71792 8432/ 333 56999 59013 70030 83617 81928 88457=
41851,2024,05,20,00,00,AAXX 20004 41851 11340 80901 10228 20220 30008 40071 60147 79596 8492/ 333 56299 58019 70142 81708 83616 81928 88456=
41851,2024,05,20,06,00,AAXX 20064 41851 11450 80901 10268 20230 30008 40071 60066 70296 8352/ 333 56999 58025 70202 83618 88458=
41851,2024,05,20,12,00,AAXX 20124 41851 32450 20000 10295 20230 39965 40027 81530 333 10314 56990 58019 70202 81618=
41851,2024,05,20,18,00,AAXX 20184 41851 32450 40000 10250 20230 39998 40061 82510 333 56990 58023 70202 82618 84459=
41851,2024,05,21,00,00,AAXX 21004 41851 31440 80000 10244 20230 30001 40064 70521 8352/ 333 56999 59007 70060 83618 88458=
41851,2024,05,21,06,00,AAXX 21064 41851 32450 21302 10334 20230 30001 40062 82500 333 56900 59007 70000 82618=
41851,2024,05,21,12,00,AAXX 21124 41851 32450 21201 10330 20230 39962 40023 81530 333 10355 56990 59003 70000 81618=
41851,2024,05,21,18,00,AAXX 21184 41851 32940 00000 10275 20260 30001 40063 333 58003 70000=
41851,2024,05,22,00,00,AAXX 22004 41851 31940 00000 10266 20250 39995 40058 70500 333 59006 70000=
41851,2024,05,22,06,00,AAXX 22064 41851 11350 81502 10275 20250 30007 40069 60035 70296 8462/ 333 56499 58006 70027 81709 83617 88458=
41851,2024,05,22,12,00,AAXX 22124 41851 32450 71201 10291 20250 39969 40031 83520 333 10305 56990 58007 70027 83618 86458=
41851,2024,05,22,18,00,AAXX 22184 41851 31340 80000 10270 20260 39998 40061 70522 8462/ 333 56499 59003 70027 81709 83617 88458=
41851,2024,05,23,00,00,AAXX 23004 41851 31430 70000 10264 20250 39991 40054 70522 83520 333 56990 59004 70027 83618 87458=
41851,2024,05,23,06,00,AAXX 23064 41851 32450 51502 10353 20220 39982 40043 83430 333 56990 59025 70000 82618 83362=
41851,2024,05,23,12,00,AAXX 23124 41851 32450 10000 10348 20250 39941 40002 81500 333 10374 56900 59028 70000 81618=
41851,2024,05,23,18,00,AAXX 23184 41851 31940 00000 10284 20270 39971 40033 70510 333 56900 59027 70000=
41856,2024,05,17,00,00,AAXX 17004 41856 32930 20000 10250 20230 30034 40073 82030 333 56090 59021 70000 82362=
41856,2024,05,17,06,00,AAXX 17064 41856 32956 22201 10370 20230 30024 40058 82030 333 56090 59032 70000 82362=
41856,2024,05,17,12,00,AAXX 17124 41856 32956 21802 10355 20260 39987 40021 82030 333 10390 56090 59018 70000 82362=
41856,2024,05,18,00,00,AAXX 18004 41856 32440 30903 10275 20250 30018 40053 83510 333 56990 59019 70000 83618 87458=
41856,2024,05,18,06,00,AAXX 18064 41856 32450 80902 10320 20220 30030 40065 8352/ 333 56999 58006 70000 83618 88458=
41856,2024,05,18,12,00,AAXX 18124 41856 32450 61202 10298 20230 39993 40028 84430 333 10335 56990 58006 70000 82618 84362=
41856,2024,05,18,18,00,AAXX 18184 41856 11430 83605 10240 20230 30026 40062 60227 71392 8632/ 333 56999 58018 70223 84618 88458 82925=
41856,2024,05,19,00,00,AAXX 19004 41856 11440 80000 10235 20230 30022 40058 60066 70292 8252/ 333 56999 58004 70281 82618 88458=
41856,2024,05,19,06,00,AAXX 19064 41856 32950 01501 10327 20230 30006 40043 333 59044 70281=
41856,2024,05,19,12,00,AAXX 19124 41856 32450 21401 10317 20250 39973 40008 82100 333 10347 56900 59020 70281 82830=
41856,2024,05,19,18,00,AAXX 19184 41856 11430 50000 10230 20210 30011 40047 60138 70199 81530 333 56990 59015 70188 81618 84362=
41856,2024,05,20,00,00,AAXX 20004 41856 11430 80000 10228 20228 30042 40078 60077 79596 8632/ 333 56999 58020 70203 84616 88456 81925=
41856,2024,05,20,06,00,AAXX 20064 41856 11450 61401 10270 20230 30032 40067 60058 70192 84430 333 56990 58024 70255 82618 84362=
41856,2024,05,20,12,00,AAXX 20124 41856 32950 20000 10295 20240 39997 40032 82030 333 10320 56090 58024 70255 82362=
41856,2024,05,20,18,00,AAXX 20184 41856 32930 40000 10260 20230 30024 40059 84030 333 56090 58013 70125 84362=
41856,2024,05,21,00,00,AAXX 21004 41856 32435 80901 10258 20230 30023 40058 8562/ 333 56699 59019 70052 83710 85615 88458=
41856,2024,05,21,06,00,AAXX 21064 41856 32956 20501 10326 20230 30027 40062 82030 333 56090 59005 70000 82362=
41856,2024,05,21,12,00,AAXX 21124 41856 32950 20000 10328 20270 39988 40023 82030 333 10352 56090 59009 70000 82362=
41856,2024,05,21,18,00,AAXX 21184 41856 32930 30000 10280 20260 30027 40062 83030 333 56090 58016 70000 83362=
41856,2024,05,22,00,00,AAXX 22004 41856 32935 40000 10266 20250 30015 40050 84030 333 56090 59008 70000 84362=
41856,2024,05,22,06,00,AAXX 22064 41856 32450 70000 10305 20230 30033 40068 83520 333 56990 58006 70000 83618 87458=
41856,2024,05,22,12,00,AAXX 22124 41856 32950 40000 10301 20250 39996 40031 84030 333 10336 56090 58008 70000 84362=
41856,2024,05,22,18,00,AAXX 22184 41856 32940 40000 10268 20250 30018 40053 84030 333 56090 59009 70000 84362=
41856,2024,05,23,00,00,AAXX 23004 41856 32940 00000 10254 20240 30016 40052 333 58001 70000=
41856,2024,05,23,06,00,AAXX 23064 41856 32956 01601 10360 20230 30005 40039 333 59028 70000=
41856,2024,05,23,12,00,AAXX 23124 41856 32956 00000 10353 20250 39970 40004 333 10378 59026 70000=
41856,2024,05,23,18,00,AAXX 23184 41856 32940 00000 10283 20260 39989 40024 333 59029 70000=
41858,2024,05,17,00,00,AAXX 17004 41858 01/25 40000 10265 20240 30030 40076 71022 84030 333 59019 70000 84362==
41858,2024,05,17,03,00,AAXX 17034 41858 01/35 30000 10318 20240 30037 40082 70522 83030 333 20250 59025 70000 83362==
41858,2024,05,17,06,00,AAXX 17064 41858 01/50 41805 10360 20220 30020 40064 70522 84030 333 59029 70000 84362==
41858,2024,05,17,09,00,AAXX 17094 41858 01/50 32704 10390 20230 39985 40029 70511 83030 333 59028 70000 83362==
41858,2024,05,17,12,00,AAXX 17124 41858 01/50 40000 10362 20240 39977 40020 70511 84030 333 10392 59020 70000 84362==
41858,2024,05,17,15,00,AAXX 17154 41858 01/40 30000 10330 20250 39995 40039 70511 83030 333 59028 70000 83362==
41858,2024,05,17,18,00,AAXX 17184 41858 01/40 30000 10294 20250 30006 40051 70511 83030 333 59020 70000 83362==
41858,2024,05,17,21,00,AAXX 17214 41858 01/30 40000 10304 20270 39993 40038 70511 84030 333 59034 70000 84362==
41858,2024,05,18,00,00,AAXX 18004 41858 01/15 40000 10295 20270 30004 40049 71011 84030 333 59026 70000 84362==
41858,2024,05,18,03,00,AAXX 18034 41858 01440 60905 10310 20260 30023 40068 70522 83420 333 20290 59014 70000 82616 86460==
41858,2024,05,18,06,00,AAXX 18064 41858 01450 61206 10334 20230 30014 40058 70522 83410 333 59006 70000 82616 86460==
41858,2024,05,18,09,00,AAXX 18094 41858 01/50 31210 10334 20230 39986 40030 70520 83040 333 58001 70000 83362==
41858,2024,05,18,12,00,AAXX 18124 41858 01450 60905 10306 20240 39978 40022 70522 83520 333 10336 58001 70000 83615 86458==
41858,2024,05,18,15,00,AAXX 18154 41858 01450 80905 10290 20230 30004 40049 70522 8452/ 333 58009 70000 84615 88458==
41858,2024,05,18,18,00,AAXX 18184 41858 01450 80905 10280 20230 30013 40058 71722 8492/ 333 58009 70000 84615 88458==
41858,2024,05,18,21,00,AAXX 18214 41858 01430 80904 10240 20220 39998 40044 70562 8452/ 333 58005 70030 84616 88458==
41858,2024,05,19,00,00,AAXX 19004 41858 11430 60000 10245 20230 30007 40053 60036 70562 83520 333 58003 70030 83616 86458==
41858,2024,05,19,03,00,AAXX 19034 41858 01/50 30505 10282 20240 30021 40066 70522 83030 333 20222 59002 70030 83362==
41858,2024,05,19,06,00,AAXX 19064 41858 01950 00905 10350 20200 39999 40043 70511 333 59015 70030==
41858,2024,05,19,09,00,AAXX 19094 41858 01/50 50905 10360 20230 30069 40012 70511 85010 333 59017 70030 85460==
41858,2024,05,19,12,00,AAXX 19124 41858 01440 60905 10327 20250 39963 40007 70511 83420 333 10362 59015 70030 82616 86460==
41858,2024,05,19,15,00,AAXX 19154 41858 01435 81210 10306 20250 39985 40030 79592 8492/ 333 59019 70040 84615 88458 82930==
41858,2024,05,19,18,00,AAXX 19184 41858 21450 60905 10260 20220 39994 40040 70596 83520 333 40044 59014 60015 83615 86458==
41858,2024,05,19,21,00,AAXX 19214 41858 01420 82705 10240 20220 30012 40058 79596 8492/ 333 58014 70294 84615 88458 82930==
41858,2024,05,20,00,00,AAXX 20004 41858 21430 83605 10218 20200 30027 40074 79596 8592/ 333 58020 60619 70624 85614 88458 82930==
41858,2024,05,20,03,00,AAXX 20034 41858 01430 80905 10245 20240 30043 40089 75196 8452/ 333 20208 58022 70644 84614 88458==
41858,2024,05,20,06,00,AAXX 20064 41858 21435 80905 10260 20230 30029 40075 70596 8452/ 333 58030 60027 70644 84615 88458==
41858,2024,05,20,09,00,AAXX 20094 41858 01/50 30905 10310 20230 39995 40040 70522 83030 333 58026 70644 83362==
41858,2024,05,20,12,00,AAXX 20124 41858 01/50 30000 10300 20230 39986 40031 70511 83030 333 10314 58023 70644 83362==
41858,2024,05,20,15,00,AAXX 20154 41858 01950 00000 10275 20220 30007 40052 70500 333 58022 70634==
41858,2024,05,20,18,00,AAXX 20184 41858 NIL=
41858,2024,05,20,21,00,AAXX 20214 41858 01440 60000 10260 20230 30012 40058 70522 83520 333 58000 70380 83615 85458==
41858,2024,05,21,00,00,AAXX 21004 41858 01440 80000 10265 20240 30017 40062 70522 8452/ 333 59010 70020 84615 88458==
41858,2024,05,21,03,00,AAXX 21034 41858 41450 81805 10275 20230 30030 40075 71792 8432/ 333 20225 59013 84615 88458 82930==
41858,2024,05,21,06,00,AAXX 21064 41858 01450 50904 10320 20230 30019 40063 70592 83520 333 59010 70000 83615 85458==
41858,2024,05,21,09,00,AAXX 21094 41858 01/50 41206 10340 20230 39988 40032 70511 84010 333 59007 70000 84460==
41858,2024,05,21,12,00,AAXX 21124 41858 01/50 40000 10312 20230 30076 40123 70511 84010 333 10345 59005 70000 84460==
41858,2024,05,21,15,00,AAXX 21154 41858 01/40 30000 10295 20230 30004 40049 70511 83030 333 59003 70000 83362==
41858,2024,05,21,18,00,AAXX 21184 41858 01/40 30000 10288 20230 30023 40068 70511 83030 333 58005 70000 83362==
41858,2024,05,21,21,00,AAXX 21214 41858 01/40 30000 10282 20240 30011 40056 70511 83030 333 59001 70000 83362==
41858,2024,05,22,00,00,AAXX 22004 41858 01435 61804 10280 20240 30014 40059 70511 83520 333 59003 70000 83615 85458==
41858,2024,05,22,03,00,AAXX 22034 41858 01430 80000 10250 20230 30041 40087 79596 8592/ 333 20240 58011 70250 84615 88458 81928==
41858,2024,05,22,06,00,AAXX 22064 41858 21440 80000 10278 20240 30024 40069 70596 8452/ 333 58005 60298 70290 84616 88458==
41858,2024,05,22,09,00,AAXX 22094 41858 01450 80304 10302 20230 30003 40048 70522 8452/ 333 58015 70290 84616 88458==
41858,2024,05,22,12,00,AAXX 22124 41858 01450 60302 10302 20240 39986 40031 70522 83520 333 10304 58003 70290 83618 86458==
41858,2024,05,22,15,00,AAXX 22154 41858 01440 40000 10290 20240 30008 40053 70522 82520 333 58004 70290 82615 84458==
41858,2024,05,22,18,00,AAXX 22184 41858 01440 40000 10278 20240 30017 40063 70522 82520 333 59006 70290 82615 84458==
41858,2024,05,22,21,00,AAXX 22214 41858 01430 50000 10272 20250 30002 40047 70522 83520 333 59009 70290 83615 84460==
41858,2024,05,23,00,00,AAXX 23004 41858 01420 60000 10275 20260 30007 40052 71022 83520 333 59007 70290 83618 85460==
41858,2024,05,23,03,00,AAXX 23034 41858 01940 00905 10324 20250 30016 40061 70500 333 20265 59025 70040==
41858,2024,05,23,06,00,AAXX 23064 41858 01550 22405 10358 20220 30003 40047 70520 82100 333 59021 70000 82825==
41858,2024,05,23,09,00,AAXX 23094 41858 01/50 22704 10372 20230 39969 40012 70500 82030 333 59034 70000 82362==
41858,2024,05,23,12,00,AAXX 23124 41858 01/50 30000 10330 20230 39962 40006 70500 83030 333 10375 59024 70000 83362==
41858,2024,05,23,15,00,AAXX 23154 41858 01940 00000 10312 20260 39980 40024 70500 333 59028 70000==
41858,2024,05,23,18,00,AAXX 23184 41858 01940 00000 10298 20270 30006 40051 70500 333 59011 70000==
41858,2024,05,23,21,00,AAXX 23214 41858 01935 00000 10286 20270 39993 40037 70500 333 59009 70000==
41859,2024,05,17,00,00,AAXX 17004 41859 02430 70502 10268 20250 30035 40072 84620 333 59020 70003 82710 83618 87458==
41859,2024,05,17,03,00,AAXX 17034 41859 02450 40000 10322 20250 30046 40082 82520 333 20265 59025 70000 82618 84458==
41859,2024,05,17,06,00,AAXX 17064 41859 02450 80000 10358 20250 30025 40062 8441/ 333 59031 70003 84618 88458==
41859,2024,05,17,09,00,AAXX 17094 41859 02450 42502 10385 20260 39991 40027 81130 333 59030 70000 81828 84362==
41859,2024,05,17,12,00,AAXX 17124 41859 02/50 42202 10355 20270 39987 40024 84030 333 10385 59020 70003 84362==
41859,2024,05,17,15,00,AAXX 17154 41859 02930 01301 10325 20280 30007 40043 333 59022 70000==
41859,2024,05,17,18,00,AAXX 17184 41859 02430 81302 10316 20270 30006 40042 8562/ 333 59029 70000 83710 84618 88458==
41859,2024,05,17,21,00,AAXX 17214 41859 02430 81302 10306 20270 39994 40030 8562/ 333 59039 70000 83710 84618 88458==
41859,2024,05,18,00,00,AAXX 18004 41859 02435 80501 10295 20280 30010 40046 8562/ 333 59025 70000 82710 83618 88458==
41859,2024,05,18,03,00,AAXX 18034 41859 02440 81304 10299 20240 30035 40072 8562/ 333 20283 59011 70000 83710 84618 88458==
41859,2024,05,18,06,00,AAXX 18064 41859 02450 71304 10325 20240 30027 40063 84620 333 58002 70000 82710 83618 87458==
41859,2024,05,18,09,00,AAXX 18094 41859 02450 81802 10330 20240 39994 40030 8441/ 333 58003 70000 84618 88458==
41859,2024,05,18,12,00,AAXX 18124 41859 02450 80000 10305 20250 39991 40027 8562/ 333 10335 58004 70000 83710 84618 88458==
41859,2024,05,18,15,00,AAXX 18154 41859 02430 71302 10289 20240 30008 40045 85610 333 58001 70000 82710 84618 87458==
41859,2024,05,18,18,00,AAXX 18184 41859 21430 80502 10265 20250 30017 40054 70262 8562/ 333 58011 60005 83710 84618 88458==
41859,2024,05,18,21,00,AAXX 18214 41859 01430 81802 10240 20220 30003 40040 70262 8562/ 333 58009 70080 83710 84618 88458==
41859,2024,05,19,00,00,AAXX 19004 41859 21440 80502 10242 20230 30018 40055 70262 8562/ 333 58008 60085 70080 83710 84618 88458==
41859,2024,05,19,03,00,AAXX 19034 41859 02450 60000 10290 20240 30029 40066 83510 333 20231 59006 70080 83618 86458==
41859,2024,05,19,06,00,AAXX 19064 41859 02450 50000 10333 20230 30003 40039 83520 333 59024 70080 83618 85458==
41859,2024,05,19,09,00,AAXX 19094 41859 02450 81302 10345 20250 39979 40016 8561/ 333 59015 70080 82710 83618 88458==
41859,2024,05,19,12,00,AAXX 19124 41859 02440 81301 10330 20260 39969 40005 8562/ 333 10346 59022 70080 83710 84618 88458==
41859,2024,05,19,15,00,AAXX 19154 41859 01330 81302 10278 20220 30001 40038 79522 8692/ 333 59007 70096 83709 84617 88458 81930==
41859,2024,05,19,18,00,AAXX 19184 41859 21430 81303 10245 20230 30012 40049 71396 8692/ 333 59005 60025 70096 83710 84618 88458 81930==
41859,2024,05,19,21,00,AAXX 19214 41859 01330 81302 10229 20229 30009 40046 79596 8692/ 333 58006 70146 83708 84616 88458 81930==
41859,2024,05,20,00,00,AAXX 20004 41859 01330 80000 10229 20229 30032 40070 79596 8692/ 333 58014 70236 83708 84616 88458 81930==
41859,2024,05,20,03,00,AAXX 20034 41859 01350 80501 10236 20240 30051 40088 70296 8562/ 333 20225 58022 70276 83708 85616 88456==
41859,2024,05,20,06,00,AAXX 20064 41859 11450 81302 10261 20230 30037 40074 60046 70292 8562/ 333 58034 70276 82710 84618 88458==
41859,2024,05,20,09,00,AAXX 20094 41859 02450 51302 10311 20230 30000 40036 82520 333 58021 70276 82618 85458==
41859,2024,05,20,12,00,AAXX 20124 41859 02450 41302 10306 20230 39995 40031 82520 333 10318 58026 70276 82618 84458==
41859,2024,05,20,15,00,AAXX 20154 41859 02430 70901 10275 20250 30019 40056 85620 333 58018 70260 82710 84618 87458==
41859,2024,05,20,18,00,AAXX 20184 41859 02430 80502 10268 20250 30023 40060 8562/ 333 58011 70260 83710 84618 88458==
41859,2024,05,20,21,00,AAXX 20214 41859 02430 80501 10257 20240 30021 40058 8562/ 333 58012 70130 83710 84618 88458==
41859,2024,05,21,00,00,AAXX 21004 41859 02430 81302 10248 20230 30023 40060 8562/ 333 59009 70040 83710 84618 88458==
41859,2024,05,21,03,00,AAXX 21034 41859 02450 82702 10288 20250 30037 40074 8561/ 333 20235 59014 70000 82710 82618 88458==
41859,2024,05,21,06,00,AAXX 21064 41859 02450 72702 10340 20220 30024 40061 83530 333 59013 70000 83618 87362==
41859,2024,05,21,09,00,AAXX 21094 41859 02956 01702 10351 20210 39994 40031 333 59006 70000==
41859,2024,05,21,12,00,AAXX 21124 41859 02450 50502 10341 20230 39986 40023 82520 333 10356 59009 70000 82618 85458==
41859,2024,05,21,15,00,AAXX 21154 41859 02430 50000 10303 20250 30015 40051 82520 333 59004 70000 82618 85458==
41859,2024,05,21,18,00,AAXX 21184 41859 02430 80000 10290 20260 30029 40066 8561/ 333 58006 70000 82710 84618 88458==
41859,2024,05,21,21,00,AAXX 21214 41859 02430 80000 10284 20260 30020 40057 8562/ 333 59001 70000 82710 84618 88458==
41859,2024,05,22,00,00,AAXX 22004 41859 02435 80000 10280 20260 30014 40051 8562/ 333 59009 70000 82710 84618 88458==
41859,2024,05,22,03,00,AAXX 22034 41859 01340 80000 10256 20256 30053 40090 79596 8572/ 333 20252 58016 70072 83708 84615 88456==
41859,2024,05,22,06,00,AAXX 22064 41859 21450 80000 10289 20230 30034 40071 70296 8462/ 333 58010 60098 70092 82710 83618 88458==
41859,2024,05,22,09,00,AAXX 22094 41859 02450 80000 10315 20240 30010 40046 8562/ 333 58016 70092 82710 83618 88458==
41859,2024,05,22,12,00,AAXX 22124 41859 02450 70501 10307 20240 39997 40033 83530 333 10315 58011 70092 83618 87362==
41859,2024,05,22,15,00,AAXX 22154 41859 02430 80000 10281 20260 30017 40054 8562/ 333 58002 70092 82710 84618 88458==
41859,2024,05,22,18,00,AAXX 22184 41859 02430 80000 10278 20270 30025 40062 8562/ 333 59004 70092 82710 84618 88458==
41859,2024,05,22,21,00,AAXX 22214 41859 02430 80000 10274 20250 30020 40057 8562/ 333 58000 70092 82710 84618 88458==
41859,2024,05,23,00,00,AAXX 23004 41859 02430 80000 10273 20250 30016 40053 8562/ 333 58002 70092 82710 84618 88458==
41859,2024,05,23,03,00,AAXX 23034 41859 02440 40502 10333 20240 30024 40061 83510 333 20243 59029 70020 83618 84458==
41859,2024,05,23,06,00,AAXX 23064 41859 02450 70502 10355 20240 30002 40039 83520 333 59032 70000 83618 87458==
41859,2024,05,23,09,00,AAXX 23094 41859 02450 50000 10365 20240 39974 40010 83520 333 59036 70000 83618 85458==
41859,2024,05,23,12,00,AAXX 23124 41859 02450 40000 10358 20240 39968 40004 82520 333 10375 59029 70000 82618 84458==
41859,2024,05,23,15,00,AAXX 23154 41859 02/30 30000 10315 20280 39989 40025 83030 333 59028 70000 83362==
41859,2024,05,23,18,00,AAXX 23184 41859 02/30 20000 10300 20280 39994 40030 82030 333 59031 70000 82362==
41859,2024,05,23,21,00,AAXX 23214 41859 02/30 20000 10290 20280 39994 40031 82030 333 59026 70000 82362==
41863,2024,05,17,00,00,AAXX 17004 41863 02/50 31702 10254 20230 30031 40074 83030 333 59020 70000 83365==
41863,2024,05,17,03,00,AAXX 17034 41863 02957 01302 10330 20230 30038 40080 333 20246 59026 70000==
41863,2024,05,17,06,00,AAXX 17064 41863 02/57 31803 10352 20230 30023 40064 83030 333 59029 70000 83365==
41863,2024,05,17,09,00,AAXX 17094 41863 02/57 32301 10381 20220 39983 40024 83030 333 59036 70000 83362==
41863,2024,05,17,12,00,AAXX 17124 41863 02/57 41801 10360 20260 39978 40019 84030 333 10385 59022 70000 84362==
41863,2024,05,17,15,00,AAXX 17154 41863 02950 01301 10311 20270 39999 40041 333 59029 70000==
41863,2024,05,17,18,00,AAXX 17184 41863 02/50 21801 10309 20270 39997 40039 82030 333 58029 70000 82362==
41863,2024,05,17,21,00,AAXX 17214 41863 02/50 20000 10297 20280 39994 40036 82030 333 59031 70000 82362==
41863,2024,05,18,00,00,AAXX 18004 41863 02/50 20000 10290 20230 39996 40038 82030 333 59035 70000 82362==
41863,2024,05,18,03,00,AAXX 18034 41863 02457 51303 10320 20250 30022 40064 83520 333 20287 59016 70000 83618 85458==
41863,2024,05,18,06,00,AAXX 18064 41863 02457 61803 10338 20260 30011 40052 84520 333 59012 70000 84618 86458==
41863,2024,05,18,09,00,AAXX 18094 41863 02456 60903 10330 20240 39980 40022 83520 333 59003 70000 83618 86458==
41863,2024,05,18,12,00,AAXX 18124 41863 02456 50902 10310 20250 39973 40015 83520 333 10340 59005 70000 83618 85458==
41863,2024,05,18,15,00,AAXX 18154 41863 02450 60903 10290 20240 39997 40039 84520 333 59002 70000 84618 86458==
41863,2024,05,18,18,00,AAXX 18184 41863 02450 80903 10270 20220 30011 40054 8552/ 333 58014 70000 85618 88458==
41863,2024,05,18,21,00,AAXX 18214 41863 02450 81302 10252 20230 30008 40051 8552/ 333 58014 70000 85618 88458==
41863,2024,05,19,00,00,AAXX 19004 41863 02450 80903 10246 20230 30010 40053 8552/ 333 58014 70000 85618 88458==
41863,2024,05,19,03,00,AAXX 19034 41863 02957 00503 10288 20230 30023 40065 333 20238 58001 70000==
41863,2024,05,19,06,00,AAXX 19064 41863 02957 00903 10333 20210 30001 40043 333 59010 70000==
41863,2024,05,19,09,00,AAXX 19094 41863 02457 70902 10353 20230 39970 40011 83520 333 59010 70000 83168 87459==
41863,2024,05,19,12,00,AAXX 19124 41863 02457 80000 10340 20240 39959 40000 8452/ 333 10360 59014 70000 84618 88458==
41863,2024,05,19,15,00,AAXX 19154 41863 02456 80902 10308 20250 39984 40026 8592/ 333 59013 70000 84618 88458 81925==
41863,2024,05,19,18,00,AAXX 19184 41863 01450 80905 10260 20240 30002 40045 79592 8592/ 333 59009 70020 84616 88458 82925==
41863,2024,05,19,21,00,AAXX 19214 41863 01440 80908 10240 20220 39995 40038 79596 8592/ 333 59010 70110 84616 88458 82925==
41863,2024,05,20,00,00,AAXX 20004 41863 21430 82702 10228 20220 30033 40076 79596 8592/ 333 58023 60599 70610 84616 88458 82925==
41863,2024,05,20,03,00,AAXX 20034 41863 01350 81803 10233 20230 30048 40091 76196 8672/ 333 20217 58025 70638 82710 85616 88457==
41863,2024,05,20,06,00,AAXX 20064 41863 21457 60905 10280 20230 30027 40070 70196 83510 333 58026 60048 70650 83618 86458==
41863,2024,05,20,09,00,AAXX 20094 41863 02/57 31302 10310 20230 39995 40037 83030 333 58025 70650 83362==
41863,2024,05,20,12,00,AAXX 20124 41863 02957 01301 10300 20230 39983 40025 333 10311 58024 70065==
41863,2024,05,20,15,00,AAXX 20154 41863 02956 00000 10271 20250 30010 40153 333 58026 70650==
41863,2024,05,20,18,00,AAXX 20184 41863 02450 80901 10270 20240 30016 40059 8552/ 333 58014 70630 85618 88458==
41863,2024,05,20,21,00,AAXX 20214 41863 02450 80000 10264 20240 30013 40056 8552/ 333 58018 70540 85618 88458==
41863,2024,05,21,00,00,AAXX 21004 41863 02450 80000 10259 20240 30018 40061 8552/ 333 59015 70040 85618 88458==
41863,2024,05,21,03,00,AAXX 21034 41863 01350 80903 10252 20230 30030 40073 76162 8572/ 333 20223 59018 70024 82709 85617 88457==
41863,2024,05,21,06,00,AAXX 21064 41863 21457 60903 10316 20240 30023 40065 70162 83520 333 59004 60018 70012 83618 86458==
41863,2024,05,21,09,00,AAXX 21094 41863 02557 30901 10340 20240 39992 40033 83400 333 59003 70012 83620==
41863,2024,05,21,12,00,AAXX 21124 41863 02456 40000 10332 20250 39981 40023 84400 333 10340 59002 70012 84618==
41863,2024,05,21,15,00,AAXX 21154 41863 02/50 20000 10286 20250 30009 40051 82030 333 59001 70012 82365==
41863,2024,05,21,18,00,AAXX 21184 41863 02950 20901 10280 20250 30021 40063 80002 333 58005 70012 82083==
41863,2024,05,21,21,00,AAXX 21214 41863 02550 30901 10274 20240 30017 40060 83400 333 58004 70012 83620==
41863,2024,05,22,00,00,AAXX 22004 41863 02440 80902 10265 20240 30022 40065 8552/ 333 58004 70012 85617 88458==
41863,2024,05,22,03,00,AAXX 22034 41863 01350 81803 10254 20230 30041 40084 76122 8572/ 333 20247 58011 70014 83709 85616 88457==
41863,2024,05,22,06,00,AAXX 22064 41863 21456 80903 10282 20240 30025 40068 70262 8552/ 333 58002 60025 70022 85618 88458==
41863,2024,05,22,09,00,AAXX 22094 41863 02456 70501 10301 20240 30008 40050 84520 333 58016 70022 84618 87458==
41863,2024,05,22,12,00,AAXX 22124 41863 02456 60501 10305 20250 39989 40031 83520 333 10308 58008 70022 83618 86458==
41863,2024,05,22,15,00,AAXX 22154 41863 02450 60000 10280 20250 30009 40051 83520 333 58000 70022 83618 86458==
41863,2024,05,22,18,00,AAXX 22184 41863 02450 80501 10276 20260 30013 40055 8552/ 333 59008 70022 85618 88458==
41863,2024,05,22,21,00,AAXX 22214 41863 02450 80501 10274 20250 30006 40049 8552/ 333 59011 70022 85618 88458==
41863,2024,05,23,00,00,AAXX 23004 41863 02450 60501 10270 20250 30008 40051 83520 333 59014 70022 83618 86458==
41863,2024,05,23,03,00,AAXX 23034 41863 02957 03602 10321 20250 30016 40058 333 20248 59025 70008==
41863,2024,05,23,06,00,AAXX 23064 41863 02457 51803 10358 20250 30005 40046 85400 333 59020 70000 83618 85825==
41863,2024,05,23,09,00,AAXX 23094 41863 02557 52701 10362 20250 39968 40009 85400 333 59040 70000 85620==
41863,2024,05,23,12,00,AAXX 23124 41863 02956 00000 10356 20250 39961 40002 333 10366 59028 70000==
41863,2024,05,23,15,00,AAXX 23154 41863 02950 00000 10305 20280 39982 40024 333 59027 70000==
41863,2024,05,23,18,00,AAXX 23184 41863 02950 00000 10294 20270 39989 40031 333 59024 70000==
41863,2024,05,23,21,00,AAXX 23214 41863 02950 00000 10290 20070 39985 40027 333 59021 70000==
41881,2024,05,17,00,00,AAXX 17004 41881 31430 80000 10255 20250 30054 40074 70522 8552/ 333 56999 59034 70020 85616 88459=
41881,2024,05,17,06,00,AAXX 17064 41881 32457 62002 10336 20260 30046 40065 83520 333 56990 59025 70020 83617 86459=
41881,2024,05,17,12,00,AAXX 17124 41881 32456 31701 10350 20270 30003 40022 83500 333 10366 56900 59024 70020 83620=
41881,2024,05,18,00,00,AAXX 18004 41881 32456 71902 10287 20260 30024 40044 84520 333 56990 59030 70000 84617 87459=
41881,2024,05,18,06,00,AAXX 18064 41881 32457 70902 10300 20250 30037 40057 84520 333 56990 59009 70000 84617 87459=
41881,2024,05,18,12,00,AAXX 18124 41881 32456 60901 10310 20260 39997 40017 83520 333 56990 59006 70000 83615 86458=
41881,2024,05,18,18,00,AAXX 18184 41881 32450 50901 10265 26250 30032 40052 83520 333 56990 58011 70000 83617 85459=
41881,2024,05,19,00,00,AAXX 19004 41881 32456 60902 10252 20240 30036 40056 83520 333 56990 58012 70000 83617 86459=
41881,2024,05,19,06,00,AAXX 19064 41881 32458 51302 10330 20220 30020 40040 83520 333 56990 59017 70000 83618 85460=
41881,2024,05,19,12,00,AAXX 19124 41881 32457 41001 10330 20250 39983 40003 84500 333 10350 56900 59014 70000 84618=
41881,2024,05,19,18,00,AAXX 19184 41881 11456 80908 10240 20220 30029 40049 69904 71796 8592/ 333 56299 59003 79999 85615 88458=
41881,2024,05,20,00,00,AAXX 20004 41881 11457 70505 10230 20210 30033 40053 60024 72162 84520 333 56290 59003 70015 84615 87458=
41881,2024,05,20,06,00,AAXX 20064 41881 11457 50301 10280 20230 30046 40065 60105 70196 83520 333 56990 58026 70115 83615 85458=
41881,2024,05,20,12,00,AAXX 20124 41881 32457 60501 10290 20240 30008 40028 83520 333 10310 56990 59025 70115 83616 86459=
41881,2024,05,20,18,00,AAXX 20184 41881 32956 00302 10265 20205 30034 40054 333 58005 70115=
41881,2024,05,21,00,00,AAXX 21004 41881 32456 80801 10255 20250 30040 40060 8552/ 333 56299 58007 70100 85616 88459=
41881,2024,05,21,06,00,AAXX 21064 41881 32457 81402 10305 20240 30040 40059 8552/ 333 56999 59006 70000 85616 88459=
41881,2024,05,21,12,00,AAXX 21124 41881 32956 01001 10314 20220 30004 40024 333 10330 59004 70000=
41881,2024,05,21,18,00,AAXX 21184 41881 32450 70901 10275 20240 30038 40058 84520 333 56990 58004 70000 84617 87459=
41881,2024,05,22,00,00,AAXX 22004 41881 11440 80503 10230 20230 30038 40058 60344 79596 5892/ 333 56199 59002 70335 85614 82928 88458=
41881,2024,05,22,06,00,AAXX 22064 41881 11456 80901 10270 20240 30049 40069 60333 70292 8552/ 333 56299 58009 70667 85618 88458=
41881,2024,05,22,12,00,AAXX 22124 41881 32457 40801 10295 20260 30011 40031 84500 333 10300 56900 58007 70667 84616=
41881,2024,05,22,18,00,AAXX 22184 41881 32450 40901 10267 20260 30038 40058 84500 333 56900 58000 70667 84616=
41881,2024,05,23,00,00,AAXX 23004 41881 32450 60901 10257 20250 30044 40064 83520 333 56990 58006 70332 83616 86459=
41881,2024,05,23,06,00,AAXX 23064 41881 32457 40901 10350 20260 30026 40046 84500 333 56900 59023 70000 84616=
41881,2024,05,23,12,00,AAXX 23124 41881 32456 23601 10340 20270 39984 40003 82500 333 10360 56900 59027 70000 82618=
41881,2024,05,23,18,00,AAXX 23184 41881 32950 00000 10290 20280 30014 40034 333 59024 70000=
41883,2024,05,17,00,00,AAXX 17004 41883 02440 80000 10275 20250 30054 40074 8552/ 333 59022 70010 85616 88458==
41883,2024,05,17,03,00,AAXX 17034 41883 02456 60000 10320 20250 30063 40083 83530 333 20265 59026 70010 83616 86362==
41883,2024,05,17,06,00,AAXX 17064 41883 02456 60000 10350 20250 30046 40066 82530 333 59030 70010 82616 86362==
41883,2024,05,17,09,00,AAXX 17094 41883 02456 60000 10374 20240 30014 40033 83520 333 59027 70010 83618 86458==
41883,2024,05,17,12,00,AAXX 17124 41883 02450 61302 10360 20260 30004 40024 82520 333 10378 59025 70010 82618 86458==
41883,2024,05,17,15,00,AAXX 17154 41883 02430 71302 10334 20260 30026 40046 83520 333 59013 70000 83616 87459==
41883,2024,05,17,18,00,AAXX 17184 41883 02430 81804 10318 20270 30024 40044 8552/ 333 59023 70000 85616 88459==
41883,2024,05,17,21,00,AAXX 17214 41883 02430 81802 10308 20270 30021 40041 8552/ 333 59029 70000 85616 88459==
41883,2024,05,18,00,00,AAXX 18004 41883 02456 61302 10298 20270 30028 40048 82520 333 59026 70000 82616 86459==
41883,2024,05,18,03,00,AAXX 18034 41883 02356 80906 10285 20240 30057 40077 8562/ 333 20282 59006 70000 85710 88459==
41883,2024,05,18,06,00,AAXX 18064 41883 02456 70906 10290 20230 30040 40060 84520 333 59006 74616 87459==
41883,2024,05,18,09,00,AAXX 18094 41883 02456 60903 10310 20240 30017 40037 84530 333 58003 70000 84616 86362==
41883,2024,05,18,12,00,AAXX 18124 41883 02450 61805 10296 20250 30005 40025 83530 333 10316 58001 70000 83616 86362==
41883,2024,05,18,15,00,AAXX 18154 41883 02430 80904 10284 20240 30024 40044 8352/ 333 59002 70000 83618 88458==
41883,2024,05,18,18,00,AAXX 18184 41883 02430 80902 10274 20230 30032 40052 8462/ 333 58008 70000 82710 83618 88458==
41883,2024,05,18,21,00,AAXX 18214 41883 02430 81302 10266 20240 30017 40037 8562/ 333 59004 70000 83710 84618 88458==
41883,2024,05,19,00,00,AAXX 19004 41883 02450 80000 10264 20230 30033 40053 8562/ 333 58005 70000 82710 84618 88458==
41883,2024,05,19,03,00,AAXX 19034 41883 02450 70902 10290 20250 30048 40068 84520 333 20260 59009 70000 84616 87459==
41883,2024,05,19,06,00,AAXX 19064 41883 02456 61302 10326 20270 30023 40043 83510 333 59017 70000 83616 86459==
41883,2024,05,19,09,00,AAXX 19094 41883 02456 40904 10342 20250 39995 40015 82510 333 59022 70000 82616 84459==
41883,2024,05,19,12,00,AAXX 19124 41883 02456 60904 10335 20250 39986 40006 82530 333 10345 59019 70000 82616 85362==
41883,2024,05,19,15,00,AAXX 19154 41883 01330 81302 10308 20270 30006 40026 71722 8592/ 333 59018 70000 85709 88458 81930==
41883,2024,05,19,18,00,AAXX 19184 41883 21330 81802 10264 20250 30043 40063 79596 8592/ 333 58011 60027 70020 85709 88458 82930==
41883,2024,05,19,21,00,AAXX 19214 41883 01330 81302 10234 20220 30018 40028 72166 8562/ 333 58001 70420 85709 88482==
41883,2024,05,20,00,00,AAXX 20004 41883 21340 83602 10238 20230 30052 40072 70262 8562/ 333 58019 60408 70420 85709 88458==
41883,2024,05,20,03,00,AAXX 20034 41883 01356 83108 10255 20230 30072 40092 71722 8532/ 333 20226 58024 70420 85710 88458 81930==
41883,2024,05,20,06,00,AAXX 20064 41883 21356 80904 10264 20230 30041 40061 76196 8572/ 333 58018 60097 70508 85709 88458==
41883,2024,05,20,09,00,AAXX 20094 41883 01456 40902 10318 20240 30016 40036 70162 82520 333 58021 70512 82618 84458==
41883,2024,05,20,12,00,AAXX 20124 41883 11450 40902 10304 20240 30008 40028 69946 70262 82520 333 10320 58022 70512 82618 84458==
41883,2024,05,20,15,00,AAXX 20154 41883 02/30 60000 10282 20260 30030 40050 86010 333 58024 70512 86458==
41883,2024,05,20,18,00,AAXX 20184 41883 02/30 40000 10274 20250 30026 40056 84010 333 59007 70492 84459==
41883,2024,05,20,21,00,AAXX 20214 41883 02/30 50000 10264 20240 30033 40053 85010 333 58015 70092 85459==
41883,2024,05,21,00,00,AAXX 21004 41883 02340 81302 10258 20240 30043 40063 8562/ 333 59009 70092 85709 88458==
41883,2024,05,21,03,00,AAXX 21034 41883 02450 43102 10300 20240 30052 40072 82520 333 20235 58004 70092 82618 84458==
41883,2024,05,21,06,00,AAXX 21064 41883 02450 80000 10320 20230 30043 40063 8452/ 333 58002 70004 84618 88458==
41883,2024,05,21,09,00,AAXX 21094 41883 02456 61302 10310 20240 30014 40034 83520 333 59002 70000 83616 86459==
41883,2024,05,21,12,00,AAXX 21124 41883 02956 01802 10314 20220 30004 40024 333 10325 59004 70000==
41883,2024,05,21,15,00,AAXX 21154 41883 02930 00000 10286 20250 30027 40047 333 59003 70000==
41883,2024,05,21,18,00,AAXX 21184 41883 02/30 40000 10285 20260 30040 40060 84030 333 58006 70000 84362==
41883,2024,05,21,21,00,AAXX 21214 41883 02430 81302 10278 20250 30033 40053 8552/ 333 58000 70000 85616 88459==
41883,2024,05,22,00,00,AAXX 22004 41883 01340 80902 10267 20240 30033 40053 71792 8532/ 333 59010 70000 85710 88459 81930==
41883,2024,05,22,03,00,AAXX 22034 41883 01340 80000 10240 20230 30073 40093 79596 8592/ 333 58022 70750 85709 88458 81930==
41883,2024,05,22,06,00,AAXX 22064 41883 21350 80502 10260 20240 30048 40068 72996 8552/ 333 58005 60809 70800 85615 88458==
41883,2024,05,22,09,00,AAXX 22094 41883 01450 80902 10294 20260 30024 40044 70296 8562/ 333 58010 70802 82710 84618 88458==
41883,2024,05,22,12,00,AAXX 22124 41883 01450 40000 10300 20250 30009 40029 70196 82520 333 10310 58005 70802 82618 84458==
41883,2024,05,22,15,00,AAXX 22154 41883 02430 80000 10280 20260 30027 40047 8552/ 333 58000 70802 85616 88459==
41883,2024,05,22,18,00,AAXX 22184 41883 02/30 30000 10276 20260 30034 40054 83030 333 59006 70802 83362==
41883,2024,05,22,21,00,AAXX 22214 41883 02430 60000 10276 20260 30029 40049 82530 333 59004 70802 82616 86362==
41883,2024,05,23,00,00,AAXX 23004 41883 02450 60000 10274 20260 30030 40050 82530 333 59003 70802 82616 86362==
41883,2024,05,23,03,00,AAXX 23034 41883 02456 60000 10315 20270 30045 40065 82530 333 20234 59028 70052 82616 86362==
41883,2024,05,23,06,00,AAXX 23064 41883 02456 60000 10350 20260 30027 40047 82530 333 59021 70002 82616 86362==
41883,2024,05,23,09,00,AAXX 23094 41883 02456 60000 10365 20250 30998 40018 82530 333 59026 70000 82616 86362==
41883,2024,05,23,12,00,AAXX 23124 41883 02456 60000 10335 20270 30984 40004 82530 333 10365 59025 70000 82616 86362==
41883,2024,05,23,15,00,AAXX 23154 41883 02430 40000 10312 20280 30002 40022 82520 333 59023 70000 82618 84458==
41883,2024,05,23,18,00,AAXX 23184 41883 02/30 30000 10298 20270 30009 40029 83030 333 59025 70000 83362==
41883,2024,05,23,21,00,AAXX 23214 41883 02430 60000 10290 20270 30004 40024 82520 333 59025 70000 82618 86458==
41886,2024,05,17,00,00,AAXX 17004 41886 01/40 80000 10280 20270 30060 40080 70522 87070 333 59022 70000 84460 85362==
41886,2024,05,17,03,00,AAXX 17034 41886 02450 50000 10317 20260 30067 40087 83570 333 20276 59027 70000 83618 85460==
41886,2024,05,17,06,00,AAXX 17064 41886 02456 50000 10347 20260 30055 40075 83570 333 59028 70000 83618 85460==
41886,2024,05,17,09,00,AAXX 17094 41886 02458 51803 10358 20260 30023 40043 81540 333 59025 70000 81618 85363==
41886,2024,05,17,12,00,AAXX 17124 41886 02/57 21802 10340 20270 30014 40034 82030 333 10361 59019 70000 82365==
41886,2024,05,17,15,00,AAXX 17154 41886 02450 81502 10315 20270 30034 40054 8351/ 333 59021 70000 83618 88460==
41886,2024,05,17,18,00,AAXX 17184 41886 02450 81503 10310 20270 30037 40057 8452/ 333 59016 70000 84616 88458==
41886,2024,05,17,21,00,AAXX 17214 41886 02450 81503 10300 20260 30042 40062 8452/ 333 59005 70000 84616 88458==
41886,2024,05,18,00,00,AAXX 18004 41886 02456 71108 10265 20230 30052 40073 83520 333 59008 70000 83618 87460==
41886,2024,05,18,03,00,AAXX 18034 41886 01350 80906 10238 20230 30071 40092 79596 8692/ 333 20237 58004 70136 83708 85613 88456 81928==
41886,2024,05,18,06,00,AAXX 18064 41886 11450 80902 10272 20230 30050 40071 60141 70299 8352/ 333 59005 70136 83616 88458==
41886,2024,05,18,09,00,AAXX 18094 41886 02450 80000 10290 20240 30029 40049 8352/ 333 58006 70136 83618 88460==
41886,2024,05,18,12,00,AAXX 18124 41886 02450 80902 10280 20240 30023 40043 8352/ 333 10325 58005 70136 83618 88460==
41886,2024,05,18,15,00,AAXX 18154 41886 02450 60902 10265 20240 30035 40055 83570 333 58001 70136 83618 85460==
41886,2024,05,18,18,00,AAXX 18184 41886 02450 60000 10260 20240 30034 40054 83570 333 59003 70136 83618 85460==
41886,2024,05,18,21,00,AAXX 18214 41886 02450 60000 10258 20250 30036 40056 83570 333 59006 70136 83618 85460==
41886,2024,05,19,00,00,AAXX 19004 41886 02450 80902 10257 20250 30038 40058 8352/ 333 59014 70136 83618 88460==
41886,2024,05,19,03,00,AAXX 19034 41886 02450 80902 10285 20260 30052 40072 8352/ 333 20236 59019 70000 83618 88460==
41886,2024,05,19,06,00,AAXX 19064 41886 02450 60905 10310 20260 30033 40053 83570 333 59017 70000 83618 85460==
41886,2024,05,19,09,00,AAXX 19094 41886 02456 70904 10310 20260 30010 40030 83570 333 59019 70000 83618 86460==
41886,2024,05,19,12,00,AAXX 19124 41886 02456 70904 10305 20260 30005 40025 83510 333 10322 59018 70000 83618 87460==
41886,2024,05,19,15,00,AAXX 19154 41886 02450 20000 10270 20240 30023 40044 82500 333 59012 70000 82618==
41886,2024,05,19,18,00,AAXX 19184 41886 01340 80408 10250 20220 30051 40072 71796 8632/ 333 58017 70002 83710 85616 88482 81930==
41886,2024,05,19,21,00,AAXX 19214 41886 01450 82302 10247 20220 30014 40035 70292 8351/ 333 59022 70002 83618 88460==
41886,2024,05,20,00,00,AAXX 20004 41886 01450 80000 10242 20220 30042 40064 70292 8331/ 333 58004 70002 83616 88458 81930==
41886,2024,05,20,03,00,AAXX 20034 41886 02456 60404 10273 20220 30064 40085 82510 333 20241 58012 70002 82618 85460==
41886,2024,05,20,06,00,AAXX 20064 41886 02456 80803 10297 20220 30059 40079 8352/ 333 58026 70002 83618 88460==
41886,2024,05,20,09,00,AAXX 20094 41886 02/57 41205 10324 20230 30013 40033 85040 333 58003 70000 85362==
41886,2024,05,20,12,00,AAXX 20124 41886 02/57 70000 10318 20260 30014 40034 87070 333 10330 58009 70000 84460 85362==
41886,2024,05,20,15,00,AAXX 20154 41886 02/50 70000 10287 20270 30026 40046 87070 333 58003 70000 84460 85362==
41886,2024,05,20,18,00,AAXX 20184 41886 02450 70000 10274 20250 30043 40064 82510 333 59009 70000 82618 86460==
41886,2024,05,20,21,00,AAXX 20214 41886 02450 70000 10266 20250 30042 40063 81470 333 58028 70000 81618 84460 85362==
41886,2024,05,21,00,00,AAXX 21004 41886 02456 70503 10250 20230 30047 40068 81570 333 58005 70000 81618 84460 85362==
41886,2024,05,21,03,00,AAXX 21034 41886 02457 70000 10294 20220 30056 40076 82570 333 20250 59008 70000 82618 84460 85362==
41886,2024,05,21,06,00,AAXX 21064 41886 02458 51306 10335 20250 30044 40064 82470 333 59015 70000 81618 84460==
41886,2024,05,21,09,00,AAXX 21094 41886 02/58 11406 10350 20220 30015 40035 81030 333 58002 70000 81365==
41886,2024,05,21,12,00,AAXX 21124 41886 02/57 60000 10320 20260 30005 40025 86070 333 10352 59009 70000 84460 85362==
41886,2024,05,21,15,00,AAXX 21154 41886 02450 82301 10296 20270 30034 40054 8452/ 333 58008 70000 84616 88458==
41886,2024,05,21,18,00,AAXX 21184 41886 02450 80000 10293 20250 30047 40067 8452/ 333 58004 70000 84616 88458==
41886,2024,05,21,21,00,AAXX 21214 41886 02450 80000 10290 20260 30045 40065 8452/ 333 58003 70000 84616 88458==
41886,2024,05,22,00,00,AAXX 22004 41886 01456 81106 10255 20220 30047 40068 71722 8432/ 333 58000 70000 84616 88458 81930==
41886,2024,05,22,03,00,AAXX 22034 41886 01457 60905 10285 20230 30062 40082 70192 82530 333 20255 58006 70000 82618 86363==
41886,2024,05,22,06,00,AAXX 22064 41886 01/57 50904 10325 20230 30054 40074 70192 85030 333 58010 70000 85363==
41886,2024,05,22,09,00,AAXX 22094 41886 02/57 51202 10350 20240 30020 40040 85030 333 58005 70000 85365==
41886,2024,05,22,12,00,AAXX 22124 41886 02/56 30000 10330 20250 30011 40031 83030 333 10355 58006 70000 83365==
41886,2024,05,22,15,00,AAXX 22154 41886 02450 40000 10300 20280 30033 40053 83570 333 59001 70000 83618 84460==
41886,2024,05,22,21,00,AAXX 22214 41886 02450 40000 10280 20270 30035 40055 83570 333 59010 70000 83618 84460==
41886,2024,05,23,00,00,AAXX 23004 41886 01450 50901 10277 20270 30034 40054 70522 83570 333 59013 70000 83618 84460==
41886,2024,05,23,03,00,AAXX 23034 41886 02456 30000 10330 20250 30040 40060 83500 333 20274 59022 70000 83618==
41886,2024,05,23,06,00,AAXX 23064 41886 02957 00000 10356 20240 30025 40045 333 59029 70000==
41886,2024,05,23,09,00,AAXX 23094 41886 333 59030 70000 82462==
41886,2024,05,23,12,00,AAXX 23124 41886 02950 00000 10352 20250 39985 40005 333 10377 59026 70000==
41886,2024,05,23,15,00,AAXX 23154 41886 02940 00000 10312 20290 30004 40024 333 59029 70000==
41886,2024,05,23,18,00,AAXX 23184 41886 02940 00000 10294 20270 30018 40038 333 59019 70000==
41886,2024,05,23,21,00,AAXX 23214 41886 02940 00000 10290 20260 30015 40036 333 59020 70000==
41888,2024,05,17,00,00,AAXX 17004 41888 31440 30501 10270 20250 30064 40074 70511 82510 333 56990 59022 70000 82618 83460=
41888,2024,05,17,06,00,AAXX 17064 41888 32456 42701 10350 20240 30058 40068 82510 333 56990 59028 70000 82618 83460=
41888,2024,05,17,12,00,AAXX 17124 41888 32457 42001 10342 20250 30003 40013 82410 333 10370 56990 59045 70000 82618 83460=
41888,2024,05,17,18,00,AAXX 17184 41888 32450 42701 10300 20260 30041 40051 82410 333 56990 59027 70000 82618 83460=
41888,2024,05,18,00,00,AAXX 18004 41888 11440 72701 10240 20220 30065 40075 60014 76122 83510 333 56990 58001 70010 83617 87460=
41888,2024,05,18,06,00,AAXX 18064 41888 11456 60901 10280 20210 30057 40067 60058 70196 83510 333 56999 59001 70060 83617 87460=
41888,2024,05,18,12,00,AAXX 18124 41888 32456 40901 10280 20220 30033 40043 82430 333 10290 56990 58030 70060 82618 83362=
41888,2024,05,19,00,00,AAXX 19004 41888 32450 60901 10260 20240 30045 40055 333 56990 59020 70050 82617 86460=
41888,2024,05,19,06,00,AAXX 19064 41888 32456 61201 10300 20250 30041 40051 82420 333 56990 59016 70000 82616 86460=
41888,2024,05,19,12,00,AAXX 19124 41888 32456 40901 10295 20250 30014 40024 82410 333 10316 56990 59019 70000 82618 84460=
41888,2024,05,19,18,00,AAXX 19184 41888 NIL=
41888,2024,05,20,00,00,AAXX 20004 41888 32450 40501 10235 20230 30054 40064 82410 333 56990 59009 70000 82618 84460=
41888,2024,05,20,06,00,AAXX 20064 41888 11457 63601 10295 20230 30063 40073 69985 82410 333 56990 58022 70008 82618 86460=
41888,2024,05,20,12,00,AAXX 20124 41888 32456 40501 10315 20260 30021 40031 82410 333 10330 56990 58007 70008 82618 83460=
41888,2024,05,20,18,00,AAXX 20184 41888 NIL=
41888,2024,05,21,00,00,AAXX 21004 41888 31440 43601 10250 20230 30054 40064 70521 82510 333 56990 58000 70008 82618 83460=
41888,2024,05,21,06,00,AAXX 21064 41888 32457 40901 10345 20240 30048 40058 82510 333 56990 59015 70000 82618 83460=
41888,2024,05,21,12,00,AAXX 21124 41888 32457 31201 10335 20250 30009 40019 82510 333 10360 56990 59012 70000 82618 83460=
41888,2024,05,21,18,00,AAXX 21184 41888 NIL=
41888,2024,05,22,00,00,AAXX 22004 41888 32450 52101 10240 20220 30060 40070 82410 333 56990 58006 70000 82618 84460=
41888,2024,05,22,06,00,AAXX 22064 41888 32457 51801 10335 20220 30055 40065 82410 333 56990 58007 70000 82618 84460=
41888,2024,05,22,12,00,AAXX 22124 41888 32556 22101 10327 20250 30018 40028 81430 333 10366 56990 58009 70000 81620 52365=
41888,2024,05,22,18,00,AAXX 22184 41888 32956 22902 10272 20260 30044 40054 82030 333 56090 59010 70000 82365=
41888,2024,05,23,00,00,AAXX 23004 41888 32556 32701 10276 20260 30043 40053 82430 333 56990 59017 70000 82620 83365=
41888,2024,05,23,06,00,AAXX 23064 41888 32557 31001 10357 20230 30027 40037 82430 333 56990 59028 70000 82618=
41888,2024,05,23,12,00,AAXX 23124 41888 32957 33001 10360 20220 39989 49999 80001 333 10382 56009 59029 70000 83080=
41891,2024,05,17,00,00,AAXX 17004 41891 01430 80302 10278 20260 30040 40078 70522 8532/ 333 59006 70000 81710 84615 88459 81930==
41891,2024,05,17,03,00,AAXX 17034 41891 01430 61002 10325 20270 30049 40087 70522 83340 333 10274 59024 70000 83615 85365 81930==
41891,2024,05,17,06,00,AAXX 17064 41891 11440 82708 10338 20260 30041 40078 69966 79522 8532/ 333 59014 70006 85710 88458 81930==
41891,2024,05,17,09,00,AAXX 17094 41891 01450 42103 10344 20250 30005 40042 70596 82530 333 59017 70096 82616 84458==
41891,2024,05,17,12,00,AAXX 17124 41891 11440 70903 10337 20270 39998 40035 60096 70596 84330 333 10357 59013 70096 83616 87365 81930==
41891,2024,05,17,15,00,AAXX 17154 41891 01430 80000 10275 20250 30015 40053 71796 8532/ 333 59021 70119 82709 84615 88458 81930==
41891,2024,05,17,18,00,AAXX 17184 41891 21430 80910 10260 20240 30029 40068 71796 8532/ 333 59001 60219 70301 82709 84615 88458 81930==
41891,2024,05,17,21,00,AAXX 17214 41891 01320 80506 10241 20240 30042 40081 79596 8692/ 333 58008 70841 86708 88456 81925==
41891,2024,05,18,00,00,AAXX 18004 41891 21425 80502 10230 20220 30049 40088 79596 8632/ 333 58009 60789 71081 86708 88457 81925==
41891,2024,05,18,03,00,AAXX 18034 41891 01430 82302 10242 20230 30058 40097 76696 8632/ 333 20223 58009 71091 86708 88458 81925==
41891,2024,05,18,06,00,AAXX 18064 41891 21430 80904 10244 20220 30051 40090 76196 8672/ 333 58010 60019 71087 83710 83616 88458==
41891,2024,05,18,09,00,AAXX 18094 41891 01430 81205 10275 20220 30016 40054 70562 8532/ 333 58011 71007 82710 84615 88459 81930==
41891,2024,05,18,12,00,AAXX 18124 41891 11430 81203 10270 20220 30011 40049 60016 70562 8532/ 333 10280 58013 71007 81710 84615 88459 81930==
41891,2024,05,18,15,00,AAXX 18154 41891 01430 31003 10258 20240 30015 40053 70521 81530 333 58000 70984 81616 83365==
41891,2024,05,18,18,00,AAXX 18184 41891 01430 31003 10258 20240 30015 40053 70521 81530 333 58000 70984 81616 83365==
41891,2024,05,18,21,00,AAXX 18214 41891 01430 81103 10250 20240 30006 40044 70522 8532/ 333 59036 70262 81710 83616 88458 81930==
41891,2024,05,19,00,00,AAXX 19004 41891 01330 81103 10240 20230 30021 40060 79596 8632/ 333 59028 70130 85710 88458 81930==
41891,2024,05,19,03,00,AAXX 19034 41891 01430 81203 10245 20240 30039 40078 72122 8532/ 333 20240 59019 70144 82710 84615 88459 81930==
41891,2024,05,19,06,00,AAXX 19064 41891 11440 81203 10280 20240 30026 40064 69921 70562 8532/ 333 59025 70142 82710 84615 88459 81930==
41891,2024,05,19,09,00,AAXX 19094 41891 01445 61304 10300 20250 39997 40035 70522 83340 333 59019 70132 83615 85365 81930==
41891,2024,05,19,12,00,AAXX 19124 41891 01440 81002 10288 20250 39994 40032 70522 8532/ 333 10304 59017 70132 82710 84615 88459 81930==
41891,2024,05,19,15,00,AAXX 19154 41891 01440 61802 10274 20250 30007 40045 70522 83340 333 59008 70132 83615 85365 81930==
41891,2024,05,19,18,00,AAXX 19184 41891 01430 70000 10267 20250 30011 40049 70522 83340 333 59007 70132 83615 85365 81930==
41891,2024,05,19,21,00,AAXX 19214 41891 01430 80002 10265 20250 30016 40054 70522 8532/ 333 58010 70132 82710 84615 88459 81930==
41891,2024,05,20,00,00,AAXX 20004 41891 01430 80000 10260 20240 30024 40063 70522 8532/ 333 58003 70002 82710 84615 88459 81930==
41891,2024,05,20,03,00,AAXX 20034 41891 01445 80902 10285 20250 30048 40086 70522 8532/ 333 20260 58009 70000 82709 84615 88458 81930==
41891,2024,05,20,06,00,AAXX 20064 41891 01445 60502 10298 20270 30036 40074 70562 84330 333 58010 70010 83616 85365 81930==
41891,2024,05,20,09,00,AAXX 20094 41891 01445 60902 10316 20230 39993 40031 70522 84330 333 59004 70010 83616 85365 81930==
41891,2024,05,20,12,00,AAXX 20124 41891 01440 80000 10308 20240 39994 40032 70522 8532/ 333 10327 58000 70010 82710 84615 88459 81930==
41891,2024,05,20,15,00,AAXX 20154 41891 01430 60000 10285 20240 30009 40047 70522 85370 333 58002 70010 83616 85365 81930==
41891,2024,05,20,18,00,AAXX 20184 41891 01430 50000 10270 20250 30007 40045 70522 83330 333 58004 70010 83616 85365 81930==
41891,2024,05,20,21,00,AAXX 20214 41891 41430 50000 10270 20250 30008 40046 70522 83330 333 59008 83616 85365 81930==
41891,2024,05,21,00,00,AAXX 21004 41891 01435 40000 10260 20250 30022 40060 70522 82530 333 59002 70010 82616 84365==
41891,2024,05,21,03,00,AAXX 21034 41891 41450 50903 10313 20240 30036 40074 70522 82530 333 20258 59012 82616 85365==
41891,2024,05,21,06,00,AAXX 21064 41891 41450 30706 10338 20240 30019 40057 70522 81530 333 59017 81616 83365==
41891,2024,05,21,09,00,AAXX 21094 41891 01450 21503 10358 20240 39990 40027 70520 82500 333 59003 70000 82616==
41891,2024,05,21,12,00,AAXX 21124 41891 01940 02704 10335 20240 39982 40019 70510 333 10365 59012 70000==
41891,2024,05,21,15,00,AAXX 21154 41891 01940 03403 10302 20260 30013 40051 70500 333 58004 70000==
41891,2024,05,21,18,00,AAXX 21184 41891 01440 30602 10287 20260 30024 40062 70510 81530 333 58017 70000 81615 83365==
41891,2024,05,21,21,00,AAXX 21214 41891 01430 73604 10272 20250 30030 40068 70522 84370 333 58022 70000 84615 86460 81930==
41891,2024,05,22,00,00,AAXX 22004 41891 01435 73603 10258 20240 30036 40075 70522 84370 333 58014 70000 84615 86460 81930==
41891,2024,05,22,03,00,AAXX 22034 41891 01440 60000 10305 20230 30042 40080 70522 84370 333 20257 58006 70000 84615 85460 81930==
41891,2024,05,22,06,00,AAXX 22064 41891 01440 50904 10335 20240 30024 40061 70522 83370 333 58005 70000 83615 85460 81930==
41891,2024,05,22,09,00,AAXX 22094 41891 01450 50303 10345 20230 39996 40036 70522 83370 333 58006 70000 83665 84458 81930==
41891,2024,05,22,12,00,AAXX 22124 41891 01450 32903 10335 20250 39986 40024 70521 81530 333 10365 58004 70000 81616 83365==
41891,2024,05,22,15,00,AAXX 22154 41891 01430 32903 10305 20260 30011 40049 70521 81530 333 59002 70000 81616 83365==
41891,2024,05,22,18,00,AAXX 22184 41891 01430 30000 10274 20250 30027 40065 70511 81530 333 59003 70000 81616 83365==
41891,2024,05,22,21,00,AAXX 22214 41891 01430 30000 10274 20250 30027 40065 70511 81530 333 59003 70000 81616 83365==
41891,2024,05,23,00,00,AAXX 23004 41891 01435 20000 10270 20250 30015 40053 70521 82500 333 59021 70000 82616==
41891,2024,05,23,03,00,AAXX 23034 41891 01440 50904 10320 20240 30012 40049 70522 83530 333 20260 59030 70000 83616 85365==
41891,2024,05,23,06,00,AAXX 23064 41891 01450 21203 10355 20250 39996 40033 70521 82500 333 59028 70000 82615==
41891,2024,05,23,09,00,AAXX 23094 41891 01450 52802 10372 20240 39966 40002 70522 82530 333 59030 70000 82616 85365==
41891,2024,05,23,12,00,AAXX 23124 41891 01450 20402 10340 20240 39960 49997 70521 82500 333 10375 59026 70000 82616==
41891,2024,05,23,15,00,AAXX 23154 41891 01930 00903 10305 20240 39986 40024 70500 333 59027 70000==
41891,2024,05,23,18,00,AAXX 23184 41891 01930 00505 10295 20250 39999 40037 70500 333 59020 70000==
41891,2024,05,23,21,00,AAXX 23214 41891 01930 01004 10274 20240 30008 40046 70500 333 59019 70000==
41895,2024,05,17,00,00,AAXX 17004 41895 02450 60000 10257 20250 30045 40068 83520 333 59031 70033 83616 86458==
41895,2024,05,17,03,00,AAXX 17034 41895 02456 80000 10300 20270 30059 40082 8452/ 333 20255 59029 70033 84616 88458==
41895,2024,05,17,06,00,AAXX 17064 41895 02456 72302 10354 20270 30045 40067 84470 333 59034 70033 83616 85458==
41895,2024,05,17,09,00,AAXX 17094 41895 02/57 61802 10370 20270 30014 40035 83032 333 59025 70033 83362 85080==
41895,2024,05,17,12,00,AAXX 17124 41895 02456 50000 10345 20290 30007 40028 83520 333 10374 59020 70033 83616 85458==
41895,2024,05,17,15,00,AAXX 17154 41895 02450 50000 10316 20290 30024 40046 83520 333 59031 70000 83616 85458==
41895,2024,05,17,18,00,AAXX 17184 41895 02450 71801 10312 20250 30027 40049 84470 333 59033 70000 83616 85458==
41895,2024,05,17,21,00,AAXX 17214 41895 02450 51805 10300 20260 30026 40048 83520 333 59020 70000 83616 85458==
41895,2024,05,18,00,00,AAXX 18004 41895 02456 82705 10288 20280 30025 40047 8452/ 333 59020 70000 84616 88458==
41895,2024,05,18,03,00,AAXX 18034 41895 02456 82302 10312 20270 30042 40064 8452/ 333 20286 59017 70000 84616 88458==
41895,2024,05,18,06,00,AAXX 18064 41895 02456 81802 10338 20260 30032 40054 8452/ 333 59013 70000 84616 88458==
41895,2024,05,18,09,00,AAXX 18094 41895 02457 61803 10350 20240 30007 40029 83510 333 59007 70000 83616 86458==
41895,2024,05,18,12,00,AAXX 18124 41895 02450 80503 10326 20280 39992 40014 8452/ 333 10360 59015 70000 84616 88458==
41895,2024,05,18,18,00,AAXX 18184 41895 02/50 40402 10275 20260 30022 40044 84030 333 59005 70000 84362==
41895,2024,05,18,21,00,AAXX 18214 41895 02450 80503 10267 20250 30012 40034 8452/ 333 59014 70000 84616 88458==
41895,2024,05,19,00,00,AAXX 19004 41895 01450 80304 10265 20250 30028 40050 70522 8452/ 333 58003 70000 84616 88458==
41895,2024,05,19,03,00,AAXX 19034 41895 01456 70903 10295 20260 30046 40068 70522 83530 333 20260 58004 70000 83616 85362==
41895,2024,05,19,06,00,AAXX 19064 41895 02458 50903 10340 20260 30021 40042 82530 333 59011 70000 82616 84362==
41895,2024,05,19,09,00,AAXX 19094 41895 02458 51803 10360 20250 39992 40013 83530 333 59015 70000 83616 83362==
41895,2024,05,19,12,00,AAXX 19124 41895 02450 51301 10350 20270 39977 49998 83520 333 10370 59015 70000 83616 85458==
41895,2024,05,19,15,00,AAXX 19154 41895 02950 00000 10315 20280 30004 40026 333 59011 70000==
41895,2024,05,19,18,00,AAXX 19184 41895 02950 01302 10296 20270 30011 40033 333 59011 70000==
41895,2024,05,19,21,00,AAXX 19214 41895 02950 01302 10270 20250 30012 40034 333 58000 70000==
41895,2024,05,20,00,00,AAXX 20004 41895 02450 51302 10260 20250 30014 40036 83510 333 59014 70000 83616 85458==
41895,2024,05,20,03,00,AAXX 20034 41895 01420 83604 10250 20230 30067 40089 79522 8592/ 333 20248 58021 70022 84615 88458 81925==
41895,2024,05,20,06,00,AAXX 20064 41895 21558 30906 10289 20230 30039 40061 70196 81130 333 58018 60165 70155 81825 83362==
41895,2024,05,20,09,00,AAXX 20094 41895 02558 21303 10347 20250 30008 40029 82100 333 58016 70155 82825==
41895,2024,05,20,12,00,AAXX 20124 41895 02456 50000 10320 20260 30004 40026 83520 333 10349 58027 70155 83616 85458==
41895,2024,05,20,15,00,AAXX 20154 41895 02950 02201 10290 20260 30028 40050 333 58028 70155==
41895,2024,05,20,18,00,AAXX 20184 41895 NIL=
41895,2024,05,21,00,00,AAXX 21004 41895 02456 60902 10258 20240 30040 40062 83520 333 58026 70155 83616 86458==
41895,2024,05,21,03,00,AAXX 21034 41895 01456 60000 10294 20240 30048 40070 76122 83510 333 20233 59019 70133 83616 86458==
41895,2024,05,21,06,00,AAXX 21064 41895 01456 81301 10314 20250 30037 40059 70362 8532/ 333 59002 70006 84615 88458 81930==
41895,2024,05,21,09,00,AAXX 21094 41895 02457 50902 10330 20260 30009 40031 82510 333 58001 70006 82616 85458==
41895,2024,05,21,12,00,AAXX 21124 41895 02450 50000 10326 20270 30000 40021 82510 333 10343 59004 70006 82616 85458==
41895,2024,05,21,15,00,AAXX 21154 41895 02550 20901 10290 20260 30026 40048 82100 333 59002 70006 82825==
41895,2024,05,21,18,00,AAXX 21184 41895 02450 50502 10283 20240 30040 40062 83510 333 58009 70006 83616 85458==
41895,2024,05,21,21,00,AAXX 21214 41895 02450 80502 10272 20250 30027 40049 8452/ 333 59009 70006 84616 88458==
41895,2024,05,22,00,00,AAXX 22004 41895 01450 50000 10270 20260 30027 40050 70522 83520 333 59010 70006 83616 85458==
41895,2024,05,22,03,00,AAXX 22034 41895 01456 83604 10279 20240 30058 40080 70522 8452/ 333 20258 58010 70006 84616 88458==
41895,2024,05,22,06,00,AAXX 22064 41895 02456 83602 10276 20250 30048 40070 8452/ 333 58011 70020 84616 88458==
41895,2024,05,22,09,00,AAXX 22094 41895 02456 72701 10326 20270 30020 40042 84470 333 58011 70020 83616 85458==
41895,2024,05,22,12,00,AAXX 22124 41895 02450 50000 10305 20270 30006 40028 83520 333 10333 58006 70020 83616 85458==
41895,2024,05,22,15,00,AAXX 22154 41895 02450 50000 10290 20270 30025 40047 83520 333 59001 70020 83616 85458==
41895,2024,05,22,18,00,AAXX 22184 41895 02450 50000 10277 20270 30031 40053 83520 333 59009 70020 83616 85458==
41895,2024,05,22,21,00,AAXX 22214 41895 02450 53601 10273 20260 30027 40049 83520 333 58000 70020 83616 85458==
41895,2024,05,23,00,00,AAXX 23004 41895 02450 53601 10270 20260 30026 40048 83520 333 59001 70020 83616 85458==
41895,2024,05,23,03,00,AAXX 23034 41895 02557 30301 10331 20250 30036 40058 81109 333 20260 59022 70020 81825 83183==
41895,2024,05,23,06,00,AAXX 23064 41895 02558 30303 10355 20250 30022 40043 83200 333 59026 70000 83825==
41895,2024,05,23,09,00,AAXX 23094 41895 02458 51301 10366 20240 39992 40013 85400 333 59028 70000 82616 83820==
41895,2024,05,23,12,00,AAXX 23124 41895 02556 33602 10336 20260 39983 40004 83200 333 10372 59023 70000 83825==
41895,2024,05,23,15,00,AAXX 23154 41895 02550 30000 10302 20270 30005 40027 83200 333 59020 70000 83825==
41895,2024,05,23,18,00,AAXX 23184 41895 01330 83202 10275 20270 30004 40026 79596 8572/ 333 59031 70060 85709 88458 81930==
41895,2024,05,23,21,00,AAXX 23214 41895 01440 50000 10274 20260 30005 40027 70196 83520 333 59022 70060 83616 85458==
41897,2024,05,17,00,00,AAXX 17004 41897 31935 40000 10267 20250 30062 40075 70510 84030 333 56090 59028 70000 84362=
41897,2024,05,17,06,00,AAXX 17064 41897 32956 61802 10355 20260 30049 40062 86030 333 56090 59033 70000 86362=
41897,2024,05,17,12,00,AAXX 17124 41897 32956 30000 10350 20270 30015 40027 83030 333 10377 59022 70000 83362=
41897,2024,05,17,18,00,AAXX 17184 41897 32950 31802 10305 20270 30036 40049 83030 333 56090 59036 70000 83362=
41897,2024,05,18,00,00,AAXX 18004 41897 32940 61803 10286 20270 30034 40047 86030 333 56090 59028 70000 86360=
41897,2024,05,18,06,00,AAXX 18064 41897 32956 41003 10302 20240 30042 40055 84030 333 56090 59007 70000 84362=
41897,2024,05,18,12,00,AAXX 18124 41897 32450 61402 10290 20250 30010 40023 82530 333 10315 56990 59005 70000 82618 86362=
41897,2024,05,19,00,00,AAXX 19004 41897 32440 61002 10255 20240 30034 40047 81530 333 56990 58000 70000 81618 86362=
41897,2024,05,19,06,00,AAXX 19064 41897 32450 51805 10330 20240 30028 40041 81530 333 56990 59014 70000 81618 85362=
41897,2024,05,19,12,00,AAXX 19124 41897 32950 31802 10330 20260 39994 40006 83030 333 20350 56090 59016 70000 83362=
41897,2024,05,19,18,00,AAXX 19184 41897 31940 30505 10270 20240 30041 40054 70500 83030 333 56090 59009 70000 83362=
41897,2024,05,20,00,00,AAXX 20004 41897 31440 60902 10245 20240 30034 40047 70592 81510 333 56990 58000 70000 81618 86458=
41897,2024,05,20,06,00,AAXX 20064 41897 31450 60904 10270 20200 30050 40063 70522 82510 333 56990 58022 70000 82618 86458=
41897,2024,05,20,12,00,AAXX 20124 41897 32450 51403 10315 20240 30013 40026 82510 333 20340 56990 58019 70000 82618 85458=
41897,2024,05,20,18,00,AAXX 20184 41897 31940 00902 10250 20250 30043 40056 70500 333 58002 70000=
41897,2024,05,21,00,00,AAXX 21004 41897 31940 01802 10245 20240 30042 40056 70500 333 58008 70000=
41897,2024,05,21,06,00,AAXX 21064 41897 31450 50902 10330 20220 30046 40059 70520 82570 333 56990 59004 70000 82618 85458=
41897,2024,05,21,12,00,AAXX 21124 41897 31950 20901 10324 20230 30008 40021 69925 70162 82030 333 10335 56090 59005 70002 83362=
41897,2024,05,21,18,00,AAXX 21184 41897 NIL=
41897,2024,05,22,00,00,AAXX 22004 41897 11440 83602 10255 20250 30038 40051 60125 71796 8432/ 333 56999 59004 70122 82617 81928 88458=
41897,2024,05,22,06,00,AAXX 22064 41897 11450 82202 10285 20250 30052 40065 60175 70296 84310 333 56990 58006 70288 81710 83620 81930 88460=
41897,2024,05,22,12,00,AAXX 22124 41897 32450 61402 10300 20260 30032 40045 84310 333 10320 56990 58011 70288 83620 81930 84460=
41897,2024,05,22,18,00,AAXX 22184 41897 32450 50000 10280 20260 30042 40055 84310 333 56990 58014 70286 82620 84460=
41897,2024,05,23,00,00,AAXX 23004 41897 32450 50000 10270 20250 30042 40055 84310 333 56990 58010 70166 82620 84460=
41897,2024,05,23,06,00,AAXX 23064 41897 32456 52202 10350 20260 30027 40040 84310 333 56990 59020 70000 82620 84460=
41897,2024,05,23,12,00,AAXX 23124 41897 32456 50000 10340 20280 39992 40005 84310 333 10370 56990 59030 70000 82620 84460=
41897,2024,05,23,18,00,AAXX 23184 41897 31450 61403 10280 20260 30005 40018 71722 84310 333 56990 59035 70000 82620 84460=
41902,2024,05,17,00,00,AAXX 17004 41902 31430 20000 10277 20270 30056 40065 70544 82500 333 56900 59019 70000 82614=
41902,2024,05,17,06,00,AAXX 17064 41902 31450 31801 10355 20260 30053 40061 70240 83500 333 56900 59029 70000 83614=
41902,2024,05,17,12,00,AAXX 17124 41902 32440 21701 10335 20270 30022 40030 82500 333 10365 56900 59014 70000 82614=
41902,2024,05,18,00,00,AAXX 18004 41902 31430 60503 10253 20220 30060 40068 70540 82530 333 56990 58004 70000 82614 85362=
41902,2024,05,18,06,00,AAXX 18064 41902 11430 60903 10258 20230 30051 40059 60103 72196 83410 333 56290 59002 70100 82614 86459=
41902,2024,05,18,12,00,AAXX 18124 41902 32430 60903 10270 20240 30031 40039 83410 333 10295 56290 58009 70100 82614 86459=
41902,2024,05,19,00,00,AAXX 19004 41902 31430 80903 10256 20250 30031 40040 70544 8342/ 333 56299 59029 70100 82614 88459=
41902,2024,05,19,06,00,AAXX 19064 41902 31440 50902 10318 20270 30039 40047 70140 82430 333 56290 59012 70000 82614 84362=
41902,2024,05,19,12,00,AAXX 19124 41902 31456 81404 10270 20230 30022 40030 72922 8592/ 333 10340 56999 59009 70000 83614 81928 88458=
41902,2024,05,19,18,00,AAXX 19184 41902 NIL=
41902,2024,05,20,00,00,AAXX 20004 41902 31430 63602 10252 20240 30044 40053 70544 82530 333 56990 58013 70000 82615 86362=
41902,2024,05,20,06,00,AAXX 20064 41902 31456 73602 10322 20240 30056 40064 70344 83510 333 56990 58017 70000 83615 87459=
41902,2024,05,20,12,00,AAXX 20124 41902 32456 31802 10297 20250 30022 40030 83030 333 10348 56990 58000 70000 83362=
41902,2024,05,20,18,00,AAXX 20184 41902 32440 52701 10257 20240 30046 40054 85030 333 56990 58002 70000 85362=
41902,2024,05,21,00,00,AAXX 21004 41902 31930 22701 10240 20230 30044 40053 70544 82030 333 56090 58000 70000 82362=
41902,2024,05,21,06,00,AAXX 21064 41902 31456 20902 10350 20240 30044 40052 70144 82500 333 56900 59012 70000 82616=
41902,2024,05,21,12,00,AAXX 21124 41902 32450 12702 10328 20250 30010 40019 81500 333 10356 56900 59012 70000 81616=
41902,2024,05,21,18,00,AAXX 21184 41902 32440 70000 10292 20260 30044 40052 83520 333 56990 59002 70000 83615 87459=
41902,2024,05,22,00,00,AAXX 22004 41902 11450 73603 10240 20230 30049 40058 60174 76196 83520 333 56990 58005 70172 83614 87459=
41902,2024,05,22,06,00,AAXX 22064 41902 32456 60902 10322 20220 30050 40058 82530 333 56990 58006 70172 82616 86362=
41902,2024,05,22,12,00,AAXX 22124 41902 32456 60000 10318 20270 30025 40034 82530 333 10350 56990 58011 70172 82616 86362=
41902,2024,05,23,00,00,AAXX 23004 41902 32450 73601 10278 20270 30038 40046 83520 333 56990 59011 70000 83614 87459=
41902,2024,05,23,06,00,AAXX 23064 41902 32457 11201 10365 20250 30033 40042 81500 333 56200 59017 70000 81614=
41902,2024,05,23,12,00,AAXX 23124 41902 32457 13201 10350 20250 39998 40006 81500 333 10382 56200 59027 70000 81614=
41902,2024,05,23,18,00,AAXX 23184 41902 32450 13601 10295 20280 30017 40026 81500 333 56200 59024 70000 81614=
41907,2024,05,17,00,00,AAXX 17004 41907 02440 60000 10264 20250 30054 40069 83510 333 59026 70000 83615 86458==
41907,2024,05,17,03,00,AAXX 17034 41907 02450 71802 10331 20260 30065 40079 83570 333 20253 59027 70000 83615 86458==
41907,2024,05,17,06,00,AAXX 17064 41907 02456 72704 10370 20240 30048 40062 83510 333 59028 70000 83615 86458==
41907,2024,05,17,09,00,AAXX 17094 41907 02456 42703 10385 20240 30016 40030 84510 333 59029 70000 84615==
41907,2024,05,17,12,00,AAXX 17124 41907 02450 70000 10375 20260 30009 40023 84570 333 10395 59023 70000 84615 85458==
41907,2024,05,17,15,00,AAXX 17154 41907 02440 81802 10335 20260 30030 40045 8552/ 333 46499 59027 70000 85615 88458==
41907,2024,05,17,18,00,AAXX 17184 41907 02440 81804 10320 20270 30035 40059 8552/ 333 59017 70000 85615 88458==
41907,2024,05,17,21,00,AAXX 17214 41907 02440 81802 10310 20260 30032 40046 8552/ 333 59010 70000 85615 88458==
41907,2024,05,18,00,00,AAXX 18004 41907 02440 81802 10297 20270 30030 40045 8552/ 333 59024 70000 85615 88458==
41907,2024,05,18,03,00,AAXX 18034 41907 02450 81302 10305 20270 30053 40068 8552/ 333 20295 59012 70000 85615 88458==
41907,2024,05,18,06,00,AAXX 18064 41907 02456 61802 10342 20260 30038 40052 83510 333 59010 70000 83615 85458==
41907,2024,05,18,09,00,AAXX 18094 41907 02456 81302 10323 20270 30012 40027 8552/ 333 59004 70000 85615 88458==
41907,2024,05,18,12,00,AAXX 18124 41907 02450 80502 10325 20280 30002 40016 8352/ 333 10350 59007 70000 83615 88458==
41907,2024,05,18,15,00,AAXX 18154 41907 02440 80000 10295 20260 30021 40035 8352/ 333 59009 70000 83615 88458==
41907,2024,05,18,18,00,AAXX 18184 41907 02440 80000 10290 20260 30027 40042 8352/ 333 59008 70000 83615 88458==
41907,2024,05,18,21,00,AAXX 18214 41907 02440 80000 10288 20260 30020 40034 8352/ 333 59012 70000 83615 88458==
41907,2024,05,19,00,00,AAXX 19004 41907 02440 80902 10267 20260 30028 40043 8352/ 333 59002 70000 83615 88458==
41907,2024,05,19,03,00,AAXX 19034 41907 02450 81302 10300 20250 30043 40058 8551/ 333 20260 59010 70000 85615 88458==
41907,2024,05,19,06,00,AAXX 19064 41907 02450 61302 10355 20270 30025 40040 84510 333 59013 70000 84615 85458==
41907,2024,05,19,09,00,AAXX 19094 41907 02456 61302 10362 20250 39995 40009 83510 333 59017 70000 83615 85458==
41907,2024,05,19,12,00,AAXX 19124 41907 02/56 31802 10345 20270 39987 40001 83030 333 10370 59015 70000 83362==
41907,2024,05,19,15,00,AAXX 19154 41907 02/40 31304 10300 20220 30007 40022 83030 333 59014 70000 83362==
41907,2024,05,19,18,00,AAXX 19184 41907 02/40 21802 10283 20220 30023 40037 82030 333 59004 70000 82362==
41907,2024,05,19,21,00,AAXX 19214 41907 02/40 21802 10270 20220 30022 40037 82030 333 59002 70000 82362==
41907,2024,05,20,00,00,AAXX 20004 41907 02/45 61802 10261 20230 30025 40040 86030 333 59003 70000 86362==
41907,2024,05,20,03,00,AAXX 20034 41907 02350 80506 10275 20230 30059 40073 8662/ 333 20258 58017 70000 82709 85615 88458==
41907,2024,05,20,06,00,AAXX 20064 41907 02350 80904 10285 20220 30051 40066 8662/ 333 58026 70000 82709 85615 88458==
41907,2024,05,20,09,00,AAXX 20094 41907 02956 01302 10345 20240 30011 40025 333 58016 70000==
41907,2024,05,20,12,00,AAXX 20124 41907 02450 41304 10325 20240 30008 40023 84500 333 10352 58021 70000 84615==
41907,2024,05,20,15,00,AAXX 20154 41907 02940 00000 10285 20240 30027 40041 333 58020 70000==
41907,2024,05,20,18,00,AAXX 20184 41907 02940 00000 10260 20240 30036 40050 333 58013 70000==
41907,2024,05,20,21,00,AAXX 20214 41907 02440 60000 10257 20240 30030 40044 83510 333 58008 70000 83615 85458==
41907,2024,05,21,00,00,AAXX 21004 41907 02440 81302 10254 20230 30039 40054 8552/ 333 58014 70000 85615 88458==
41907,2024,05,21,03,00,AAXX 21034 41907 02450 41303 10312 20230 30048 40063 82530 333 20250 59011 70000 82615 83362==
41907,2024,05,21,06,00,AAXX 21064 41907 02450 81302 10315 20240 30042 40056 8552/ 333 59009 70000 85615 88458==
41907,2024,05,21,09,00,AAXX 21094 41907 02450 80000 10340 20250 30015 40029 8552/ 333 58004 70000 85615 88458==
41907,2024,05,21,12,00,AAXX 21124 41907 02950 00000 10335 20260 30003 40017 333 59004 70000==
41907,2024,05,21,15,00,AAXX 21154 41907 02440 70000 10310 20260 30031 40045 85510 333 59004 70000 85615 87458==
41907,2024,05,21,18,00,AAXX 21184 41907 02440 50000 10290 20260 30032 40047 83510 333 59004 70000 83615 85458==
41907,2024,05,21,21,00,AAXX 21214 41907 02440 50000 10275 20260 30025 40040 83510 333 59005 70000 83615 85458==
41907,2024,05,22,00,00,AAXX 22004 41907 02440 40000 10275 20260 30031 40045 82510 333 59008 70000 82615 84458==
41907,2024,05,22,03,00,AAXX 22034 41907 02450 83103 10308 20260 30055 40069 8552/ 333 20270 58008 70000 85615 88458==
41907,2024,05,22,06,00,AAXX 22064 41907 01450 80000 10296 20250 30049 40063 70262 8452/ 333 58007 70040 84615 88458==
41907,2024,05,22,09,00,AAXX 22094 41907 02450 71302 10325 20250 30023 40038 84510 333 58008 70036 84615 85458==
41907,2024,05,22,12,00,AAXX 22124 41907 02450 60000 10310 20260 30009 40024 84510 333 10332 58006 70036 84615 85458==
41907,2024,05,22,15,00,AAXX 22154 41907 02940 00000 10280 20250 30034 40049 333 58003 70036==
41907,2024,05,22,18,00,AAXX 22184 41907 02/40 20000 10265 20250 30038 40053 82030 333 58006 70036 82362==
41907,2024,05,22,21,00,AAXX 22214 41907 02/40 20000 10262 20250 30031 40046 82030 333 58006 70036 82362==
41907,2024,05,23,00,00,AAXX 23004 41907 02445 70000 10262 20250 30030 40045 83570 333 59001 70036 83615 85458==
41907,2024,05,23,03,00,AAXX 23034 41907 02450 31302 10335 20260 30036 40051 82530 333 20254 59019 70036 82615==
41907,2024,05,23,06,00,AAXX 23064 41907 02450 51302 10365 20240 30025 40040 85800 333 59024 70000 82615 83825==
41907,2024,05,23,09,00,AAXX 23094 41907 02556 21302 10380 20240 39991 40005 82100 333 59032 70000 82825==
41907,2024,05,23,12,00,AAXX 23124 41907 02456 23602 10355 20270 39983 49997 82500 333 10385 59026 70000 82615==
41907,2024,05,23,15,00,AAXX 23154 41907 02940 00000 10310 20270 30005 40020 333 59029 70000==
41907,2024,05,23,18,00,AAXX 23184 41907 02940 00000 10295 20270 30014 40028 333 59024 70000==
41907,2024,05,23,21,00,AAXX 23214 41907 02940 00000 10280 20260 30009 40023 333 59022 70000==
41909,2024,05,17,00,00,AAXX 17004 41909 02/50 30000 10275 20250 30057 40068 83030 333 59025 70000 83365==
41909,2024,05,17,03,00,AAXX 17034 41909 02456 81302 10324 20250 30072 40083 8252/ 333 20274 59026 70000 82615 88458==
41909,2024,05,17,06,00,AAXX 17064 41909 02456 51302 10354 20260 30059 40070 82530 333 59019 70000 82615 85360==
41909,2024,05,17,09,00,AAXX 17094 41909 02456 81802 10366 20270 30025 40037 8352/ 333 59027 70000 83615 88458==
41909,2024,05,17,12,00,AAXX 17124 41909 02960 11302 10354 20260 30015 40027 80009 333 10374 59018 70000 81175==
41909,2024,05,17,15,00,AAXX 17154 41909 02/40 51304 10314 20260 30039 40050 85030 333 59018 70000 85360==
41909,2024,05,17,18,00,AAXX 17184 41909 02/40 51302 10304 20260 30042 40053 85030 333 59013 70000 85360==
41909,2024,05,17,21,00,AAXX 17214 41909 02/40 31302 10298 20270 30036 40047 83030 333 59016 70000 83360==
41909,2024,05,18,00,00,AAXX 18004 41909 02/40 51302 10304 20260 30042 40053 85030 333 59013 70000 85360==
41909,2024,05,18,03,00,AAXX 18034 41909 01350 81301 10267 20250 30073 40084 76162 8372/ 333 20265 58001 70020 83708 88458==
41909,2024,05,18,06,00,AAXX 18064 41909 21350 81302 10267 20240 30053 40064 70262 8362/ 333 59006 60038 70030 83614 88458==
41909,2024,05,18,09,00,AAXX 18094 41909 02350 80000 10298 20240 30028 40039 8362/ 333 58003 70030 83614 88458==
41909,2024,05,18,12,00,AAXX 18124 41909 02450 81301 10288 20240 30016 40027 8432/ 333 10306 58000 70030 84614 88458 81930==
41909,2024,05,18,15,00,AAXX 18154 41909 02440 51801 10272 20240 30033 40044 83530 333 59006 70030 82615 84360==
41909,2024,05,18,18,00,AAXX 18184 41909 02430 52701 10264 20230 30038 40049 83530 333 59004 70030 82615 84365==
41909,2024,05,18,21,00,AAXX 18214 41909 02430 82701 10263 20240 30036 40047 8362/ 333 58000 70030 83614 88458==
41909,2024,05,19,00,00,AAXX 19004 41909 02350 80000 10262 20240 30033 40044 8362/ 333 59011 70030 82708 85614 88458==
41909,2024,05,19,03,00,AAXX 19034 41909 02456 61302 10294 20250 30053 40064 82510 333 20258 59020 70010 82615 86458==
41909,2024,05,19,06,00,AAXX 19064 41909 02456 61802 10343 20250 30032 40043 82510 333 59021 70000 82615 86458==
41909,2024,05,19,09,00,AAXX 19094 41909 02356 80000 10350 20270 30010 40021 8362/ 333 59018 70000 82708 85614 88458==
41909,2024,05,19,12,00,AAXX 19124 41909 02350 80000 10330 20270 39995 40007 8362/ 333 10355 59021 70000 82708 85614 88458==
41909,2024,05,19,15,00,AAXX 19154 41909 02440 60000 10283 20260 30010 40021 82530 333 59023 70000 82615 86458==
41909,2024,05,19,18,00,AAXX 19184 41909 02440 80000 10272 20250 30016 40027 8362/ 333 59022 70000 82708 85614 88458==
41909,2024,05,19,21,00,AAXX 19214 41909 02440 80000 10262 20240 30033 40045 8362/ 333 59003 70000 82708 85614 88458==
41909,2024,05,20,00,00,AAXX 20004 41909 01350 80000 10250 20240 30033 40045 72162 8572/ 333 58001 70050 83708 88458==
41909,2024,05,20,03,00,AAXX 20034 41909 02456 61802 10284 20230 30059 40070 82510 333 20245 58006 70050 82615 86458==
41909,2024,05,20,06,00,AAXX 20064 41909 02456 61302 10311 20220 30062 40073 82510 333 58030 70050 82615 86458==
41909,2024,05,20,09,00,AAXX 20094 41909 02956 01302 10340 20240 30015 40026 333 58005 70050==
41909,2024,05,20,12,00,AAXX 20124 41909 02456 71804 10305 20240 30016 40027 84570 333 10345 58021 70050 84614 86460==
41909,2024,05,20,15,00,AAXX 20154 41909 02950 00000 10280 20230 30029 40040 333 58019 70050==
41909,2024,05,20,18,00,AAXX 20184 41909 02940 00000 10265 20240 30048 40059 333 58032 70050==
41909,2024,05,20,21,00,AAXX 20214 41909 01/40 31302 10261 20230 30041 40052 70500 83030 333 58008 70050 83365==
41909,2024,05,21,00,00,AAXX 21004 41909 01450 10000 10257 20240 30044 40055 70500 81500 333 58010 70000 81614==
41909,2024,05,21,03,00,AAXX 21034 41909 02956 00000 10306 20230 30056 40067 333 20254 59003 70000==
41909,2024,05,21,06,00,AAXX 21064 41909 02956 00000 10341 20210 30047 40058 82510 333 59015 70000 82615 86458==
41909,2024,05,21,09,00,AAXX 21094 41909 02456 70000 10354 20230 30016 40028 83510 333 58001 70000 83615 86458==
41909,2024,05,21,12,00,AAXX 21124 41909 02456 60000 10304 20220 30009 40020 82530 333 10355 59007 70000 82615 85360==
41909,2024,05,21,15,00,AAXX 21154 41909 02440 60000 10294 20230 30036 40047 82530 333 58007 70000 82615 85360==
41909,2024,05,21,18,00,AAXX 21184 41909 02940 00000 10284 20240 30048 40059 333 58000 70000==
41909,2024,05,21,21,00,AAXX 21214 41909 02/40 30000 10284 20240 30042 40053 83030 333 58001 70000 83360==
41909,2024,05,22,00,00,AAXX 22004 41909 02450 50000 10282 20250 30039 40050 83530 333 59005 70000 83615 83360==
41909,2024,05,22,03,00,AAXX 22034 41909 42456 60000 10283 20260 30057 40068 59001 85360==
41909,2024,05,22,06,00,AAXX 22064 41909 02456 50000 10324 20230 30053 40064 83530 333 58006 70000 83615 83360==
41909,2024,05,22,09,00,AAXX 22094 41909 02456 50000 10344 20240 30025 40036 83530 333 58009 70000 82615 85360==
41909,2024,05,22,15,00,AAXX 22154 41909 02/40 30000 10306 20270 30033 40044 83030 333 59003 70000 83365==
41909,2024,05,22,18,00,AAXX 22184 41909 02430 80000 10294 20260 30042 40053 8452/ 333 59006 70000 83615 88460==
41909,2024,05,22,21,00,AAXX 22214 41909 02430 50000 10288 20260 30036 40047 83530 333 59006 70000 83615 84360==
41909,2024,05,23,00,00,AAXX 23004 41909 02450 40000 10281 20260 30033 40044 82530 333 59006 70000 82615 83365==
41909,2024,05,23,03,00,AAXX 23034 41909 02956 00000 10336 20260 30039 40050 333 20276 59018 70000==
41909,2024,05,23,06,00,AAXX 23064 41909 02956 00000 10357 20240 30026 40038 82530 333 59027 70000 82615 83365==
41909,2024,05,23,09,00,AAXX 23094 41909 02456 40000 10378 20240 39997 40009 82530 333 59028 70000 82615 83365==
41909,2024,05,23,12,00,AAXX 23124 41909 02456 40000 10360 20260 39983 49995 82530 333 10382 59030 70000 82615 83365==
41909,2024,05,23,15,00,AAXX 23154 41909 02940 00000 10322 20260 30009 40020 333 59020 70000==
41909,2024,05,23,18,00,AAXX 23184 41909 02940 00000 10310 20260 30007 40018 333 59035 70000==
41909,2024,05,23,21,00,AAXX 23214 41909 02940 00000 10298 20260 30010 40021 333 59026 70000==
41915,2024,05,17,00,00,AAXX 17004 41915 02956 00000 10278 20260 30054 40080 333 59023 70000==
41915,2024,05,17,03,00,AAXX 17034 41915 02456 11802 10325 20270 30066 40090 81500 333 20276 59024 70000 81618==
41915,2024,05,17,06,00,AAXX 17064 41915 02456 31802 10350 20260 30056 40080 83400 333 59017 70000 82616==
41915,2024,05,17,09,00,AAXX 17094 41915 02456 42002 10362 20240 30021 40045 84400 333 59015 70000 82616==
41915,2024,05,17,12,00,AAXX 17124 41915 02456 21801 10340 20260 30017 40042 82300 333 10370 59009 70000 81616 81928==
41915,2024,05,17,15,00,AAXX 17154 41915 01550 20000 10307 20260 30037 40062 71211 81302 333 59016 70000 81925==
41915,2024,05,17,18,00,AAXX 17184 41915 01450 11802 10300 20260 30042 40067 71391 81300 333 59008 70000 81616 81925==
41915,2024,05,18,03,00,AAXX 18034 41915 01440 80000 10235 20230 30085 40110 79599 8632/ 333 20220 59019 70344 84710 85616 88457 81928==
41915,2024,05,18,06,00,AAXX 18064 41915 21450 81002 10230 20220 30056 40082 79599 8632/ 333 58000 60097 70414 83710 85615 88457 81928==
41915,2024,05,18,09,00,AAXX 18094 41915 02456 61203 10268 20240 30026 40052 84430 333 58005 70414 83614 85362==
41915,2024,05,18,12,00,AAXX 18124 41915 02456 60000 10264 20230 30023 40049 84430 333 10276 58006 70414 83615 85362==
41915,2024,05,18,15,00,AAXX 18154 41915 02/50 10000 10248 20240 30033 40059 81050 333 59004 70414 81362==
41915,2024,05,18,18,00,AAXX 18184 41915 02450 80000 10253 20240 30037 40063 8542/ 333 59007 70414 84616 88458==
41915,2024,05,18,21,00,AAXX 18214 41915 02450 80000 10253 20240 30027 40053 8542/ 333 59019 70414 84616 88458==
41915,2024,05,19,00,00,AAXX 19004 41915 01456 81802 10256 20240 30029 40055 71722 8632/ 333 59023 70090 85616 88457 81925==
41915,2024,05,19,03,00,AAXX 19034 41915 02356 80000 10280 20260 30049 40075 8632/ 333 20227 59036 70070 84709 88458 81930==
41915,2024,05,19,06,00,AAXX 19064 41915 02456 71403 10300 20270 30030 40055 84430 333 59026 70000 83614 86363==
41915,2024,05,19,09,00,AAXX 19094 41915 01356 81303 10300 20270 30006 40031 71792 8692/ 333 59020 70000 84709 88458 81925==
41915,2024,05,19,12,00,AAXX 19124 41915 21456 61301 10262 20220 30003 40028 70196 84320 333 10316 59020 69935 70003 83616 86458 81920==
41915,2024,05,19,15,00,AAXX 19154 41915 02456 30000 10244 20220 30013 40038 83400 333 59020 70003 82616==
41915,2024,05,19,18,00,AAXX 19184 41915 02456 30000 10240 20230 30031 40056 83400 333 59006 70003 82616==
41915,2024,05,19,21,00,AAXX 19214 41915 02956 00000 10240 20230 30029 40054 333 58002 70003==
41915,2024,05,20,00,00,AAXX 20004 41915 02956 00000 10238 20230 30033 40058 333 58004 70003==
41915,2024,05,20,03,00,AAXX 20034 41915 02956 11102 10307 20240 30058 40082 80002 333 20234 58009 70003 81080==
41915,2024,05,20,06,00,AAXX 20064 41915 02456 41503 10337 20240 30039 40064 84400 333 58009 70003 83615==
41915,2024,05,20,09,00,AAXX 20094 41915 02456 41802 10342 20240 30005 40030 84400 333 59001 70003 82616==
41915,2024,05,20,12,00,AAXX 20124 41915 02456 70000 10320 20250 30006 40031 84470 333 10347 58003 70000 83616 84458==
41915,2024,05,20,15,00,AAXX 20154 41915 02956 00000 10297 20260 30029 40054 333 58016 70000==
41915,2024,05,20,18,00,AAXX 20184 41915 02956 00000 10270 20250 30034 40059 333 58003 70000==
41915,2024,05,20,21,00,AAXX 20214 41915 01950 00000 10258 20250 30031 40056 70500 333 58002 70000==
41915,2024,05,21,00,00,AAXX 21004 41915 01/50 10000 10252 20240 30038 40063 70510 81030 333 58005 70000 81362==
41915,2024,05,21,03,00,AAXX 21034 41915 02956 00000 10322 20220 30052 40077 333 20250 59006 70000==
41915,2024,05,21,06,00,AAXX 21064 41915 02456 51603 10350 20240 30032 40057 82430 333 59007 70000 81616 84363==
41915,2024,05,21,09,00,AAXX 21094 41915 02956 01806 10360 20250 30001 40025 333 59004 70000==
41915,2024,05,21,12,00,AAXX 21124 41915 02956 00000 10340 20230 39999 40023 333 10372 59007 70000==
41915,2024,05,21,15,00,AAXX 21154 41915 05956 00000 10292 20260 30027 40052 333 59002 70000==
41915,2024,05,21,18,00,AAXX 21184 41915 02956 00000 10284 20260 30034 40060 333 58000 70000==
41915,2024,05,22,00,00,AAXX 22004 41915 NIL=
41915,2024,05,22,03,00,AAXX 22034 41915 02456 60000 10290 20240 30058 40083 84430 333 20228 58006 70202 83615 85363==
41915,2024,05,22,06,00,AAXX 22064 41915 02456 61603 10324 20240 30038 40063 83430 333 58006 70202 82616 85363==
41915,2024,05,22,09,00,AAXX 22094 41915 02956 02702 10340 20230 30005 40029 333 58004 70202==
41915,2024,05,22,12,00,AAXX 22124 41915 02/56 13101 10320 20230 30005 40030 81031 333 10348 58006 70202 81362==
41915,2024,05,22,15,00,AAXX 22154 41915 02/50 10000 10280 20260 30035 40061 81030 333 58008 70202 81362==
41915,2024,05,22,18,00,AAXX 22184 41915 02/50 10000 10270 20250 30036 40061 81030 333 58002 70202 81362==
41915,2024,05,22,21,00,AAXX 22214 41915 02/50 10000 10268 20260 30032 40057 81030 333 59014 70052 81362==
41915,2024,05,23,00,00,AAXX 23004 41915 01/50 20000 10267 20267 30034 40059 70511 82030 333 59012 70000 82362==
41915,2024,05,23,03,00,AAXX 23034 41915 02/56 10502 10328 20260 30024 40049 81030 333 20263 59034 70000 81362==
41915,2024,05,23,06,00,AAXX 23064 41915 02556 13601 10354 20240 30017 40041 81130 333 59037 70000 81822==
41915,2024,05,23,09,00,AAXX 23094 41915 02456 23402 10358 20250 39979 40003 82430 333 59026 70000 81617==
41915,2024,05,23,12,00,AAXX 23124 41915 02956 00000 10346 20250 39977 40002 333 10370 59028 70000==
41915,2024,05,23,15,00,AAXX 23154 41915 02950 00000 10296 20280 30007 40032 333 59028 70000==
41915,2024,05,23,18,00,AAXX 23184 41915 02950 00000 10290 20280 30015 40040 333 59021 70000==
41915,2024,05,23,21,00,AAXX 23214 41915 02450 31302 10262 20230 30013 40038 82430 333 59019 70000 82616 83362==
41923,2024,05,17,00,00,AAXX 17004 41923 02440 50000 10294 20260 30070 40080 82530 333 59022 70000 82615 85360==
41923,2024,05,17,03,00,AAXX 17034 41923 02445 50000 10324 20270 30081 40091 82530 333 20292 59022 70000 82615 85360==
41923,2024,05,17,06,00,AAXX 17064 41923 02356 61802 10362 20250 30062 40072 85630 333 59025 70000 82709 83615 85360==
41923,2024,05,17,09,00,AAXX 17094 41923 02456 61802 10371 20240 30035 40045 84430 333 59021 70000 82616 83824 85360==
41923,2024,05,17,12,00,AAXX 17124 41923 02456 51702 10347 20250 30027 40037 83430 333 10373 59013 70000 82616 83365==
41923,2024,05,17,15,00,AAXX 17154 41923 02450 41802 10325 20270 30051 40061 82530 333 59016 70000 82615 83362==
41923,2024,05,17,18,00,AAXX 17184 41923 02450 41802 10311 20250 30052 40062 81530 333 59008 70000 81616 83365==
41923,2024,05,17,21,00,AAXX 17214 41923 02445 52102 10303 20260 30037 40047 82530 333 59021 70000 82615 83360==
41923,2024,05,18,00,00,AAXX 18004 41923 02340 70000 10295 20270 30060 40070 84670 333 59010 70000 81709 83615 86458==
41923,2024,05,18,03,00,AAXX 18034 41923 01340 80603 10282 20260 30070 40080 76122 8532/ 333 20280 59011 70008 83709 84615 88458 81930==
41923,2024,05,18,06,00,AAXX 18064 41923 21350 70603 10282 20230 30069 40079 70162 85670 333 59003 69985 70008 82709 84615 86458==
41923,2024,05,18,09,00,AAXX 18094 41923 02450 71803 10300 20220 30028 40038 84470 333 59007 70008 83615 85458==
41923,2024,05,18,12,00,AAXX 18124 41923 02450 60903 10298 20250 30026 40036 83330 333 10314 59001 70008 82615 85360 81930==
41923,2024,05,18,15,00,AAXX 18154 41923 02445 40000 10280 20240 30041 40051 82530 333 59010 70008 82616 83360==
41923,2024,05,18,18,00,AAXX 18184 41923 02445 60000 10278 20250 30042 40052 83430 333 59010 70008 82616 85360==
41923,2024,05,18,21,00,AAXX 18214 41923 02340 60000 10276 20250 30033 40043 83630 333 59004 70008 82709 85360==
41923,2024,05,19,00,00,AAXX 19004 41923 02340 70000 10276 20250 30039 40049 85370 333 59021 70008 82709 84615 85458 81930==
41923,2024,05,19,03,00,AAXX 19034 41923 42450 70000 10297 20260 30058 40068 84430 333 20260 59012 83615 85360==
41923,2024,05,19,06,00,AAXX 19064 41923 02450 70000 10324 20250 30044 40054 85370 333 59015 70000 84615 85458 81930==
41923,2024,05,19,09,00,AAXX 19094 41923 02450 70902 10346 20260 30012 40022 84570 333 59012 70000 84615 86460==
41923,2024,05,19,12,00,AAXX 19124 41923 01440 81804 10302 20220 30015 40025 70522 8552/ 333 10354 59011 70000 85615 88460==
41923,2024,05,19,15,00,AAXX 19154 41923 01440 50000 10282 20240 30023 40033 70522 82530 333 59018 70000 82615 85365==
41923,2024,05,19,18,00,AAXX 19184 41923 01440 80602 10285 20240 30046 40056 70522 8552/ 333 58004 70000 85615 88460==
41923,2024,05,19,21,00,AAXX 19214 41923 01440 50000 10275 20240 30042 40052 70522 82530 333 58009 70000 82615 85365==
41923,2024,05,20,00,00,AAXX 20004 41923 01440 50000 10262 20240 30045 40055 70522 82530 333 58006 70000 82615 85365==
41923,2024,05,20,03,00,AAXX 20034 41923 02/56 20000 10318 20240 30064 40074 82030 333 20260 58006 70000 82365==
41923,2024,05,20,06,00,AAXX 20064 41923 01340 80902 10320 20250 30057 40067 76022 8632/ 333 58013 70000 83708 84614 88458 81929==
41923,2024,05,20,09,00,AAXX 20094 41923 41350 70502 10316 20250 30031 40041 70162 85670 333 58019 82709 84615 85459==
41923,2024,05,20,12,00,AAXX 20124 41923 11/50 11302 10293 20220 30020 40030 60006 70162 81030 333 10334 58005 81362==
41923,2024,05,20,15,00,AAXX 20154 41923 42450 30000 10271 20230 30036 40046 81530 333 58013 81616 83362==
41923,2024,05,20,18,00,AAXX 20184 41923 42345 30000 10266 20230 30053 40063 83630 333 58007 81709 83615==
41923,2024,05,20,21,00,AAXX 20214 41923 41340 50000 10262 20230 30041 40051 70520 84630 333 59001 82709 83615==
41923,2024,05,21,00,00,AAXX 21004 41923 41340 50000 10257 20240 30051 40061 70522 84630 333 58006 82709 83615==
41923,2024,05,21,03,00,AAXX 21034 41923 42/50 10000 10328 20230 30061 40071 81030 333 20254 59003 81362==
41923,2024,05,21,06,00,AAXX 21064 41923 42456 30603 10350 20230 30048 40058 83430 333 59009 83615==
41923,2024,05,21,09,00,AAXX 21094 41923 02350 61503 10354 20220 30018 40028 85630 333 59013 70000 82709 83614 85360==
41923,2024,05,21,12,00,AAXX 21124 41923 02450 50000 10342 20220 30011 40021 82530 333 10366 59009 70000 82615 85360==
41923,2024,05,21,15,00,AAXX 21154 41923 02/50 30000 10316 20250 30041 40051 83030 333 58005 70000 83360==
41923,2024,05,21,18,00,AAXX 21184 41923 02/50 20000 10306 20250 30055 40065 82030 333 58002 70000 82360==
41923,2024,05,21,21,00,AAXX 21214 41923 02/45 20000 10298 20250 30045 40055 82030 333 58004 70000 82360==
41923,2024,05,22,00,00,AAXX 22004 41923 02440 50000 10290 20260 30047 40057 82530 333 59004 70000 82615 85360==
41923,2024,05,22,03,00,AAXX 22034 41923 01440 50000 10308 20250 30058 40068 76162 82530 333 20254 59003 70024 82615 85360==
41923,2024,05,22,06,00,AAXX 22064 41923 21335 80604 10322 20240 30053 40063 70362 8532/ 333 59005 60028 70024 83709 84615 88458 81930==
41923,2024,05,22,09,00,AAXX 22094 41923 01345 70000 10328 20250 30026 40036 70162 85330 333 58008 70044 81709 83615 85360 81930==
41923,2024,05,22,12,00,AAXX 22124 41923 11450 40000 10330 20260 30017 40027 60026 70162 81530 333 10349 58006 70044 81616 83365==
41923,2024,05,22,15,00,AAXX 22154 41923 02345 80000 10310 20260 30038 40048 8532/ 333 59003 70044 82709 84615 88458 81930==
41923,2024,05,22,18,00,AAXX 22184 41923 02/45 20000 10295 20270 30047 40057 82030 333 59008 70044 82365==
41923,2024,05,22,21,00,AAXX 22214 41923 02440 50000 10291 20260 30030 40040 82530 333 59015 70044 82615 83362==
41923,2024,05,23,00,00,AAXX 23004 41923 01440 60000 10286 20270 30038 40048 70522 81530 333 59009 70044 81616 85365==
41923,2024,05,23,03,00,AAXX 23034 41923 02450 60000 10331 20240 30044 40054 84430 333 20280 59014 70020 82615 83360==
41923,2024,05,23,06,00,AAXX 23064 41923 02456 50000 10360 20230 30032 40042 84430 333 59021 70020 82616 83824==
41923,2024,05,23,09,00,AAXX 23094 41923 02456 50000 10378 20210 39996 40005 82530 333 59030 70000 82615 85365==
41923,2024,05,23,12,00,AAXX 23124 41923 01335 80608 10290 20220 39995 40005 79522 8692/ 333 10380 59022 70008 83708 84613 88458 81928==
41923,2024,05,23,15,00,AAXX 23154 41923 01440 80000 10299 20260 30015 40025 70596 8532/ 333 59023 70008 85615 88460 81930==
41923,2024,05,23,18,00,AAXX 23184 41923 11440 80000 10308 20260 30028 40038 60001 70596 8532/ 333 59019 70008 85615 88460 81930==
41923,2024,05,23,21,00,AAXX 23214 41923 01440 50000 10295 20260 30023 40033 70522 82530 333 59007 70008 82615 85365==
41926,2024,05,17,00,00,AAXX 17004 41926 02450 70000 10272 20250 30058 40072 84510 333 59027 70000 84618 86459==
41926,2024,05,17,03,00,AAXX 17034 41926 02450 70000 10320 20260 30067 40080 84510 333 20270 59027 70000 84618 86459==
41926,2024,05,17,06,00,AAXX 17064 41926 02957 00000 10374 20260 30050 40063 333 59031 70000==
41926,2024,05,17,09,00,AAXX 17094 41926 02457 10000 10395 20260 30021 40034 81500 333 59029 70000 81618==
41926,2024,05,17,12,00,AAXX 17124 41926 02456 60000 10360 20250 30012 40025 82530 333 10396 59024 70000 82618 85362==
41926,2024,05,17,15,00,AAXX 17154 41926 02450 70000 10332 20260 30036 40049 85310 333 59028 70000 84618 86459 81930==
41926,2024,05,17,18,00,AAXX 17184 41926 02450 80000 10310 20250 30040 40053 8532/ 333 59011 70000 84616 88459 81930==
41926,2024,05,17,21,00,AAXX 17214 41926 02450 60000 10300 20270 30032 40046 83510 333 59020 70000 83618 86459==
41926,2024,05,18,00,00,AAXX 18004 41926 02450 60000 10290 20280 30037 40051 83510 333 59021 70000 83618 86459==
41926,2024,05,18,03,00,AAXX 18034 41926 41350 81801 10305 20270 30051 40064 76122 8532/ 333 20288 59016 83708 83615 88458 81930==
41926,2024,05,18,06,00,AAXX 18064 41926 41456 70000 10332 20260 30043 40056 70162 83510 333 59007 83617 87459==
41926,2024,05,18,09,00,AAXX 18094 41926 42456 71801 10338 20270 30017 40030 83510 333 59004 83617 87459==
41926,2024,05,18,12,00,AAXX 18124 41926 42456 70000 10335 20270 30004 40017 83570 333 10356 59008 83617 85459==
41926,2024,05,18,15,00,AAXX 18154 41926 42450 51802 10320 20270 30018 40031 82510 333 59018 82618 85459==
41926,2024,05,18,18,00,AAXX 18184 41926 42450 80000 10294 20260 30026 40039 8252/ 333 59014 82618 88458==
41926,2024,05,18,21,00,AAXX 18214 41926 42450 80000 10285 20260 30025 40038 8252/ 333 59007 82618 88458==
41926,2024,05,19,00,00,AAXX 19004 41926 42450 70000 10278 20240 30024 40037 83510 333 59013 83618 86459==
41926,2024,05,19,03,00,AAXX 19034 41926 42450 60000 10307 20260 30045 40058 83510 333 20278 59006 83618 85459==
41926,2024,05,19,06,00,AAXX 19064 41926 02456 50000 10346 20260 30026 40039 82510 333 59017 70000 82618 85459==
41926,2024,05,19,09,00,AAXX 19094 41926 02457 30000 10377 20280 39997 40010 81510 333 59020 70000 81618 83459==
41926,2024,05,19,12,00,AAXX 19124 41926 02950 00000 10343 20220 39992 40005 333 10382 59012 70000==
41926,2024,05,19,15,00,AAXX 19154 41926 02450 21803 10305 20250 30009 40022 82500 333 59009 70000 82618==
41926,2024,05,19,18,00,AAXX 19184 41926 02450 30000 10287 20250 30021 40034 83500 333 59005 70000 83618==
41926,2024,05,19,21,00,AAXX 19214 41926 02450 50000 10277 20250 30020 40033 83510 333 59005 70000 83618 83459==
41926,2024,05,20,00,00,AAXX 20004 41926 02450 60000 10268 20250 30021 40035 83510 333 59003 70000 83618 85459==
41926,2024,05,20,03,00,AAXX 20034 41926 02450 70000 10298 20260 30047 40060 83510 333 20268 58002 70000 83615 87459==
41926,2024,05,20,06,00,AAXX 20064 41926 01350 80000 10265 20250 30045 40059 79596 8592/ 333 58019 70010 82708 83615 88458 81930==
41926,2024,05,20,09,00,AAXX 20094 41926 02456 40000 10332 20250 30012 40025 81501 333 58015 70010 81618 83080==
41926,2024,05,20,12,00,AAXX 20124 41926 02/50 31802 10305 20250 30013 40026 83030 333 10340 58021 70010 83362==
41926,2024,05,20,15,00,AAXX 20154 41926 02/50 30000 10265 20240 30032 40046 83030 333 58023 70010 83362==
41926,2024,05,20,18,00,AAXX 20184 41926 NIL=
41926,2024,05,20,21,00,AAXX 20214 41926 02450 50000 10255 20240 30037 40051 83510 333 58017 70010 83618 84459==
41926,2024,05,21,00,00,AAXX 21004 41926 02450 70000 10250 20230 30042 40056 84510 333 58021 70010 84618 86459==
41926,2024,05,21,03,00,AAXX 21034 41926 02456 50000 10297 20250 30049 40062 82530 333 20250 58002 70010 82618 85362==
41926,2024,05,21,06,00,AAXX 21064 41926 02456 31302 10352 20220 30038 40051 83500 333 59007 70000 83618==
41926,2024,05,21,09,00,AAXX 21094 41926 02457 51302 10362 20220 30013 40026 85400 333 58001 70000 82618 83825==
41926,2024,05,21,12,00,AAXX 21124 41926 02456 10000 10335 20230 30004 40017 81500 333 10375 59009 70000 81618==
41926,2024,05,21,15,00,AAXX 21154 41926 02950 00000 10302 20260 30028 40041 333 59004 70000==
41926,2024,05,21,18,00,AAXX 21184 41926 02950 00000 10290 20250 30040 40053 333 58004 70000==
41926,2024,05,21,21,00,AAXX 21214 41926 01950 00000 10275 20260 30034 40048 70500 333 59003 70000==
41926,2024,05,22,00,00,AAXX 22004 41926 01/50 50000 10268 20260 30040 40054 70520 85030 333 59002 70000 85362==
41926,2024,05,22,03,00,AAXX 22034 41926 02456 50901 10328 20250 30052 40065 83430 333 20268 58003 70000 82618 84362==
41926,2024,05,22,06,00,AAXX 22064 41926 02456 60904 10310 20230 30050 40063 83570 333 58012 70000 83618 84459==
41926,2024,05,22,09,00,AAXX 22094 41926 02456 51802 10356 20240 30013 40026 81530 333 58000 70000 81618 85362==
41926,2024,05,22,12,00,AAXX 22124 41926 02456 51801 10330 20240 30013 40026 83430 333 10362 58009 70000 81618 83825 86362==
41926,2024,05,22,15,00,AAXX 22154 41926 02450 71802 10282 20240 30037 40064 84310 333 58009 70000 82618 87459 81930==
41926,2024,05,22,18,00,AAXX 22184 41926 02/50 30000 10272 20230 30032 40046 83030 333 59008 70000 83362==
41926,2024,05,22,21,00,AAXX 22214 41926 01/50 20000 10268 20240 30032 40046 70500 82030 333 59002 70000 82362==
41926,2024,05,23,00,00,AAXX 23004 41926 01450 50000 10267 20240 30033 40047 70520 81530 333 59007 70000 81618 85362==
41926,2024,05,23,03,00,AAXX 23034 41926 02956 01802 10332 20250 30039 40052 333 20265 59013 70000==
41926,2024,05,23,06,00,AAXX 23064 41926 02456 50000 10360 20230 30026 40039 85400 333 59024 70000 83618 83820==
41926,2024,05,23,09,00,AAXX 23094 41926 02456 50000 10380 20230 39993 40006 85400 333 59020 70000 83618 83820==
41926,2024,05,23,12,00,AAXX 23124 41926 02450 50000 10350 20240 39987 40000 85400 333 10384 59026 70000 83618 83820==
41926,2024,05,23,15,00,AAXX 23154 41926 02450 20000 10306 20250 30012 40025 82500 333 59025 70000 82618==
41926,2024,05,23,18,00,AAXX 23184 41926 02450 20000 10285 20260 30017 40031 82500 333 59015 70000 82618==
41926,2024,05,23,21,00,AAXX 23214 41926 02450 20000 10278 20260 30002 40016 82500 333 59030 70000 82618==
41927,2024,05,17,00,00,AAXX 17004 41927 32450 50000 10276 20260 30060 40075 83510 333 56490 59023 70000 83617 84459=
41927,2024,05,17,06,00,AAXX 17064 41927 32458 41802 10360 20230 30050 40065 82510 333 56490 59032 70000 82618 84459=
41927,2024,05,17,12,00,AAXX 17124 41927 32957 00000 10360 20250 30010 40024 333 10390 59023 70000=
41927,2024,05,18,00,00,AAXX 18004 41927 32456 50000 10318 20260 30040 40054 83510 333 56490 59034 70000 83617 84459=
41927,2024,05,18,06,00,AAXX 18064 41927 32456 81802 10324 20230 30050 40065 8452/ 333 56499 58000 70000 84616 88458=
41927,2024,05,18,12,00,AAXX 18124 41927 32456 61802 10316 20280 30002 40016 83510 333 10330 56490 59008 70000 83617 85459=
41927,2024,05,18,18,00,AAXX 18184 41927 32456 61802 10286 20280 30028 40043 83570 333 56490 59012 70000 83617 84459=
41927,2024,05,19,00,00,AAXX 19004 41927 32450 71801 10270 20260 30027 40042 83510 333 56490 59007 70000 83617 87459=
41927,2024,05,19,06,00,AAXX 19064 41927 32457 62201 10335 20260 30025 40039 83570 333 56590 59025 70000 83617 84459=
41927,2024,05,19,12,00,AAXX 19124 41927 32457 41403 10335 20260 39994 40008 82510 333 10360 56390 59008 70000 82618 84459=
41927,2024,05,19,18,00,AAXX 19184 41927 32456 41801 10280 20210 30025 40040 82510 333 56490 59003 70000 82618 84459=
41927,2024,05,20,00,00,AAXX 20004 41927 32456 70000 10262 20240 30027 40042 83510 333 56490 58000 70000 83618 87459=
41927,2024,05,20,06,00,AAXX 20064 41927 31456 81901 10290 20230 30049 40064 71722 8532/ 333 56499 58024 70000 84617 81929 88458=
41927,2024,05,20,12,00,AAXX 20124 41927 32957 21802 10300 20250 30012 40027 82010 333 10335 56090 58018 70000 82459=
41927,2024,05,20,18,00,AAXX 20184 41927 NIL=
41927,2024,05,21,00,00,AAXX 21004 41927 32450 60000 10248 20240 30038 40053 83510 333 56490 58011 70000 83617 86459=
41927,2024,05,21,06,00,AAXX 21064 41927 32457 50000 10335 20250 30042 40056 85400 333 56400 59007 70000 82618 83828=
41927,2024,05,21,12,00,AAXX 21124 41927 32957 21701 10335 20250 30004 40018 82030 333 10350 56090 59008 70000 82362=
41927,2024,05,21,18,00,AAXX 21184 41927 32956 01901 10285 20230 30041 40056 333 58009 70000=
41927,2024,05,22,00,00,AAXX 22004 41927 32456 60000 10275 20260 30033 40048 83510 333 56390 59005 70000 83617 86459=
41927,2024,05,22,06,00,AAXX 22064 41927 32457 51701 10338 20240 30045 40059 82510 333 56490 58003 70000 82618 85459=
41927,2024,05,22,12,00,AAXX 22124 41927 32957 00000 10310 20260 30010 40024 333 10340 58006 70000=
41927,2024,05,22,18,00,AAXX 22184 41927 11456 61601 10263 20250 30041 40055 60036 70262 83510 333 56490 58000 70030 83617 85459=
41927,2024,05,23,00,00,AAXX 23004 41927 32956 33203 10260 20250 30030 40045 83030 333 56090 59003 70030 83362=
41927,2024,05,23,06,00,AAXX 23064 41927 32958 00000 10356 20230 30028 40042 333 59017 70030=
41927,2024,05,23,12,00,AAXX 23124 41927 32958 02001 10356 20240 39982 49996 333 10378 59022 70000=
41927,2024,05,23,18,00,AAXX 23184 41927 32956 00000 10318 20270 30010 40024 333 59031 70000=
41929,2024,05,17,00,00,AAXX 17004 41929 02/56 40000 10282 20260 30062 40071 84030 333 59025 70000 84365==
41929,2024,05,17,03,00,AAXX 17034 41929 02956 00000 10330 20270 30078 40087 333 20277 59025 70000==
41929,2024,05,17,06,00,AAXX 17064 41929 02957 00000 10358 20260 30061 40070 333 59029 70000==
41929,2024,05,17,09,00,AAXX 17094 41929 02958 01803 10370 20250 30032 40042 333 59026 70000==
41929,2024,05,17,12,00,AAXX 17124 41929 02958 01802 10350 20260 30025 40034 333 10370 59015 70000==
41929,2024,05,17,15,00,AAXX 17154 41929 02/57 41802 10320 20270 30048 40058 84030 333 59016 70000 84365==
41929,2024,05,17,18,00,AAXX 17184 41929 02/57 21802 10300 20260 30051 40061 82030 333 59010 70000 82365==
41929,2024,05,17,21,00,AAXX 17214 41929 02/57 31802 10290 20270 30040 40050 83030 333 59010 70000 83365==
41929,2024,05,18,00,00,AAXX 18004 41929 02457 61802 10290 20270 30046 40056 83530 333 59016 70000 83617 83365==
41929,2024,05,18,03,00,AAXX 18034 41929 02456 81402 10302 20270 30070 40079 8352/ 333 20282 59008 70000 83618 88462==
41929,2024,05,18,06,00,AAXX 18064 41929 02457 81403 10322 20270 30056 40065 83510 333 59005 70000 83618 88462==
41929,2024,05,18,09,00,AAXX 18094 41929 02457 81603 10320 20260 30027 40037 8353/ 333 59005 70000 83618 88462==
41929,2024,05,18,12,00,AAXX 18124 41929 02457 81302 10310 20260 30020 40030 8351/ 333 10328 59005 70000 83618 88462==
41929,2024,05,18,15,00,AAXX 18154 41929 02/57 40000 10290 20250 30038 40048 83030 333 59010 70000 83465==
41929,2024,05,18,18,00,AAXX 18184 41929 02457 71703 10280 20260 30039 40049 83510 333 59012 70000 83618 86462==
41929,2024,05,18,21,00,AAXX 18214 41929 02457 81403 10270 20250 30027 40037 8351/ 333 59013 70000 83618 88462==
41929,2024,05,19,00,00,AAXX 19004 41929 02457 81403 10270 20250 30035 40045 8351/ 333 59011 70000 83618 88462==
41929,2024,05,19,03,00,AAXX 19034 41929 02457 81403 10292 20270 30056 40065 8351/ 333 20265 59014 70000 83618 88462==
41929,2024,05,19,06,00,AAXX 19064 41929 02457 71403 10330 20250 30039 40048 83510 333 59017 70000 83618 87462==
41929,2024,05,19,09,00,AAXX 19094 41929 02457 70000 10352 20250 30009 40018 83570 333 59018 70000 83618 85459==
41929,2024,05,19,12,00,AAXX 19124 41929 02456 81308 10337 20260 30009 40018 8451/ 333 10357 59011 70000 84618 88459==
41929,2024,05,19,15,00,AAXX 19154 41929 02/56 20000 10270 20230 30025 40034 82030 333 59013 70000 82365==
41929,2024,05,19,18,00,AAXX 19184 41929 02/56 40000 10267 20230 30031 40040 84030 333 59008 70000 84365==
41929,2024,05,19,21,00,AAXX 19214 41929 02/56 51302 10266 20240 30033 40042 85030 333 58006 70000 85365==
41929,2024,05,20,00,00,AAXX 20004 41929 02456 71302 10265 20250 30035 40044 83570 333 58000 70000 83618 85459==
41929,2024,05,20,03,00,AAXX 20034 41929 02457 43202 10320 20260 30058 40067 84500 333 20260 58002 70000 84618==
41929,2024,05,20,06,00,AAXX 20064 41929 01456 80000 10308 20270 30053 40062 79522 8592/ 333 58014 70004 83616 88460 81930==
41929,2024,05,20,09,00,AAXX 20094 41929 01/56 50903 10300 20260 30027 40036 70196 85030 333 58018 70024 85365==
41929,2024,05,20,12,00,AAXX 20124 41929 11/56 21303 10285 20230 30023 40032 60026 70196 82030 333 10333 58014 70024 82365==
41929,2024,05,20,15,00,AAXX 20154 41929 02/56 30000 10262 20230 30033 40042 83030 333 58008 70024 83365==
41929,2024,05,20,18,00,AAXX 20184 41929 02/56 30000 10250 20240 30051 40060 83030 333 58020 70024 83365==
41929,2024,05,20,21,00,AAXX 20214 41929 02/56 20000 10249 20240 30049 40058 82030 333 58016 70024 82365==
41929,2024,05,21,00,00,AAXX 21004 41929 02456 30000 10247 20240 30047 40056 83500 333 58012 70024 83618==
41929,2024,05,21,03,00,AAXX 21034 41929 02457 30000 10322 20250 30057 40066 83400 333 20244 59001 70000 82618==
41929,2024,05,21,06,00,AAXX 21064 41929 02457 50000 10340 20240 30050 40059 85400 333 59003 70024 82618 83825==
41929,2024,05,21,09,00,AAXX 21094 41929 02458 40000 10352 20240 30021 40030 82430 333 59006 70000 81618 83365==
41929,2024,05,21,12,00,AAXX 21124 41929 02957 00000 10338 20250 30011 40020 333 10354 59012 70000==
41929,2024,05,21,15,00,AAXX 21154 41929 02956 00000 10297 20270 30036 40045 333 58003 70000==
41929,2024,05,21,18,00,AAXX 21184 41929 02956 00000 10285 20260 30053 40062 333 58002 70000==
41929,2024,05,21,21,00,AAXX 21214 41929 02/56 40000 10281 20260 30048 40057 84030 333 59001 70000 84365==
41929,2024,05,22,00,00,AAXX 22004 41929 02456 70000 10277 20270 30042 40051 83570 333 59005 70000 83618 85459==
41929,2024,05,22,03,00,AAXX 22034 41929 02457 61304 10300 20250 30064 40073 83430 333 20274 58007 70000 82618 84365==
41929,2024,05,22,06,00,AAXX 22064 41929 02458 50000 10347 20250 30050 40059 83430 333 58000 70000 82618 83365==
41929,2024,05,22,09,00,AAXX 22094 41929 01/57 50000 10283 20260 30024 40033 72996 85030 333 58003 70190 85365==
41929,2024,05,22,12,00,AAXX 22124 41929 21456 50000 10313 20270 30018 40027 70296 82530 333 10355 58007 60198 70190 82618 83365==
41929,2024,05,22,15,00,AAXX 22154 41929 02456 60000 10290 20260 30040 40049 83530 333 58004 70190 83618 83365==
41929,2024,05,22,18,00,AAXX 22184 41929 02/56 30000 10280 20260 30049 40058 83030 333 59004 70190 83365==
41929,2024,05,22,21,00,AAXX 22214 41929 02/56 40000 10275 20270 30041 40050 84030 333 59007 70190 84365==
41929,2024,05,23,00,00,AAXX 23004 41929 02/56 40000 10270 20260 30033 40042 84030 333 59009 70190 84365==
41929,2024,05,23,03,00,AAXX 23034 41929 02457 21402 10336 20260 30044 40053 82500 333 20265 59020 70190 82618==
41929,2024,05,23,06,00,AAXX 23064 41929 02458 20000 10362 20250 30032 40041 82500 333 59018 70190 82618==
41929,2024,05,23,09,00,AAXX 23094 41929 02458 40000 10370 20240 39997 40007 83430 333 59027 70190 82618==
41929,2024,05,23,12,00,AAXX 23124 41929 02958 00000 10350 20240 39994 40004 333 10372 59024 70000==
41929,2024,05,23,15,00,AAXX 23154 41929 02958 00000 10300 20260 30017 40027 333 59023 70000==
41929,2024,05,23,18,00,AAXX 23184 41929 02958 00000 10290 20260 30028 40038 333 59021 70000==
41929,2024,05,23,21,00,AAXX 23214 41929 02958 00000 10280 20260 30014 40024 333 59027 70000==
41933,2024,05,17,00,00,AAXX 17004 41933 01440 40000 10275 20260 30068 40077 70500 84400 333 59026 70000 83618==
41933,2024,05,17,03,00,AAXX 17034 41933 01950 02603 10324 20250 30084 40093 70510 333 20272 59021 70000==
41933,2024,05,17,06,00,AAXX 17064 41933 02456 52002 10346 20270 30065 40073 85800 333 59029 70000 82618 84827==
41933,2024,05,17,09,00,AAXX 17094 41933 02456 51803 10352 20250 30050 40058 85800 333 59002 70000 82618 84827==
41933,2024,05,17,12,00,AAXX 17124 41933 02450 41803 10332 20250 30020 40028 83530 333 10356 59018 70000 83618 84362==
41933,2024,05,17,15,00,AAXX 17154 41933 02950 01802 10299 20260 30052 40061 333 59012 70000==
41933,2024,05,17,18,00,AAXX 17184 41933 02950 01902 10285 20270 30052 40061 333 59010 70000==
41933,2024,05,17,21,00,AAXX 17214 41933 02450 40802 10280 20270 30050 40042 82530 333 59015 70000 82618 84362==
41933,2024,05,18,00,00,AAXX 18004 41933 02450 60000 10280 20270 30071 40080 83530 333 59023 70000 83616 86362==
41933,2024,05,18,03,00,AAXX 18034 41933 02450 61802 10310 20270 30069 40077 83520 333 20276 59015 70000 83618 86458==
41933,2024,05,18,06,00,AAXX 18064 41933 01350 83508 10270 20240 30079 40088 79596 8592/ 333 58014 70000 82708 83615 88456 81928==
41933,2024,05,18,09,00,AAXX 18094 41933 01456 61202 10270 20240 30028 40037 70196 82540 333 59022 70108 82618 85362==
41933,2024,05,18,12,00,AAXX 18124 41933 11456 71702 10277 20250 30025 40034 60116 70396 82539 333 10276 58005 70108 82618 85362 85074==
41933,2024,05,18,15,00,AAXX 18154 41933 02450 50000 10270 20250 30046 40055 83530 333 59006 70108 83618 85362==
41933,2024,05,18,18,00,AAXX 18184 41933 02440 40000 10265 20250 30056 40065 82530 333 58004 70108 82618 84362==
41933,2024,05,18,21,00,AAXX 18214 41933 02440 60000 10260 20250 30051 40060 83530 333 58001 70108 83618 86362==
41933,2024,05,19,00,00,AAXX 19004 41933 02440 60000 10255 20250 30045 40054 83530 333 59026 70108 83618 86362==
41933,2024,05,19,03,00,AAXX 19034 41933 02450 70000 10296 20270 30067 40076 84510 333 20245 59002 70108 84616 87458==
41933,2024,05,19,06,00,AAXX 19064 41933 02456 60000 10330 20280 30036 40045 84410 333 59043 70108 82618 83826 85459==
41933,2024,05,19,09,00,AAXX 19094 41933 02456 71805 10300 20250 30021 40029 84520 333 59007 70000 84616 87458==
41933,2024,05,19,12,00,AAXX 19124 41933 21450 70000 10255 20240 30025 40034 70296 84520 333 10340 58000 60185 70180 84616 87458==
41933,2024,05,19,15,00,AAXX 19154 41933 02/56 12102 10256 20250 30024 40033 81030 333 59022 70180 81362==
41933,2024,05,19,18,00,AAXX 19184 41933 02/56 21602 10250 20240 30039 40048 82030 333 59017 70180 82362==
41933,2024,05,19,21,00,AAXX 19214 41933 02456 60000 10253 20240 30041 40050 86530 333 59010 70180 86617==
41933,2024,05,20,00,00,AAXX 20004 41933 01440 20000 10248 20230 30044 40053 70510 81530 333 59001 70180 81618==
41933,2024,05,20,03,00,AAXX 20034 41933 02450 21802 10302 20240 30076 40085 81530 333 20242 58019 70180 81618==
41933,2024,05,20,06,00,AAXX 20064 41933 02456 61802 10340 20260 30057 40066 83530 333 58021 70180 83618 86362==
41933,2024,05,20,09,00,AAXX 20094 41933 01340 82105 10249 20230 30043 40052 79562 8592/ 333 58022 70056 82710 84618 88458 81926==
41933,2024,05,20,12,00,AAXX 20124 41933 21450 50000 10256 20240 30015 40023 70196 82530 333 10349 59010 60088 70078 82618 85362==
41933,2024,05,20,15,00,AAXX 20154 41933 02450 50000 10250 20240 30037 40046 82530 333 58013 70078 82618 85362==
41933,2024,05,20,18,00,AAXX 20184 41933 NIL=
41933,2024,05,20,21,00,AAXX 20214 41933 01440 50000 10245 20240 30045 40054 70522 82530 333 58004 70078 82618 85362==
41933,2024,05,21,00,00,AAXX 21004 41933 01440 20000 10240 20230 30048 40057 70510 82500 333 58004 70078 82618==
41933,2024,05,21,03,00,AAXX 21034 41933 41550 20000 10315 20250 30062 40071 70500 82200 333 20239 59014 82827==
41933,2024,05,21,06,00,AAXX 21064 41933 02/56 31802 10345 20230 30047 40056 83030 333 59010 70078 83362==
41933,2024,05,21,09,00,AAXX 21094 41933 02/56 31802 10352 20240 30019 40028 83030 333 59024 70022 83362==
41933,2024,05,21,12,00,AAXX 21124 41933 02950 01802 10330 20240 30015 40023 333 10357 58000 70000==
41933,2024,05,21,15,00,AAXX 21154 41933 02/50 30000 10296 20270 30040 40048 83030 333 58003 70000 83362==
41933,2024,05,21,18,00,AAXX 21184 41933 02950 00000 10282 20260 30055 40063 333 58012 70000==
41933,2024,05,21,21,00,AAXX 21214 41933 01440 40000 10275 20270 30050 40058 70510 82530 333 58005 70000 82616 84362==
41933,2024,05,22,00,00,AAXX 22004 41933 01440 50000 10270 20260 30050 40058 70521 82530 333 58002 70000 82616 85362==
41933,2024,05,22,03,00,AAXX 22034 41933 01940 00000 10310 20240 30057 40066 70520 333 20265 59005 70000==
41933,2024,05,22,06,00,AAXX 22064 41933 02450 40000 10345 20260 30050 40058 84400 333 58003 70000 83618==
41933,2024,05,22,09,00,AAXX 22094 41933 41456 60602 10340 20250 30024 40032 72110 83431 333 58005 81618 83827==
41933,2024,05,22,12,00,AAXX 22124 41933 21456 60000 10300 20220 30017 40025 70296 82430 333 10358 58002 60005 81618 86362==
41933,2024,05,22,15,00,AAXX 22154 41933 42450 40000 10282 20250 30045 40053 83530 333 58005 83618 84362==
41933,2024,05,22,18,00,AAXX 22184 41933 42/40 60000 10275 20260 30049 40057 83030 333 59006 83618 86362==
41933,2024,05,22,21,00,AAXX 22214 41933 42440 60000 10270 20260 30048 40056 83530 333 59002 83618 86362==
41933,2024,05,23,00,00,AAXX 23004 41933 42440 60000 10266 20260 30046 40054 83530 333 59004 83618 86362==
41933,2024,05,23,03,00,AAXX 23034 41933 42950 00000 10336 20270 30036 40044 333 20265 59021==
41933,2024,05,23,06,00,AAXX 23064 41933 42456 40000 10355 20260 30023 40031 83430 333 59027 82618 83826==
41933,2024,05,23,09,00,AAXX 23094 41933 02456 40000 10360 20250 39995 40004 84400 333 59029 70000 83618==
41933,2024,05,23,12,00,AAXX 23124 41933 02456 40000 10350 20240 39985 49993 84400 333 10373 59032 70000 83618==
41933,2024,05,23,15,00,AAXX 23154 41933 02/56 20000 10310 20260 30018 40027 82040 333 59027 70000 82362==
41933,2024,05,23,18,00,AAXX 23184 41933 01456 61706 10282 20240 30040 40049 71311 84340 333 59009 70000 82616 83826 81928==
41933,2024,05,23,21,00,AAXX 23214 41933 01/56 20000 10264 20230 30019 40028 70192 82030 333 59029 70000 82362==
41936,2024,05,17,00,00,AAXX 17004 41936 01/16 22600 10280 20270 30060 40067 70511 82030 333 59026 70000 82362==
41936,2024,05,17,03,00,AAXX 17034 41936 01/25 22103 10326 20280 30074 40081 70511 82030 333 20278 59025 70000 82362==
41936,2024,05,17,06,00,AAXX 17064 41936 01/50 22306 10358 20260 30056 40063 70511 82030 333 59030 70000 82362==
41936,2024,05,17,09,00,AAXX 17094 41936 01/50 11906 10380 20260 30029 40036 70511 81030 333 59032 70000 81362==
41936,2024,05,17,12,00,AAXX 17124 41936 01/50 31803 10356 20270 30018 40025 70511 83030 333 10384 59015 70000 83362==
41936,2024,05,17,15,00,AAXX 17154 41936 01/50 31906 10330 20260 30042 40049 70511 83030 333 59024 70000 83362==
41936,2024,05,17,18,00,AAXX 17184 41936 01/50 22103 10300 20260 30058 40065 70511 82030 333 59002 70000 82362==
41936,2024,05,17,21,00,AAXX 17214 41936 01/20 21903 10284 20260 30042 40049 70511 82030 333 59008 70000 82362==
41936,2024,05,18,00,00,AAXX 18004 41936 01416 41906 10282 20270 30038 40045 70511 82530 333 59022 70000 82615 82362==
41936,2024,05,18,03,00,AAXX 18034 41936 01430 41936 10316 20280 30055 40062 70522 82830 333 59019 70000 82615 85362==
41936,2024,05,18,06,00,AAXX 18064 41936 01440 41803 10336 20280 30048 40055 70522 82830 333 59008 70000 82615 85362==
41936,2024,05,18,09,00,AAXX 18094 41936 01440 41804 10360 20260 30024 40031 70522 82830 333 59005 70000 82615 85362==
41936,2024,05,18,12,00,AAXX 18124 41936 01440 41904 10352 20260 30007 40014 70522 82830 333 10370 59010 70000 82615 85362==
41936,2024,05,18,15,00,AAXX 18154 41936 01440 42105 10324 20270 30027 40034 70522 82830 333 59015 70000 82615 85362==
41936,2024,05,18,18,00,AAXX 18184 41936 01440 42103 10308 20270 30030 40037 70522 82830 333 59028 70000 82615 85362==
41936,2024,05,18,21,00,AAXX 18214 41936 01430 42100 10294 20270 30022 40030 70522 82830 333 59019 70000 82615 85362==
41936,2024,05,19,00,00,AAXX 19004 41936 01416 41903 10282 20260 30026 40033 70522 82830 333 59012 70000 82615 85362==
41936,2024,05,19,03,00,AAXX 19034 41936 01418 62104 10304 20270 30041 40048 70522 83830 333 20278 59014 70000 83615 85362==
41936,2024,05,19,06,00,AAXX 19064 41936 01440 62704 10350 20260 30031 40038 70522 83830 333 59017 70000 83615 85362==
41936,2024,05,19,09,00,AAXX 19094 41936 01450 42403 10370 20260 30007 40014 70522 82830 333 10372 59017 70000 82615 83362==
41936,2024,05,19,12,00,AAXX 19124 41936 01/50 22603 10352 20290 30001 40008 70521 82030 333 10372 59006 70000 82362==
41936,2024,05,19,15,00,AAXX 19154 41936 01450 31908 10290 20220 30021 40028 70511 82530 333 59006 70000 82615==
41936,2024,05,19,18,00,AAXX 19184 41936 01450 52106 10290 20260 30026 40033 70511 83530 333 59004 70000 83615 84362==
41936,2024,05,19,21,00,AAXX 19214 41936 01/50 30000 10280 20260 30024 40031 70511 83030 333 58001 70000 83362==
41936,2024,05,20,00,00,AAXX 20004 41936 01/16 40000 10270 20260 30031 40038 70511 84030 333 58005 70000 84362==
41936,2024,05,20,03,00,AAXX 20034 41936 01318 70903 10302 20270 30053 40060 70521 85730 333 20268 58012 70000 83610 83515 85362==
41936,2024,05,20,06,00,AAXX 20064 41936 01314 83435 10340 20240 30048 40055 71792 8792/ 333 58018 70000 84708 83512 89130 88360==
41936,2024,05,20,09,00,AAXX 20094 41936 01412 70403 10282 20260 30021 40028 70596 84630 333 58014 70190 82710 83615 85362==
41936,2024,05,20,12,00,AAXX 20124 41936 01430 51605 10294 20250 30023 40030 70595 83830 333 20348 58022 70190 83615 83362==
41936,2024,05,20,15,00,AAXX 20154 41936 01430 52103 10266 20250 30031 40038 70522 83530 333 58010 70190 83615 83362==
41936,2024,05,20,18,00,AAXX 20184 41936 01425 32203 10260 20240 30034 40038 70522 82530 333 58008 70190 82615==
41936,2024,05,20,21,00,AAXX 20214 41936 01/14 32404 10254 20240 30026 40033 70522 83030 333 58002 70190 83362==
41936,2024,05,21,00,00,AAXX 21004 41936 01/18 10000 10248 20240 30043 40050 70522 81030 333 58012 70190 81362==
41936,2024,05,21,03,00,AAXX 21034 41936 01/30 31204 10306 20260 30051 40058 70511 83030 333 20244 59002 70190 83362==
41936,2024,05,21,06,00,AAXX 21064 41936 01440 31303 10344 20260 30043 40050 70511 83830 333 59005 70190 83615 83362==
41936,2024,05,21,09,00,AAXX 21094 41936 01450 32205 10364 20250 30021 40028 70511 83830 333 58000 70000 83615 83362==
41936,2024,05,21,12,00,AAXX 21124 41936 01440 31704 10342 20250 30001 40017 70511 83830 333 10366 59013 70000 83615 83362==
41936,2024,05,21,15,00,AAXX 21154 41936 01/40 21804 10300 20250 30035 40042 70521 82030 333 58004 70000 82362==
41936,2024,05,21,18,00,AAXX 21184 41936 01/50 21703 10284 20250 30045 40052 70521 82030 333 58011 70000 82362==
41936,2024,05,21,21,00,AAXX 21214 41936 01/50 22003 10278 20260 30036 40043 70511 82030 333 58010 70000 82362==
41936,2024,05,22,00,00,AAXX 22004 41936 01/18 31503 10276 20270 30037 40044 70511 83030 333 59006 70000 83362==
41936,2024,05,22,03,00,AAXX 22034 41936 01435 41506 10324 20270 30051 40058 70511 82530 333 20274 58000 70000 82615 83362==
41936,2024,05,22,06,00,AAXX 22064 41936 01440 52203 10354 20240 30045 40051 70511 83830 333 59001 70000 83615 84362==
41936,2024,05,22,09,00,AAXX 22094 41936 01440 60303 10354 20250 30019 40026 70522 83830 333 59002 70000 83615 84362==
41936,2024,05,22,12,00,AAXX 22124 41936 01440 60303 10300 20250 30015 40022 71792 83930 333 10358 58005 70000 83615 84362 81930==
41936,2024,05,22,15,00,AAXX 22154 41936 01440 61703 10272 20240 30033 40040 70522 83830 333 59002 70000 83615 84362==
41936,2024,05,22,18,00,AAXX 22184 41936 01440 61603 10264 20240 30042 40049 70522 83830 333 59003 70000 83615 84362==
41936,2024,05,22,21,00,AAXX 22214 41936 01430 61604 10254 20240 30033 40040 70522 83830 333 59003 70000 83615 84362==
41936,2024,05,23,00,00,AAXX 23004 41936 01/16 30000 10248 20240 30040 40047 70511 83030 333 58003 70000 83362==
41936,2024,05,23,03,00,AAXX 23034 41936 01/40 21103 10328 20260 30040 40047 70511 82030 333 20248 59011 70000 82362==
41936,2024,05,23,06,00,AAXX 23064 41936 01450 50303 10352 20240 30030 40037 70511 81830 333 59014 70000 81615 84362==
41936,2024,05,23,09,00,AAXX 23094 41936 01450 51203 10370 20240 30003 40010 70522 81830 333 59016 70000 81615 84362==
41936,2024,05,23,12,00,AAXX 23124 41936 01440 50903 10352 20250 39999 40006 70522 82830 333 10372 59016 70000 82615 83362==
41936,2024,05,23,15,00,AAXX 23154 41936 01440 40000 10312 20250 30013 40020 70522 82530 333 59020 70000 82615 83362==
41936,2024,05,23,18,00,AAXX 23184 41936 01440 40000 10294 20260 30022 40029 70511 82530 333 59020 70000 82615 83362==
41936,2024,05,23,21,00,AAXX 23214 41936 01440 40000 10282 20260 30012 40019 70511 82530 333 59021 70000 82615 83362==
41938,2024,05,17,00,00,AAXX 17004 41938 32950 00000 10278 20266 30065 40069 333 59030 70000=
41938,2024,05,17,06,00,AAXX 17064 41938 32957 00000 10350 20250 30077 40081 333 59013 70000=
41938,2024,05,17,12,00,AAXX 17124 41938 32456 20000 10343 20270 30031 40035 81501 333 10365 56909 59034 70000 81618=
41938,2024,05,17,18,00,AAXX 17184 41938 32456 20000 10295 20270 30055 40059 333 59005 70000 82618=
41938,2024,05,18,00,00,AAXX 18004 41938 32450 50000 10290 20270 30055 40059 84510 333 56990 59010 70000 84618 84459=
41938,2024,05,18,06,00,AAXX 18064 41938 32456 40000 10342 20260 30053 40057 84400 333 56400 59024 70000 83618=
41938,2024,05,18,12,00,AAXX 18124 41938 32456 62103 10295 20230 30026 40030 81570 333 10360 56990 59005 70000 81618 83460 85362=
41938,2024,05,18,18,00,AAXX 18184 41938 11456 70000 10289 20280 30033 40037 69905 70196 82570 333 56690 59022 79999 82618 84460 85362=
41938,2024,05,19,00,00,AAXX 19004 41938 31445 82201 10280 20270 30035 40039 70522 8352/ 333 56999 59020 79999 83618 88460=
41938,2024,05,19,06,00,AAXX 19064 41938 32456 72102 10340 20270 30039 40043 84470 333 56590 59014 79999 83618 83460 85362=
41938,2024,05,19,12,00,AAXX 19124 41938 11350 71204 10244 20240 30022 40026 60154 79522 86920 333 10355 56390 59004 70150 84615 83826 81930 87460=
41938,2024,05,19,18,00,AAXX 19184 41938 11456 52102 10254 20240 30031 40035 69906 70396 82530 333 56590 59002 70150 82617 83362=
41938,2024,05,20,00,00,AAXX 20004 41938 31420 61801 10260 20250 30036 40040 71021 83530 333 56490 58001 70150 83616 84362=
41938,2024,05,20,06,00,AAXX 20064 41938 31356 71501 10334 20250 30046 40050 71722 86920 333 56490 58007 70150 81709 84616 91930 85460=
41938,2024,05,20,12,00,AAXX 20124 41938 11956 30000 10263 20220 30028 40032 69914 70196 83071 333 10337 56099 58006 70001 82460=
41938,2024,05,20,18,00,AAXX 20184 41938 32450 20000 10251 20240 30042 40046 82501 333 56609 58011 70001 82619=
41938,2024,05,21,00,00,AAXX 21004 41938 31940 10000 10247 20240 30045 40049 70521 81030 333 56090 58009 70001 81362=
41938,2024,05,21,06,00,AAXX 21064 41938 32457 41701 10334 20240 30047 40051 82410 333 56490 58001 70001 81618 83460=
41938,2024,05,21,12,00,AAXX 21124 41938 32456 62002 10330 20260 30018 40022 81411 333 10351 56599 59010 70000 81618 85460=
41938,2024,05,21,18,00,AAXX 21184 41938 32956 11601 10282 20260 30049 40053 81031 333 56099 58013 70000 81362=
41938,2024,05,22,00,00,AAXX 22004 41938 31920 10000 10274 20260 30043 40047 71010 81030 333 56090 59002 70000 81362=
41938,2024,05,22,06,00,AAXX 22064 41938 32457 52001 10351 20240 30047 40051 82410 333 56590 58000 70000 81618 84460=
41938,2024,05,22,12,00,AAXX 22124 41938 11457 50000 10309 20260 30022 40026 69905 70296 81422 333 10360 56999 58004 79999 81618 83460 85080=
41938,2024,05,22,18,00,AAXX 22184 41938 32956 40000 10278 20260 30047 40051 84050 333 56090 59002 79999 84362=
41938,2024,05,23,00,00,AAXX 23004 41938 31930 60000 10275 20270 30037 40041 70521 86050 333 56090 59006 79999 86362=
41938,2024,05,23,06,00,AAXX 23064 41938 32458 22503 10354 20250 30031 40035 82400 333 56500 59016 79999 81618=
41938,2024,05,23,12,00,AAXX 23124 41938 32457 22001 10348 20260 30002 40005 81570 333 10362 56490 59020 70000 81618=
41938,2024,05,23,18,00,AAXX 23184 41938 32956 30000 10284 20250 30022 40026 82011 333 56099 59025 70000 82460=
41939,2024,05,17,00,00,AAXX 17004 41939 02956 00000 10280 20260 30074 40082 333 59025 70000==
41939,2024,05,17,03,00,AAXX 17034 41939 02958 00000 10274 20260 30092 40100 333 20260 59028 70000==
41939,2024,05,17,06,00,AAXX 17064 41939 02460 20000 10358 20250 30069 40077 81530 333 59019 70000 81618==
41939,2024,05,17,09,00,AAXX 17094 41939 02460 20000 10368 20260 30045 40053 81530 333 59017 70000 81618==
41939,2024,05,17,12,00,AAXX 17124 41939 02460 40000 10330 20270 30037 40045 82530 333 10371 59033 70000 82618 83365==
41939,2024,05,17,15,00,AAXX 17154 41939 02457 40000 10300 20270 30055 40063 82530 333 59022 70000 82618 83365==
41939,2024,05,17,18,00,AAXX 17184 41939 02456 40000 10286 20270 30067 40075 82530 333 59017 70000 82618 83365==
41939,2024,05,18,00,00,AAXX 18004 41939 02456 50000 10286 20280 30056 40064 83530 333 59018 70000 83617 83362==
41939,2024,05,18,03,00,AAXX 18034 41939 02458 50000 10320 20270 30075 40083 83530 333 20270 59017 70000 83617 83362==
41939,2024,05,18,06,00,AAXX 18064 41939 02460 50000 10340 20270 30061 40069 83530 333 59008 70000 83618 83365==
41939,2024,05,18,09,00,AAXX 18094 41939 02460 50000 10330 20250 30048 40056 83530 333 58003 70000 83618 83365==
41939,2024,05,18,12,00,AAXX 18124 41939 02456 60000 10307 20250 30055 40063 83510 333 10342 59003 70000 83618 85459==
41939,2024,05,18,15,00,AAXX 18154 41939 02440 50000 10280 20250 30036 40044 82530 333 59019 70000 82618 83365==
41939,2024,05,18,18,00,AAXX 18184 41939 02440 50000 10275 20250 30045 40053 82530 333 59022 70000 82618 83365==
41939,2024,05,18,21,00,AAXX 18214 41939 02456 50000 10266 20250 30045 40053 83530 333 59005 70000 83618 83364==
41939,2024,05,19,00,00,AAXX 19004 41939 02457 50000 10274 20250 30045 40053 83530 333 59003 70000 83618 83365==
41939,2024,05,19,03,00,AAXX 19034 41939 02459 70000 10297 20280 30061 40069 83510 333 20260 58005 70000 83618 86459==
41939,2024,05,19,06,00,AAXX 19064 41939 42459 60000 10342 20270 30051 40059 84510 333 59010 84618 85460==
41939,2024,05,19,09,00,AAXX 19094 41939 02460 60000 10350 20280 30017 40025 84510 333 59031 70000 84617 86460==
41939,2024,05,19,12,00,AAXX 19124 41939 01450 80000 10258 20240 30034 40042 76122 8352/ 333 10355 59021 70010 83616 88459==
41939,2024,05,19,15,00,AAXX 19154 41939 02450 40000 10257 20250 30037 40045 82530 333 58001 70008 82618 83364==
41939,2024,05,19,18,00,AAXX 19184 41939 02450 40000 10255 20250 30048 40056 81530 333 58003 70008 81618 83364==
41939,2024,05,19,21,00,AAXX 19214 41939 02940 00000 10257 20250 30045 40053 333 58000 70008==
41939,2024,05,20,00,00,AAXX 20004 41939 02956 00000 10260 20250 30043 40051 333 59009 70008==
41939,2024,05,20,03,00,AAXX 20034 41939 02458 30000 10298 20270 30055 40063 83500 333 20253 59006 70008 83618==
41939,2024,05,20,06,00,AAXX 20064 41939 02458 40000 10350 20270 30049 40057 83530 333 59002 70008 83618==
41939,2024,05,20,09,00,AAXX 20094 41939 01450 70000 10263 20230 30042 40050 72112 84510 333 58025 70012 84616 87459==
41939,2024,05,20,12,00,AAXX 20124 41939 21458 50000 10275 20240 30024 40032 70162 83530 333 10350 59010 69945 70012 83618 83365==
41939,2024,05,20,15,00,AAXX 20154 41939 02456 50000 10260 20240 30040 40048 83530 333 58008 70004 83618 83364==
41939,2024,05,20,18,00,AAXX 20184 41939 02456 50000 10255 20250 30050 40058 83530 333 58002 70004 83617 83364==
41939,2024,05,21,00,00,AAXX 21004 41939 02957 00000 10250 20240 30054 40062 333 58011 70004==
41939,2024,05,21,03,00,AAXX 21034 41939 02960 00000 10313 20250 30065 40073 333 20241 58010 70004==
41939,2024,05,21,06,00,AAXX 21064 41939 02460 20000 10343 20260 30063 40071 82530 333 58014 70004 82618==
41939,2024,05,21,09,00,AAXX 21094 41939 02460 10000 10353 20240 30049 40057 81500 333 58007 70000 81618==
41939,2024,05,21,12,00,AAXX 21124 41939 02956 00000 10328 20250 30055 40063 333 10355 58010 70000==
41939,2024,05,21,15,00,AAXX 21154 41939 02940 00000 10298 20280 30050 40058 333 58016 70000==
41939,2024,05,21,18,00,AAXX 21184 41939 02940 00000 10288 20280 30059 40067 333 58016 70000==
41939,2024,05,21,21,00,AAXX 21214 41939 02456 40000 10270 20260 30063 40071 82530 333 58013 70000 82618 83365==
41939,2024,05,22,00,00,AAXX 22004 41939 02456 40000 10272 20260 30052 40060 82530 333 59002 70000==
41939,2024,05,22,03,00,AAXX 22034 41939 02960 00000 10304 20250 30070 40078 333 20265 58007 70000==
41939,2024,05,22,06,00,AAXX 22064 41939 02459 10000 10352 20250 30051 40058 82400 333 59012 70000 81618==
41939,2024,05,22,09,00,AAXX 22094 41939 02460 10000 10360 20240 30024 40032 82400 333 59025 70000 81618==
41939,2024,05,22,12,00,AAXX 22124 41939 02457 30000 10315 20260 30024 40032 82530 333 10363 59031 70000 82618==
41939,2024,05,22,15,00,AAXX 22154 41939 02456 30000 10300 20270 30045 40053 81530 333 59005 70000 81618 83365==
41939,2024,05,22,21,00,AAXX 22214 41939 02940 00000 10282 20260 30048 40056 333 59015 70000==
41939,2024,05,23,00,00,AAXX 23004 41939 02456 30000 10275 20270 30042 40050 81530 333 59010 70000 81618 83365==
41939,2024,05,23,03,00,AAXX 23034 41939 02458 30000 10313 20260 30055 40063 81530 333 20265 59015 70000 81618 83365==
41939,2024,05,23,06,00,AAXX 23064 41939 02460 20000 10355 20250 30029 40037 82430 333 59022 70000 81618==
41939,2024,05,23,09,00,AAXX 23094 41939 02460 20000 10375 20250 30002 40009 82430 333 59022 70000 81618==
41939,2024,05,23,12,00,AAXX 23124 41939 02460 40000 10345 20280 30000 40008 82430 333 10377 59024 70000 81618 83365==
41939,2024,05,23,15,00,AAXX 23154 41939 02456 40000 10308 20260 30018 40026 83530 333 59027 70000 83618 83365==
41941,2024,05,17,00,00,AAXX 17004 41941 02/50 60000 10288 20280 30069 40074 86031 333 59020 70000 86362==
41941,2024,05,17,03,00,AAXX 17034 41941 02/56 30000 10332 20260 30080 40086 83030 333 20282 59024 70000 83362==
41941,2024,05,17,06,00,AAXX 17064 41941 02957 01404 10356 20240 30067 40073 333 59021 70000==
41941,2024,05,17,09,00,AAXX 17094 41941 02957 01404 10356 20250 30048 40053 333 59012 70000==
41941,2024,05,17,12,00,AAXX 17124 41941 02956 01804 10330 20270 30031 40037 333 10370 59013 70000==
41941,2024,05,17,15,00,AAXX 17154 41941 02950 01804 10308 20270 30060 40066 333 59010 70000==
41941,2024,05,17,21,00,AAXX 17214 41941 02440 60000 10296 20280 30052 40057 85420 333 59014 70000 84616 86458==
41941,2024,05,18,00,00,AAXX 18004 41941 02450 81803 10290 20280 30056 40062 8632/ 333 59013 70000 85616 88458 81928==
41941,2024,05,18,03,00,AAXX 18034 41941 02456 71802 10320 20270 30070 40076 85420 333 20286 59010 70000 84616 87458==
41941,2024,05,18,06,00,AAXX 18064 41941 02450 83612 10310 20260 30073 40078 8632/ 333 58006 70000 85614 88458 81930==
41941,2024,05,18,09,00,AAXX 18094 41941 01456 40000 10296 20260 30028 40034 70196 81530 333 59020 70118 81616 84362==
41941,2024,05,18,12,00,AAXX 18124 41941 11456 60000 10290 20260 30024 40029 60126 70396 83520 333 10342 59007 70118 83616 86458==
41941,2024,05,18,15,00,AAXX 18154 41941 02456 60000 10270 20230 30039 40044 82510 333 59021 70118 82616 86458==
41941,2024,05,18,18,00,AAXX 18184 41941 02456 50902 10270 20260 30043 40048 82510 333 59012 70118 82616 85458==
41941,2024,05,18,21,00,AAXX 18214 41941 01440 60000 10265 20260 30035 40041 70522 82520 333 59017 70118 82616 86458==
41941,2024,05,19,00,00,AAXX 19004 41941 01440 60000 10272 20260 30043 40049 70522 82520 333 59013 70118 82616 86458==
41941,2024,05,19,03,00,AAXX 19034 41941 02456 71801 10306 20280 30060 40065 83520 333 20255 59010 70118 83616 87458==
41941,2024,05,19,06,00,AAXX 19064 41941 02456 71804 10338 20280 30041 40046 85420 333 59032 70118 84616 87458==
41941,2024,05,19,09,00,AAXX 19094 41941 02456 61803 10340 20270 30017 40023 85420 333 59011 70000 84616 86458==
41941,2024,05,19,12,00,AAXX 19124 41941 01450 81804 10288 20250 30026 40031 72992 8692/ 333 10355 58002 70000 85616 88458 81928==
41941,2024,05,19,15,00,AAXX 19154 41941 02440 70000 10272 20250 30033 40039 85420 333 59006 70000 84616 87458==
41941,2024,05,19,18,00,AAXX 19184 41941 NIL=
41941,2024,05,19,21,00,AAXX 19214 41941 02440 71803 10266 20260 30028 40034 85420 333 59007 70000 84616 87458==
41941,2024,05,20,00,00,AAXX 20004 41941 01440 60000 10260 20250 30037 40043 70522 85420 333 59006 70000 84616 86458==
41941,2024,05,20,03,00,AAXX 20034 41941 02456 61802 10306 20270 30061 40066 85420 333 20258 58001 70000 84616 86458==
41941,2024,05,20,06,00,AAXX 20064 41941 02456 60000 10335 20270 30050 40055 85420 333 59009 70000 81616 86458==
41941,2024,05,20,09,00,AAXX 20094 41941 01450 81502 10252 20240 30053 40059 76566 8632/ 333 58036 70200 85616 88458 81930==
41941,2024,05,20,12,00,AAXX 20124 41941 21450 60000 10265 20250 30017 40023 70166 85420 333 10345 58009 60027 70220 84616 86458==
41941,2024,05,20,15,00,AAXX 20154 41941 02440 60000 10257 20250 30044 40050 85420 333 58011 70220 84616 86458==
41941,2024,05,20,18,00,AAXX 20184 41941 NIL=
41941,2024,05,20,21,00,AAXX 20214 41941 02440 60000 10250 20250 30047 40053 85420 333 58019 70220 84616 86458==
41941,2024,05,21,00,00,AAXX 21004 41941 02450 60000 10250 20250 30058 40064 85420 333 58021 70220 84616 86458==
41941,2024,05,21,03,00,AAXX 21034 41941 02456 30000 10310 20250 30064 40070 83500 333 20246 58003 70220 83618==
41941,2024,05,21,06,00,AAXX 21064 41941 02456 51301 10336 20260 30050 40055 83510 333 58000 70220 83616 84458==
41941,2024,05,21,09,00,AAXX 21094 41941 02457 41301 10345 20270 30022 40027 83510 333 59031 70020 83618==
41941,2024,05,21,12,00,AAXX 21124 41941 02957 00000 10326 20250 30018 40023 333 10353 58001 70000==
41941,2024,05,21,15,00,AAXX 21154 41941 02940 01802 10300 20270 30047 40052 333 58003 70000==
41941,2024,05,21,18,00,AAXX 21184 41941 02950 00000 10290 20280 30055 40060 333 58001 70000==
41941,2024,05,21,21,00,AAXX 21214 41941 01940 00000 10285 20280 30046 40051 70500 333 59001 70000==
41941,2024,05,22,00,00,AAXX 22004 41941 01940 00000 10280 20280 30051 40056 70500 333 59007 70000==
41941,2024,05,22,03,00,AAXX 22034 41941 02957 03602 10310 20260 30061 40066 333 20278 59003 70000==
41941,2024,05,22,06,00,AAXX 22064 41941 02457 61802 10345 20270 30051 40056 85420 333 58001 70000 84616 86458==
41941,2024,05,22,09,00,AAXX 22094 41941 02457 32302 10355 20240 30025 40030 83810 333 58003 70000 81618 83828==
41941,2024,05,22,12,00,AAXX 22124 41941 02456 30000 10318 20250 30019 40024 83810 333 10360 58001 70000 81618 83828==
41941,2024,05,22,15,00,AAXX 22154 41941 02950 01802 10299 20260 30045 40050 333 59002 70000==
41941,2024,05,22,18,00,AAXX 22184 41941 02440 61803 10293 20260 30058 40063 85420 333 58003 70000 84616 86458==
41941,2024,05,22,21,00,AAXX 22214 41941 02440 60000 10285 20270 30049 40054 85420 333 58003 70000 84616 86458==
41941,2024,05,23,00,00,AAXX 23004 41941 02456 30000 10280 20270 30039 40044 83500 333 59012 70000 83618==
41941,2024,05,23,03,00,AAXX 23034 41941 02457 33603 10339 20270 30045 40050 83500 333 20279 59016 70000 83618==
41941,2024,05,23,06,00,AAXX 23064 41941 02457 43102 10360 20280 30031 40037 84800 333 59020 70000 82618 83828==
41941,2024,05,23,09,00,AAXX 23094 41941 02457 33103 10367 20260 39996 40001 83800 333 59029 70000 81618 83828==
41941,2024,05,23,12,00,AAXX 23124 41941 02/57 10000 10343 20250 39995 40000 81030 333 10375 59024 70000 81362==
41941,2024,05,23,15,00,AAXX 23154 41941 02950 00000 10315 20270 30019 40025 333 59026 70000==
41941,2024,05,23,18,00,AAXX 23184 41941 02/50 30000 10300 20270 30030 40036 83030 333 59028 70000 83362==
41941,2024,05,23,21,00,AAXX 23214 41941 02950 00000 10280 20250 30020 40025 333 59029 70000==
41943,2024,05,17,00,00,AAXX 17004 41943 01945 10000 10275 20260 30074 40081 70510 80001 333 59019 70000 81074==
41943,2024,05,17,03,00,AAXX 17034 41943 01950 11901 10328 20260 30086 40093 70511 81500 333 20274 59018 70000 81618==
41943,2024,05,17,06,00,AAXX 17064 41943 02445 61502 10340 20250 30071 40078 84810 333 59017 70000 82616 83828==
41943,2024,05,17,09,00,AAXX 17094 41943 02445 61802 10356 20250 30043 40050 83530 333 59015 70000 83616 83362==
41943,2024,05,17,12,00,AAXX 17124 41943 02440 61802 10340 20250 30036 40043 83530 333 10362 58003 70000 83616 83362==
41943,2024,05,17,15,00,AAXX 17154 41943 02330 50000 10306 20250 30058 40065 82530 333 59013 70000 82618 83362==
41943,2024,05,17,18,00,AAXX 17184 41943 02430 50000 10290 20250 30067 40074 82530 333 58001 70000 82618 83362==
41943,2024,05,17,21,00,AAXX 17214 41943 02430 60000 10284 20250 30062 40069 83530 333 59008 70000 83616 84362==
41943,2024,05,18,00,00,AAXX 18004 41943 02435 60000 10274 20250 30057 40064 83530 333 59036 70000 83616 85362==
41943,2024,05,18,03,00,AAXX 18034 41943 02435 71802 10304 20260 30077 40084 83510 333 20272 59009 70000 83616 86458==
41943,2024,05,18,06,00,AAXX 18064 41943 02440 61802 10344 20240 30065 40072 83510 333 59006 70000 83616 85458==
41943,2024,05,18,09,00,AAXX 18094 41943 01335 71302 10264 20250 30034 40042 70362 83520 333 59009 70210 83616 86458==
41943,2024,05,18,12,00,AAXX 18124 41943 11335 71802 10284 20240 30028 40035 60216 70262 84520 333 10346 59008 70210 83616 86458==
41943,2024,05,18,15,00,AAXX 18154 41943 02430 61802 10264 20240 30038 40045 83510 333 59020 70210 83616 85458==
41943,2024,05,18,18,00,AAXX 18184 41943 02430 60000 10260 20240 30050 40057 83510 333 59017 70210 83616 85458==
41943,2024,05,18,21,00,AAXX 18214 41943 02430 50000 10260 20240 30048 40055 83510 333 59014 70210 83616 84458==
41943,2024,05,19,00,00,AAXX 19004 41943 02435 60000 10260 20250 30046 40053 83520 333 59011 70210 83616 85458==
41943,2024,05,19,03,00,AAXX 19034 41943 02440 61302 10318 20240 30061 40068 83520 333 20254 59016 70210 83616 85458==
41943,2024,05,19,06,00,AAXX 19064 41943 02440 71802 10340 20260 30045 40052 84520 333 59020 70210 84616 86458==
41943,2024,05,19,09,00,AAXX 19094 41943 01435 81802 10250 20240 30041 40048 76162 8772/ 333 58007 70120 83709 85614 88458==
41943,2024,05,19,12,00,AAXX 19124 41943 21330 81802 10260 20230 30023 40030 70262 8662/ 333 10360 59005 60148 70140 83710 84614 88458==
41943,2024,05,19,15,00,AAXX 19154 41943 02440 80000 10258 20240 30032 40039 8662/ 333 59006 70140 83710 84614 88458==
41943,2024,05,19,18,00,AAXX 19184 41943 02430 60000 10258 20250 30042 40049 83520 333 59008 70140 83616 85458==
41943,2024,05,19,21,00,AAXX 19214 41943 41430 60000 10252 20240 30039 40046 59009 70140 85458==
41943,2024,05,20,00,00,AAXX 20004 41943 02435 50000 10246 20240 30042 40049 83520 333 59004 70140 83616 84458==
41943,2024,05,20,03,00,AAXX 20034 41943 02440 51802 10305 20250 30068 40075 83520 333 20244 58007 70140 83616 84458==
41943,2024,05,20,06,00,AAXX 20064 41943 02440 61802 10330 20240 30051 40058 84520 333 58006 70140 84616 85458==
41943,2024,05,20,09,00,AAXX 20094 41943 01330 81804 10275 20240 30033 40040 76262 8772/ 333 59008 70040 83709 85614 88458==
41943,2024,05,20,12,00,AAXX 20124 41943 21330 81802 10256 20240 30016 40023 70262 8662/ 333 10345 59007 60075 70070 83710 84614 88458==
41943,2024,05,20,15,00,AAXX 20154 41943 02430 71802 10252 20220 30040 40047 84520 333 58008 70070 84616 85458==
41943,2024,05,20,18,00,AAXX 20184 41943 02430 60000 10250 20230 30049 40056 83520 333 58007 70070 83616 84458==
41943,2024,05,20,21,00,AAXX 20214 41943 02430 60000 10250 20240 30049 40059 83520 333 58010 70070 83616 85458==
41943,2024,05,21,00,00,AAXX 21004 41943 02435 70000 10250 20240 30048 40055 84520 333 58006 70070 84616 86458==
41943,2024,05,21,03,00,AAXX 21034 41943 02940 00000 10310 20230 30062 40069 333 20250 59006 70000==
41943,2024,05,21,06,00,AAXX 21064 41943 02945 00000 10345 20240 30049 40056 333 59002 70070==
41943,2024,05,21,09,00,AAXX 21094 41943 02950 00000 10360 20220 30019 40026 333 59014 70050==
41943,2024,05,21,12,00,AAXX 21124 41943 02945 00000 10335 20240 30016 40023 333 10365 58000 70000==
41943,2024,05,21,15,00,AAXX 21154 41943 02930 00000 10295 20250 30047 40054 333 58007 70000==
41943,2024,05,21,18,00,AAXX 21184 41943 02930 00000 10285 20250 30051 40058 333 58002 70000==
41943,2024,05,21,21,00,AAXX 21214 41943 02930 00000 10275 20250 30052 40059 333 58003 70000==
41943,2024,05,22,00,00,AAXX 22004 41943 02430 50000 10270 20250 30054 40061 83520 333 58006 70000 83616 84458==
41943,2024,05,22,03,00,AAXX 22034 41943 02935 00000 10330 20240 30061 40068 333 20270 59001 70000==
41943,2024,05,22,06,00,AAXX 22064 41943 02440 50000 10340 20240 30051 40058 83520 333 58002 70000 83616 84458==
41943,2024,05,22,09,00,AAXX 22094 41943 02450 40000 10355 20240 30022 40029 83830 333 58002 70000 81618 83828==
41943,2024,05,22,12,00,AAXX 22124 41943 02450 41803 10305 20250 30016 40023 83830 333 10365 58000 70000 81618 83828==
41943,2024,05,22,15,00,AAXX 22154 41943 02935 00000 10285 20250 30047 40054 333 58000 70000==
41943,2024,05,22,18,00,AAXX 22184 41943 02930 00000 10280 20250 30052 40059 333 70000==
41943,2024,05,23,00,00,AAXX 23004 41943 02430 50000 10270 20250 30037 40044 83520 333 59017 70000 83616 84458==
41943,2024,05,23,03,00,AAXX 23034 41943 02935 03602 10335 20260 30041 40048 333 20270 59020 70000==
41943,2024,05,23,06,00,AAXX 23064 41943 02/40 23602 10360 20240 30025 40032 82030 333 59026 70000 82362==
41943,2024,05,23,09,00,AAXX 23094 41943 02/50 23602 10370 20240 30022 40029 82030 333 58000 70000 82362==
41943,2024,05,23,12,00,AAXX 23124 41943 02950 03602 10355 20250 39990 49997 333 10380 59026 70000==
41943,2024,05,23,15,00,AAXX 23154 41943 02435 51803 10320 20250 30023 40030 83520 333 59024 70000 83616 84458==
41943,2024,05,23,18,00,AAXX 23184 41943 02430 81803 10252 20240 30044 40051 8662/ 333 59008 70000 83710 84615 88458==
41943,2024,05,23,21,00,AAXX 23214 41943 01330 81802 10250 20230 30040 40047 70262 8662/ 333 59007 70030 83710 84615 88458==
41944,2024,05,17,06,00,AAXX 17064 41944 NIL=
41944,2024,05,18,06,00,AAXX 18064 41944 NIL=
41944,2024,05,18,12,00,AAXX 18124 41944 NIL=
41944,2024,05,19,00,00,AAXX 19004 41944 NIL=
41944,2024,05,19,06,00,AAXX 19064 41944 NIL=
41944,2024,05,19,12,00,AAXX 19124 41944 NIL=
41944,2024,05,19,18,00,AAXX 19184 41944 NIL=
41944,2024,05,20,00,00,AAXX 20004 41944 NIL=
41944,2024,05,20,06,00,AAXX 20064 41944 NIL=
41944,2024,05,20,12,00,AAXX 20124 41944 NIL=
41944,2024,05,20,18,00,AAXX 20184 41944 NIL=
41944,2024,05,21,12,00,AAXX 21124 41944 NIL=
41944,2024,05,21,18,00,AAXX 21184 41944 NIL=
41944,2024,05,22,00,00,AAXX 22004 41944 NIL=
41944,2024,05,22,06,00,AAXX 22064 41944 NIL=
41944,2024,05,23,00,00,AAXX 23004 41944 NIL=
41944,2024,05,23,06,00,AAXX 23064 41944 NIL=
41944,2024,05,23,12,00,AAXX 23124 41944 NIL=
41946,2024,05,17,00,00,AAXX 17004 41946 02956 42303 10295 20280 30070 40075 80004 333 59032 70000 84080==
41946,2024,05,17,03,00,AAXX 17034 41946 02956 02202 10324 20270 30086 40091 333 20290 59024 70000==
41946,2024,05,17,06,00,AAXX 17064 41946 02957 02302 10352 20250 30065 40069 333 59033 70000==
41946,2024,05,17,09,00,AAXX 17094 41946 02957 11801 10370 20250 30041 40045 80002 333 59025 70000 81080==
41946,2024,05,17,12,00,AAXX 17124 41946 02456 50000 10357 20240 30032 40036 81530 333 10372 59014 70000 81618 84362==
41946,2024,05,17,15,00,AAXX 17154 41946 02956 11805 10316 20270 30061 40066 80001 333 59016 70000 81080==
41946,2024,05,17,18,00,AAXX 17184 41946 02456 31905 10301 20280 30063 40068 81530 333 59011 70000 81618==
41946,2024,05,17,21,00,AAXX 17214 41946 02456 50000 10300 20270 30045 40050 81530 333 59015 70000 81618 84362==
41946,2024,05,18,00,00,AAXX 18004 41946 02456 72203 10300 20270 30054 40059 82570 333 59016 70000 82618 85460==
41946,2024,05,18,03,00,AAXX 18034 41946 02456 81803 10320 20270 30070 40075 8352/ 333 20297 59016 70000 83618 88460==
41946,2024,05,18,06,00,AAXX 18064 41946 02456 51802 10350 20270 30053 40057 83401 333 59012 70000 83618 84080==
41946,2024,05,18,09,00,AAXX 18094 41946 02456 51802 10364 20260 30024 40028 83401 333 59017 70000 83618 84080==
41946,2024,05,18,12,00,AAXX 18124 41946 02456 81802 10330 20250 30026 40030 8352/ 333 10370 59006 70000 83618 88460==
41946,2024,05,18,15,00,AAXX 18154 41946 01456 71805 10298 20240 30037 40042 71722 83920 333 70000 83618 85460 81929==
41946,2024,05,18,18,00,AAXX 18184 41946 01456 80000 10294 20240 30039 40044 79203 8352/ 333 59024 70000 83618 88460==
41946,2024,05,18,21,00,AAXX 18214 41946 02456 80000 10295 20260 30040 40045 8252/ 333 59005 70000 82618 88460==
41946,2024,05,19,00,00,AAXX 19004 41946 02456 80000 10300 20270 30047 40052 8252/ 333 59007 70000 82618 88460==
41946,2024,05,19,03,00,AAXX 19034 41946 02456 81802 10317 20290 30053 40058 8342/ 333 20285 59017 70000 83618 88460==
41946,2024,05,19,06,00,AAXX 19064 41946 02456 80000 10340 20260 30040 40044 8342/ 333 59013 70000 83618 88460 81928==
41946,2024,05,19,09,00,AAXX 19094 41946 02557 30000 10364 20230 30014 40018 83300 333 59010 70000 82825 81928==
41946,2024,05,19,12,00,AAXX 19124 41946 01556 60000 10304 20270 30012 40016 72992 84970 333 10370 59014 70020 83620 84459 81929==
41946,2024,05,19,15,00,AAXX 19154 41946 02556 21902 10290 20250 30034 40039 82200 333 59003 70020 82825==
41946,2024,05,19,18,00,AAXX 19184 41946 02956 41902 10300 20270 30033 40038 84400 333 59006 70020 82620 83822==
41946,2024,05,19,21,00,AAXX 19214 41946 02456 51703 10294 20270 30026 40031 85400 333 59014 70020 83618 83820==
41946,2024,05,20,00,00,AAXX 20004 41946 02556 60000 10288 20280 30039 40043 86400 333 59008 70020 84620 83822==
41946,2024,05,20,03,00,AAXX 20034 41946 02456 61803 10325 20280 30056 40060 84430 333 20285 58003 70020 83618 83362==
41946,2024,05,20,06,00,AAXX 20064 41946 02457 61802 10350 20260 30051 40055 86400 333 58011 70020 84618 83820==
41946,2024,05,20,09,00,AAXX 20094 41946 01450 80000 10266 20240 30038 40043 79596 8492/ 333 58024 70028 83618 88459 81929==
41946,2024,05,20,12,00,AAXX 20124 41946 21456 61802 10276 20240 30035 40040 70196 82570 333 10354 58023 60015 70008 82618 85459==
41946,2024,05,20,15,00,AAXX 20154 41946 02456 70000 10270 20240 30046 40051 82520 333 58012 70008 82618 87459==
41946,2024,05,20,18,00,AAXX 20184 41946 02456 50000 10267 20250 30046 40051 82530 333 58013 70008 82618 83362==
41946,2024,05,20,21,00,AAXX 20214 41946 02456 50000 10264 20240 30045 40050 81530 333 58019 70008 81618 84362==
41946,2024,05,21,00,00,AAXX 21004 41946 02456 50502 10260 20250 30052 40057 81530 333 58013 70008 81618 84362==
41946,2024,05,21,03,00,AAXX 21034 41946 02956 50000 10318 20260 30062 40067 80001 333 20256 58006 70000 85080==
41946,2024,05,21,06,00,AAXX 21064 41946 02456 71802 10340 20250 30055 40059 84320 333 58004 70008 83618 87460 81928==
41946,2024,05,21,09,00,AAXX 21094 41946 02456 61802 10350 20260 30026 40030 84430 333 59012 70000 83618 83362==
41946,2024,05,21,12,00,AAXX 21124 41946 02956 50000 10328 20260 30021 40025 80001 333 10354 59014 70000 85080==
41946,2024,05,21,15,00,AAXX 21154 41946 02456 20000 10305 20260 30046 40051 82500 333 58000 70000 82618==
41946,2024,05,21,18,00,AAXX 21184 41946 02456 50000 10295 20270 30057 40062 82530 333 58011 70000 82618 84362==
41946,2024,05,21,21,00,AAXX 21214 41946 02456 30000 10290 20270 30044 40049 83500 333 59001 70000 83618==
41946,2024,05,22,00,00,AAXX 22004 41946 02456 30000 10285 20280 30048 40053 83500 333 59004 70000 83618==
41946,2024,05,22,03,00,AAXX 22034 41946 02456 51802 10330 20270 30065 40069 85400 333 20270 58003 70000 83618 83820==
41946,2024,05,22,06,00,AAXX 22064 41946 02456 50000 10350 20250 30051 40055 85300 333 59004 70000 84618 81928==
41946,2024,05,22,09,00,AAXX 22094 41946 02557 51502 10330 20250 30025 40029 83530 333 59001 70000 83620 84360==
41946,2024,05,22,12,00,AAXX 22124 41946 02/56 60000 10330 20240 30024 40028 86070 333 10366 58003 70000 84459 84360==
41946,2024,05,22,15,00,AAXX 22154 41946 02556 40000 10308 20260 30049 40054 84400 333 58003 70000 82620 83822==
41946,2024,05,22,18,00,AAXX 22184 41946 01350 81802 10240 20220 30107 40112 71796 8592/ 333 58011 70015 81710 84618 88458 81928==
41946,2024,05,22,21,00,AAXX 22214 41946 02/56 20000 10293 20270 30027 40032 82030 333 59017 70000 82362==
41946,2024,05,23,00,00,AAXX 23004 41946 02/56 50000 10284 20270 30035 40040 83052 333 59013 70000 83362 83080==
41946,2024,05,23,03,00,AAXX 23034 41946 02/56 30000 10340 20250 30050 40054 83030 333 20275 59015 70000 83362==
41946,2024,05,23,06,00,AAXX 23064 41946 02457 30000 10365 20250 30036 40040 83400 333 59015 70000 82618==
41946,2024,05,23,09,00,AAXX 23094 41946 02557 40000 10373 20220 30010 40014 84400 333 59015 70000 83620==
41946,2024,05,23,12,00,AAXX 23124 41946 02456 43102 10320 20240 30009 40013 83530 333 10379 59015 70000 83618==
41946,2024,05,23,15,00,AAXX 23154 41946 02/56 11901 10311 20250 30026 40030 81030 333 59023 70000 81362==
41946,2024,05,23,18,00,AAXX 23184 41946 02/56 20000 10298 20270 30031 40036 82030 333 59019 70000 82062==
41946,2024,05,23,21,00,AAXX 23214 41946 01/40 10000 10286 20280 30018 40023 70500 81030 333 59009 70000 81362==
41947,2024,05,17,00,00,AAXX 17004 41947 02450 20000 10294 20270 30076 40078 82500 333 59024 70000 82618==
41947,2024,05,17,03,00,AAXX 17034 41947 02456 62702 10323 20270 30087 40090 86400 333 20290 59021 70000 83618 83820==
41947,2024,05,17,06,00,AAXX 17064 41947 02456 42702 10360 20270 30068 40071 84400 333 59028 70000 81618 83820==
41947,2024,05,17,09,00,AAXX 17094 41947 42457 20000 10370 20260 30043 40045 82500 333 59020 82618==
41947,2024,05,17,12,00,AAXX 17124 41947 02956 01802 10350 20270 30035 40037 333 10380 59013 70000==
41947,2024,05,17,15,00,AAXX 17154 41947 02450 21802 10320 20270 30059 40061 82500 333 59014 70000 82618==
41947,2024,05,17,18,00,AAXX 17184 41947 02950 01802 10305 20280 30061 40063 333 59012 70000==
41947,2024,05,17,21,00,AAXX 17214 41947 02450 31802 10300 20280 30061 40063 83500 333 59014 70000 83618==
41947,2024,05,18,00,00,AAXX 18004 41947 02450 61802 10300 20280 30060 40062 83570 333 59016 70000 83618 85458==
41947,2024,05,18,03,00,AAXX 18034 41947 02456 70000 10320 20270 30070 40073 83570 333 20290 59017 70000 83618 86458==
41947,2024,05,18,06,00,AAXX 18064 41947 02456 60000 10355 20280 30054 40057 86400 333 59014 70000 83618 83820==
41947,2024,05,18,09,00,AAXX 18094 41947 02456 60000 10375 20280 30023 40025 84470 333 59020 70000 83618 85459==
41947,2024,05,18,12,00,AAXX 18124 41947 02450 81806 10320 20240 30023 40025 8532/ 333 10375 59012 70000 84618 88459 81930==
41947,2024,05,18,15,00,AAXX 18154 41947 02450 81802 10295 20250 30043 40045 8532/ 333 59016 70000 84618 88459 81930==
41947,2024,05,18,18,00,AAXX 18184 41947 01950 81802 10295 20270 30042 40044 70292 8532/ 333 59019 70000 84618 88459 81930==
41947,2024,05,18,21,00,AAXX 18214 41947 02450 80000 10294 20280 30040 40042 8352/ 333 59021 70000 83618 88459==
41947,2024,05,19,00,00,AAXX 19004 41947 02950 80000 10295 20290 30041 40043 8352/ 333 59019 70000 83618 88459==
41947,2024,05,19,03,00,AAXX 19034 41947 02456 80000 10313 20270 30056 40058 8352/ 333 20286 59015 70000 83618 88459==
41947,2024,05,19,06,00,AAXX 19064 41947 02456 80000 10350 20270 30044 40046 8352/ 333 59011 70000 83618 88459==
41947,2024,05,19,09,00,AAXX 19094 41947 02457 20000 10366 20270 30007 40009 82400 333 59016 70000 81618==
41947,2024,05,19,12,00,AAXX 19124 41947 02456 61306 10296 20240 30026 40028 84470 333 10375 58003 70000 83618 84459==
41947,2024,05,19,15,00,AAXX 19154 41947 02956 01803 10285 20250 30036 40038 333 59007 70000==
41947,2024,05,19,18,00,AAXX 19184 41947 02/56 31803 10290 20270 30038 40040 83030 333 59004 70000 83362==
41947,2024,05,19,21,00,AAXX 19214 41947 02/56 30000 10285 20280 30036 40038 83030 333 59004 70000 83362==
41947,2024,05,20,00,00,AAXX 20004 41947 02456 60000 10277 20270 30045 40047 83530 333 58004 70000 83618 84362==
41947,2024,05,20,03,00,AAXX 20034 41947 02456 72202 10323 20270 30059 40061 83570 333 20270 58003 70000 83618 84459==
41947,2024,05,20,06,00,AAXX 20064 41947 02457 70000 10350 20270 30050 40052 83570 333 58006 70000 83618 85459==
41947,2024,05,20,09,00,AAXX 20094 41947 01356 81808 10268 20250 30038 40040 79522 8532/ 333 58032 70010 83616 88458 81928==
41947,2024,05,20,12,00,AAXX 20124 41947 21456 21801 10270 20240 30032 40034 70196 82500 333 10358 58006 60035 70030 82618==
41947,2024,05,20,15,00,AAXX 20154 41947 02450 21802 10262 20230 30047 40049 82500 333 58011 70030 82618==
41947,2024,05,20,18,00,AAXX 20184 41947 02450 30000 10265 20250 30048 40050 83500 333 58010 70030 83618==
41947,2024,05,20,21,00,AAXX 20214 41947 02950 30000 10265 20250 30050 40052 83500 333 58014 70030 83618==
41947,2024,05,21,00,00,AAXX 21004 41947 02956 00000 10260 20240 30053 40055 333 58008 70030==
41947,2024,05,21,03,00,AAXX 21034 41947 02956 00000 10320 20260 30061 40064 333 20248 58003 70000==
41947,2024,05,21,06,00,AAXX 21064 41947 02456 50000 10345 20270 30055 40058 85400 333 58006 70030 82618 83820==
41947,2024,05,21,09,00,AAXX 21094 41947 02456 51303 10355 20250 30024 40026 85400 333 59015 70020 82618 83820==
41947,2024,05,21,12,00,AAXX 21124 41947 02456 20000 10330 20250 30020 40022 82500 333 10357 59012 70000 82618==
41947,2024,05,21,15,00,AAXX 21154 41947 02950 00000 10310 20260 30044 40046 333 59005 70000==
41947,2024,05,21,18,00,AAXX 21184 41947 02950 00000 10300 20270 30048 40050 333 58000 70000==
41947,2024,05,21,21,00,AAXX 21214 41947 02950 00000 10292 20270 30050 40052 333 58000 70000==
41947,2024,05,22,00,00,AAXX 22004 41947 02950 00000 10285 20270 30048 40050 333 59005 70000==
41947,2024,05,22,03,00,AAXX 22034 41947 02456 50000 10330 20270 30063 40066 85400 333 20280 58002 70000 82618 83820==
41947,2024,05,22,06,00,AAXX 22064 41947 02456 50000 10353 20270 30054 40057 85400 333 59001 70000 82618 83820==
41947,2024,05,22,09,00,AAXX 22094 41947 02456 51802 10355 20240 30031 40033 84310 333 58007 70000 83618 85459 81930==
41947,2024,05,22,12,00,AAXX 22124 41947 02456 40000 10328 20240 30022 40025 83400 333 10365 58003 70000 82618 83825==
41947,2024,05,22,15,00,AAXX 22154 41947 02450 20000 10305 20260 30048 40050 82500 333 58006 70000 82618==
41947,2024,05,22,18,00,AAXX 22184 41947 02450 60000 10300 20260 30054 40056 82510 333 58012 70000 82618 85459==
41947,2024,05,22,21,00,AAXX 22214 41947 02450 60000 10290 20270 30043 40045 82570 333 59007 70000 82618 85459==
41947,2024,05,23,00,00,AAXX 23004 41947 02450 60000 10280 20270 30038 40040 82570 333 59010 70000 82618 85459==
41947,2024,05,23,03,00,AAXX 23034 41947 02957 01402 10340 20250 30048 40050 333 20280 59016 70000==
41947,2024,05,23,06,00,AAXX 23064 41947 02456 40000 10360 20230 30037 40039 84400 333 59018 70000 83618==
41947,2024,05,23,09,00,AAXX 23094 41947 02457 31302 10372 20180 30008 40010 83400 333 59023 70000 82618==
41947,2024,05,23,12,00,AAXX 23124 41947 02/57 32105 10333 20250 30004 40006 83030 333 10380 59019 70000 83362==
41947,2024,05,23,15,00,AAXX 23154 41947 02/56 30000 10310 20250 30025 40027 83030 333 59023 70000 83362==
41947,2024,05,23,18,00,AAXX 23184 41947 02/56 40000 10302 20270 30032 40034 84030 333 59022 70000 84362==
41947,2024,05,23,21,00,AAXX 23214 41947 02/56 30000 10290 20270 30021 40023 83030 333 59022 70000 83362==
41950,2024,05,17,00,00,AAXX 17004 41950 02/50 30000 10278 20270 30072 40075 82031 333 59024 70000 82362==
41950,2024,05,17,03,00,AAXX 17034 41950 02450 20000 10327 20270 30089 40092 82500 333 20275 59020 70000 82617==
41950,2024,05,17,06,00,AAXX 17064 41950 02450 31902 10350 20250 30072 40075 83500 333 59023 70000 83617==
41950,2024,05,17,09,00,AAXX 17094 41950 02450 41802 10360 20240 30045 40047 84400 333 59020 70000 83617==
41950,2024,05,17,12,00,AAXX 17124 41950 02/50 31802 10340 20260 30037 40039 83030 333 10365 59012 70000 83362==
41950,2024,05,17,15,00,AAXX 17154 41950 02950 01802 10304 20260 30064 40067 333 59016 70000==
41950,2024,05,17,18,00,AAXX 17184 41950 02950 00000 10295 20270 30071 40074 333 59007 70000==
41950,2024,05,17,21,00,AAXX 17214 41950 02450 30000 10290 20270 30053 40056 82530 333 59021 70000 82617==
41950,2024,05,18,00,00,AAXX 18004 41950 02350 80000 10285 20280 30058 40061 8562/ 333 59014 70000 82708 84616 88458==
41950,2024,05,18,03,00,AAXX 18034 41950 02450 50000 10329 20270 30075 40078 84430 333 20283 59014 70000 83617==
41950,2024,05,18,06,00,AAXX 18064 41950 02450 40000 10351 20260 30059 40062 84400 333 59013 70000 83617==
41950,2024,05,18,09,00,AAXX 18094 41950 01450 40904 10320 20250 30028 40031 71722 83930 333 59017 70000 82617 84362 81928==
41950,2024,05,18,12,00,AAXX 18124 41950 01450 71702 10280 20230 30030 40033 71792 84970 333 10356 59007 70000 83617 85459 81928==
41950,2024,05,18,15,00,AAXX 18154 41950 01350 80000 10275 20250 30044 40046 71322 8632/ 333 59020 70000 82708 84616 88458 81928==
41950,2024,05,18,18,00,AAXX 18184 41950 21350 80000 10268 20250 30041 40043 70262 8562/ 333 59030 69915 70001 82708 84616 88458==
41950,2024,05,18,21,00,AAXX 18214 41950 02350 80000 10270 20260 30039 40041 8562/ 333 59014 70001 82708 84616 88458==
41950,2024,05,19,00,00,AAXX 19004 41950 02350 80000 10280 20270 30043 40045 8562/ 333 59015 70001 82708 84616 88458==
41950,2024,05,19,03,00,AAXX 19034 41950 41350 80000 10306 20280 30060 40063 70362 8562/ 333 20263 59015 82708 84616 88458==
41950,2024,05,19,06,00,AAXX 19064 41950 21350 80000 10337 20270 30046 40049 70162 84670 333 59013 60005 70000 81708 83617 84459==
41950,2024,05,19,09,00,AAXX 19094 41950 42450 60903 10352 20250 30020 40022 86300 333 59008 83617 83825 81928==
41950,2024,05,19,12,00,AAXX 19124 41950 01450 80000 10256 20240 30029 40031 71796 8592/ 333 10365 59001 70020 84617 88458 81928==
41950,2024,05,19,15,00,AAXX 19154 41950 02450 70000 10255 20250 30036 40038 83510 333 59008 70016 83617 85459==
41950,2024,05,19,18,00,AAXX 19184 41950 02950 00000 10256 20256 30046 40048 333 58005 70016==
41950,2024,05,19,21,00,AAXX 19214 41950 02950 00000 10262 20260 30046 40048 333 58007 70016==
41950,2024,05,20,00,00,AAXX 20004 41950 02450 60000 10262 20265 30046 40048 83510 333 58003 70016 83617 85459==
41950,2024,05,20,03,00,AAXX 20034 41950 02350 61602 10322 20270 30064 40066 84610 333 20250 58004 70016 81708 84616 86459==
41950,2024,05,20,06,00,AAXX 20064 41950 02450 50000 10350 20260 30049 40051 84330 333 58003 70016 83617 81928==
41950,2024,05,20,09,00,AAXX 20094 41950 01350 80000 10256 20256 30065 40067 71796 8692/ 333 58045 70224 82708 84617 88458 81928==
41950,2024,05,20,12,00,AAXX 20124 41950 01450 60000 10246 20240 30018 40020 72996 84310 333 10351 59011 70294 83617 86459 81928==
41950,2024,05,20,15,00,AAXX 20154 41950 02450 50000 10245 20240 30046 40048 82530 333 58010 70294 82617 84362==
41950,2024,05,20,18,00,AAXX 20184 41950 02350 70000 10240 20240 30053 40056 85670 333 58007 70294 82708 84616 86459==
41950,2024,05,20,21,00,AAXX 20214 41950 02350 60000 10243 20240 30047 40050 84610 333 58001 70294 81708 84616 86459==
41950,2024,05,21,00,00,AAXX 21004 41950 02450 50000 10250 20250 30050 40053 82530 333 58004 70294 82617 84362==
41950,2024,05,21,03,00,AAXX 21034 41950 02950 00000 10316 20260 30064 40066 333 20240 58000 70294==
41950,2024,05,21,06,00,AAXX 21064 41950 02450 50000 10333 20260 30054 40056 85400 333 58005 70294 84617==
41950,2024,05,21,09,00,AAXX 21094 41950 02450 40000 10340 20250 30025 40027 84400 333 59040 70086 83617==
41950,2024,05,21,12,00,AAXX 21124 41950 02/50 20000 10320 20230 30022 40025 82030 333 10349 58004 70000 82362==
41950,2024,05,21,15,00,AAXX 21154 41950 02/50 10000 10296 20270 30046 40048 81030 333 58000 70000 81362==
41950,2024,05,21,18,00,AAXX 21184 41950 02950 00000 10289 20270 30058 40060 333 58005 70000==
41950,2024,05,21,21,00,AAXX 21214 41950 02950 00000 10280 20270 30055 40057 333 58008 70000==
41950,2024,05,22,00,00,AAXX 22004 41950 01950 00000 10271 20270 30054 40056 70500 333 58004 70000==
41950,2024,05,22,03,00,AAXX 22034 41950 02450 50000 10333 20260 30066 40068 84430 333 20266 58002 70000 83617==
41950,2024,05,22,06,00,AAXX 22064 41950 02350 61802 10343 20240 30052 40055 84610 333 59002 70000 81708 83617 84459==
41950,2024,05,22,09,00,AAXX 22094 41950 01450 40000 10342 20260 30029 40032 71796 84900 333 58004 70006 83617 81928==
41950,2024,05,22,12,00,AAXX 22124 41950 11/50 40000 10318 20250 30022 40025 69966 70296 84030 333 10350 58000 70006 84362==
41950,2024,05,22,15,00,AAXX 22154 41950 02/50 20000 10288 20270 30044 40047 82030 333 59002 70006 82362==
41950,2024,05,22,18,00,AAXX 22184 41950 02/50 30000 10277 20270 30054 40056 83030 333 59004 70006 83362==
41950,2024,05,22,21,00,AAXX 22214 41950 02/50 30000 10270 20260 30038 40040 83030 333 59017 70006 83362==
41950,2024,05,23,00,00,AAXX 23004 41950 02/50 40000 10268 20268 30034 40036 83031 333 59020 70006 83362==
41950,2024,05,23,03,00,AAXX 23034 41950 02450 30000 10332 20260 30048 40050 83400 333 20265 59018 70006 83617==
41950,2024,05,23,06,00,AAXX 23064 41950 02450 30000 10353 20240 30032 40035 83400 333 59020 70006 83617==
41950,2024,05,23,09,00,AAXX 23094 41950 02456 20000 10366 20230 30005 40007 82400 333 59024 70000 81617==
41950,2024,05,23,12,00,AAXX 23124 41950 02/50 60000 10346 20250 39999 40001 86030 333 10375 59023 70000 86362==
41950,2024,05,23,15,00,AAXX 23154 41950 02/50 30000 10300 20250 30027 40030 83030 333 59017 70000 83362==
41950,2024,05,23,18,00,AAXX 23184 41950 02/50 30000 10292 20250 30037 40040 83030 333 59017 70000 83362==
41950,2024,05,23,21,00,AAXX 23214 41950 02950 00000 10275 20260 30019 40021 333 59019 70000==
41951,2024,05,17,00,00,AAXX 17004 41951 02450 30000 10283 20270 30065 40070 83500 333 59023 70000 83618==
41951,2024,05,17,03,00,AAXX 17034 41951 02456 52204 10330 20270 30079 40084 82510 333 20275 59020 70000 82616 84459==
41951,2024,05,17,06,00,AAXX 17064 41951 02456 62203 10363 20270 30070 40074 83510 333 59017 70000 83618 85459==
41951,2024,05,17,09,00,AAXX 17094 41951 02456 30904 10349 20270 30046 40050 83500 333 59020 70000 83618==
41951,2024,05,17,12,00,AAXX 17124 41951 02956 01304 10332 20270 30033 40037 333 10365 59010 70000==
41951,2024,05,17,15,00,AAXX 17154 41951 02450 21502 10303 20270 30060 40065 82500 333 59017 70000 82618==
41951,2024,05,17,18,00,AAXX 17184 41951 02450 32102 10292 20280 30057 40062 83500 333 59014 70000 83618==
41951,2024,05,17,21,00,AAXX 17214 41951 02450 51802 10286 20280 30054 40059 82510 333 59014 70000 82618 84459==
41951,2024,05,18,00,00,AAXX 18004 41951 02440 81802 10288 20280 30051 40056 83510 333 59014 70000 83618 86459==
41951,2024,05,18,03,00,AAXX 18034 41951 02456 61803 10333 20270 30067 40072 83510 333 20280 59012 70000 83616 85459==
41951,2024,05,18,06,00,AAXX 18064 41951 02456 70502 10347 20280 30057 40061 83510 333 59013 70000 83618 86459==
41951,2024,05,18,09,00,AAXX 18094 41951 02350 71302 10292 20260 30031 40036 85910 333 59015 70017 81709 83618 86459 81925==
41951,2024,05,18,12,00,AAXX 18124 41951 01340 80000 10263 20240 30033 40037 72196 8562/ 333 10362 58000 70023 81709 84618 88458==
41951,2024,05,18,18,00,AAXX 18184 41951 02340 80000 10265 20260 30046 40050 8562/ 333 59011 70023 81709 84618 88458==
41951,2024,05,18,21,00,AAXX 18214 41951 02340 80000 10263 20250 30042 40046 8562/ 333 59012 70023 81709 84618 88458==
41951,2024,05,19,00,00,AAXX 19004 41951 02340 80000 10280 20270 30038 40042 8562/ 333 59013 70023 81708 84618 88458==
41951,2024,05,19,03,00,AAXX 19034 41951 02340 81302 10314 20280 30052 40057 8562/ 333 20266 59015 70023 81708 84618 88458==
41951,2024,05,19,06,00,AAXX 19064 41951 02456 62102 10356 20280 30037 40042 83510 333 59020 70023 83618 85459==
41951,2024,05,19,09,00,AAXX 19094 41951 01330 81502 10266 20260 30029 40033 79596 8692/ 333 59002 70053 82706 84618 88458 82925==
41951,2024,05,19,12,00,AAXX 19124 41951 21330 83102 10248 20240 30015 40020 71796 8692/ 333 10358 59018 60109 70097 82706 84618 88458 82925==
41951,2024,05,19,15,00,AAXX 19154 41951 01450 20000 10257 20260 30035 40040 70192 82500 333 59008 70097 82618==
41951,2024,05,19,18,00,AAXX 19184 41951 NIL=
41951,2024,05,19,21,00,AAXX 19214 41951 02340 80000 10265 20260 30035 40040 8562/ 333 59007 70097 81709 84618 88458==
41951,2024,05,20,00,00,AAXX 20004 41951 02450 60000 10268 20260 30034 40039 83510 333 59004 70097 83618 84459==
41951,2024,05,20,03,00,AAXX 20034 41951 02456 60502 10316 20290 30057 40062 83510 333 20245 58005 70097 83618 85459==
41951,2024,05,20,06,00,AAXX 20064 41951 02350 71302 10336 20270 30045 40050 84610 333 58008 70097 81709 83618 86459==
41951,2024,05,20,09,00,AAXX 20094 41951 01340 83102 10262 20250 30054 40059 70396 8562/ 333 58025 70226 81708 84618 88458==
41951,2024,05,20,12,00,AAXX 20124 41951 01340 83103 10258 20250 30006 40011 70396 8562/ 333 10342 59009 70232 81708 84618 88458==
41951,2024,05,20,15,00,AAXX 20154 41951 02340 80000 10248 20240 30044 40049 8562/ 333 58009 70232 81708 84618 88458==
41951,2024,05,20,18,00,AAXX 20184 41951 02340 80000 10252 20250 30050 40055 8562/ 333 58014 70232 81708 84618 88458==
41951,2024,05,20,21,00,AAXX 20214 41951 02340 80000 10254 20250 30048 40053 8562/ 333 58013 70232 81708 84618 88458==
41951,2024,05,21,00,00,AAXX 21004 41951 02450 60000 10256 20256 30047 40052 83510 333 58013 70232 83618 84459==
41951,2024,05,21,03,00,AAXX 21034 41951 02956 01302 10322 20250 30064 40069 333 20240 58007 70232==
41951,2024,05,21,06,00,AAXX 21064 41951 02456 40502 10340 20260 30054 40059 84400 333 58009 70232 82618 83825==
41951,2024,05,21,09,00,AAXX 21094 41951 02456 42202 10353 20260 30027 40032 84400 333 59027 70056 82618 83825==
41951,2024,05,21,12,00,AAXX 21124 41951 02456 52202 10324 20270 30016 40021 82510 333 10355 58010 70000 82618 84459==
41951,2024,05,21,15,00,AAXX 21154 41951 02450 30000 10298 20280 30049 40054 83500 333 58005 70000 83618==
41951,2024,05,21,18,00,AAXX 21184 41951 02450 30000 10288 20280 30054 40059 83500 333 58004 70000 83618==
41951,2024,05,21,21,00,AAXX 21214 41951 02950 00000 10278 20270 30047 40052 333 59001 70000==
41951,2024,05,22,00,00,AAXX 22004 41951 02950 00000 10275 20270 30041 40046 333 59006 70000==
41951,2024,05,22,03,00,AAXX 22034 41951 02456 52202 10326 20260 30061 40066 82510 333 20267 59003 70000 82618 84459==
41951,2024,05,22,06,00,AAXX 22064 41951 02456 51503 10348 20270 30048 40053 82510 333 59006 70000 82618 84459==
41951,2024,05,22,09,00,AAXX 22094 41951 02456 42702 10358 20290 30028 40032 84400 333 58001 70000 82618 83825==
41951,2024,05,22,12,00,AAXX 22124 41951 02456 52702 10325 20280 30015 40020 82510 333 10362 59001 70000 82618 84459==
41951,2024,05,22,15,00,AAXX 22154 41951 02450 60000 10298 20280 30050 40055 83510 333 58001 70000 83618 85459==
41951,2024,05,22,18,00,AAXX 22184 41951 02450 50000 10287 20280 30047 40052 82510 333 59007 70000 82618 84459==
41951,2024,05,22,21,00,AAXX 22214 41951 02450 30000 10282 20280 30042 40047 83500 333 59005 70000 83618==
41951,2024,05,23,00,00,AAXX 23004 41951 02450 30000 10278 20278 30039 40044 83500 333 59002 70000 83618==
41951,2024,05,23,03,00,AAXX 23034 41951 02956 00502 10342 20270 30039 40044 333 20267 59022 70000==
41951,2024,05,23,06,00,AAXX 23064 41951 02456 40302 10356 20260 30030 40034 84400 333 59018 70000 82618 83825==
41951,2024,05,23,09,00,AAXX 23094 41951 02456 31302 10368 20270 30003 40008 83500 333 59025 70000 83618==
41951,2024,05,23,12,00,AAXX 23124 41951 02456 50000 10333 20270 39995 49999 82510 333 10370 59020 70000 82618 84459==
41951,2024,05,23,15,00,AAXX 23154 41951 02450 30000 10293 20260 30027 40032 83500 333 59023 70000 83618==
41951,2024,05,23,21,00,AAXX 23214 41951 02450 20000 10284 20260 30024 40029 82500 333 59018 70000 82618==
41953,2024,05,17,00,00,AAXX 17004 41953 02/40 10000 10280 20270 30076 40081 81030 333 59018 70000 81362==
41953,2024,05,17,03,00,AAXX 17034 41953 02950 00000 10330 20260 30089 40094 333 20278 59019 70000==
41953,2024,05,17,06,00,AAXX 17064 41953 02450 40000 10352 20260 30075 40080 84400 333 59015 70000 82618 83825==
41953,2024,05,17,09,00,AAXX 17094 41953 02450 41304 10353 20240 30045 40050 84400 333 59019 70000 82618 83825==
41953,2024,05,17,12,00,AAXX 17124 41953 02450 30000 10325 20270 30040 40045 81530 333 10358 59010 70000 81618 82365==
41953,2024,05,17,15,00,AAXX 17154 41953 02935 00000 10300 20260 30060 40065 333 59017 70000==
41953,2024,05,17,18,00,AAXX 17184 41953 02935 00000 10296 20270 30068 40073 333 59014 70000==
41953,2024,05,17,21,00,AAXX 17214 41953 02435 31302 10290 20270 30062 40067 83500 333 59017 70000 83618==
41953,2024,05,18,00,00,AAXX 18004 41953 02440 61303 10286 20280 30065 40070 83510 333 59011 70000 83616 85458==
41953,2024,05,18,03,00,AAXX 18034 41953 02450 71302 10320 20270 30085 40090 83510 333 20285 59004 70000 83616 86458==
41953,2024,05,18,06,00,AAXX 18064 41953 02450 70000 10354 20230 30063 40068 84410 333 59012 70000 83616 86458==
41953,2024,05,18,09,00,AAXX 18094 41953 02450 71304 10300 20240 30031 40036 83510 333 59014 70000 83616 86458==
41953,2024,05,18,12,00,AAXX 18124 41953 01440 81302 10286 20260 30032 40037 70392 8352/ 333 10355 59008 70000 83616 88458==
41953,2024,05,18,15,00,AAXX 18154 41953 02430 80000 10278 20260 30043 40048 8352/ 333 59017 70000 83616 88458==
41953,2024,05,18,18,00,AAXX 18184 41953 02430 80000 10274 20260 30045 40050 8352/ 333 59023 70000 83616 88458==
41953,2024,05,18,21,00,AAXX 18214 41953 02430 80000 10272 20260 30043 40048 8352/ 333 59019 70000 83616 88458==
41953,2024,05,19,00,00,AAXX 19004 41953 02440 80000 10272 20260 30049 40054 8352/ 333 59016 70000 83616 88458==
41953,2024,05,19,03,00,AAXX 19034 41953 02450 41302 10336 20280 30062 40067 84400 333 20270 59023 70000 82618 83825==
41953,2024,05,19,06,00,AAXX 19064 41953 02450 61303 10355 20270 30044 40049 83510 333 59019 70000 83616 85458==
41953,2024,05,19,09,00,AAXX 19094 41953 01440 81305 10280 20260 30037 40042 79522 8692/ 333 58006 70020 84614 88458 82925==
41953,2024,05,19,12,00,AAXX 19124 41953 21440 80000 10276 20260 30031 40036 70296 8532/ 333 10357 59001 60047 70040 84616 88458 81930==
41953,2024,05,19,15,00,AAXX 19154 41953 02440 30000 10268 20260 30034 40039 83500 333 59009 70040 83618==
41953,2024,05,19,18,00,AAXX 19184 41953 02435 60504 10265 20260 30043 40048 83510 333 59002 70040 83616 85458==
41953,2024,05,19,21,00,AAXX 19214 41953 02435 30000 10260 20250 30045 40050 83500 333 58002 70040 83618==
41953,2024,05,20,00,00,AAXX 20004 41953 02440 20000 10256 20250 30049 40054 82500 333 58000 70040 83618==
41953,2024,05,20,03,00,AAXX 20034 41953 02950 00504 10330 20280 30069 40074 333 20255 58007 70040==
41953,2024,05,20,06,00,AAXX 20064 41953 01450 50903 10338 20260 30054 40059 70362 85400 333 58010 70030 83618 83825==
41953,2024,05,20,09,00,AAXX 20094 41953 01435 83102 10245 20240 30051 40056 79596 8632/ 333 58014 70480 84615 88458 81930==
41953,2024,05,20,12,00,AAXX 20124 41953 21435 82202 10246 20240 30015 40020 72996 8352/ 333 10340 59016 60479 70500 83616 88458==
41953,2024,05,20,15,00,AAXX 20154 41953 02430 60000 10248 20248 30051 40056 83510 333 58017 70500 83616 84458==
41953,2024,05,20,18,00,AAXX 20184 41953 02430 60000 10246 20240 30053 40058 83510 333 58010 70500 83618 84458==
41953,2024,05,20,21,00,AAXX 20214 41953 02430 60000 10248 20240 30055 40060 83510 333 58010 70500 83616 84458==
41953,2024,05,21,00,00,AAXX 21004 41953 02440 60000 10254 20240 30058 40063 83510 333 58009 70500 83616 85458==
41953,2024,05,21,03,00,AAXX 21034 41953 02450 40902 10310 20240 30066 40071 84400 333 20240 59003 70500 82618 83825==
41953,2024,05,21,06,00,AAXX 21064 41953 02450 41304 10343 20240 30054 40059 84400 333 58000 70470 83618==
41953,2024,05,21,09,00,AAXX 21094 41953 02450 41802 10356 20240 30028 40033 84400 333 59023 70040 82618 83825==
41953,2024,05,21,12,00,AAXX 21124 41953 02450 40000 10330 20270 30023 40028 82530 333 10358 58008 70000 82618 83361==
41953,2024,05,21,15,00,AAXX 21154 41953 02440 60000 10295 20280 30055 40060 83530 333 58004 70000 83616 84361==
41953,2024,05,21,18,00,AAXX 21184 41953 02435 40000 10290 20280 30061 40066 82530 333 58008 70000 82616 83361==
41953,2024,05,21,21,00,AAXX 21214 41953 02435 30000 10286 20280 30049 40054 83500 333 59006 70000 83618==
41953,2024,05,22,00,00,AAXX 22004 41953 NIL=
41953,2024,05,22,03,00,AAXX 22034 41953 02450 40504 10330 20280 30065 40070 84400 333 20276 59001 70000 83618==
41953,2024,05,22,06,00,AAXX 22064 41953 02456 50000 10350 20240 30053 40058 85400 333 59001 70000 83618 83825==
41953,2024,05,22,09,00,AAXX 22094 41953 02456 30000 10363 20240 30027 40032 83400 333 59001 70000 82616==
41953,2024,05,22,12,00,AAXX 22124 41953 02450 40000 10325 20250 30020 40025 83430 333 10365 59003 70000 82616 84362==
41953,2024,05,22,15,00,AAXX 22154 41953 02440 20000 10295 20270 30050 40055 82500 333 59005 70000 82618==
41953,2024,05,22,18,00,AAXX 22184 41953 02440 60000 10290 20270 30052 40057 82510 333 59009 70000 82618 86458==
41953,2024,05,22,21,00,AAXX 22214 41953 02440 60000 10285 20280 30045 40050 82510 333 59004 70000 82618 86458==
41953,2024,05,23,00,00,AAXX 23004 41953 02940 00000 10280 20270 30040 40045 333 59016 70000==
41953,2024,05,23,03,00,AAXX 23034 41953 02450 30000 10340 20260 30045 40050 83400 333 20280 59020 70000 82618==
41953,2024,05,23,06,00,AAXX 23064 41953 02456 31303 10360 20250 30030 40035 83400 333 59023 70000 82618==
41953,2024,05,23,09,00,AAXX 23094 41953 02456 30000 10370 20250 30003 40008 83400 333 59024 70000 82618==
41953,2024,05,23,12,00,AAXX 23124 41953 02950 00000 10345 20270 39998 40003 333 10375 59022 70000==
41953,2024,05,23,15,00,AAXX 23154 41953 02440 50000 10315 20270 30023 40028 82510 333 59027 70000 82618 85458==
41953,2024,05,23,18,00,AAXX 23184 41953 02440 81205 10290 20240 30047 40052 8352/ 333 59005 70000 83616 88458==
41953,2024,05,23,21,00,AAXX 23214 41953 01430 81203 10280 20260 30040 40045 70266 8352/ 333 59005 70400 83616 88458==
41955,2024,05,17,06,00,AAXX 17064 41955 NIL=
41955,2024,05,18,06,00,AAXX 18064 41955 NIL=
41955,2024,05,18,12,00,AAXX 18124 41955 NIL=
41955,2024,05,19,00,00,AAXX 19004 41955 NIL=
41955,2024,05,19,06,00,AAXX 19064 41955 NIL=
41955,2024,05,19,12,00,AAXX 19124 41955 NIL=
41955,2024,05,19,18,00,AAXX 19184 41955 NIL=
41955,2024,05,20,00,00,AAXX 20004 41955 NIL=
41955,2024,05,20,06,00,AAXX 20064 41955 NIL=
41955,2024,05,20,12,00,AAXX 20124 41955 NIL=
41955,2024,05,20,18,00,AAXX 20184 41955 NIL=
41955,2024,05,21,12,00,AAXX 21124 41955 NIL=
41955,2024,05,21,18,00,AAXX 21184 41955 NIL=
41955,2024,05,22,00,00,AAXX 22004 41955 NIL=
41955,2024,05,22,06,00,AAXX 22064 41955 NIL=
41955,2024,05,23,00,00,AAXX 23004 41955 NIL=
41955,2024,05,23,06,00,AAXX 23064 41955 NIL=
41955,2024,05,23,12,00,AAXX 23124 41955 NIL=
41958,2024,05,17,00,00,AAXX 17004 41958 32950 32701 10284 20270 30072 40074 83030 333 56090 59025 70000 83362=
41958,2024,05,17,03,00,AAXX 17034 41958 32457 32701 10324 20270 30086 40088 83400 333 20280 56500 59021 70000 82617=
41958,2024,05,17,06,00,AAXX 17064 41958 32457 33201 10370 20270 30068 40070 83400 333 56700 59025 70000 83617=
41958,2024,05,17,09,00,AAXX 17094 41958 32957 00000 10385 20280 30041 40043 333 59024 70000=
41958,2024,05,17,12,00,AAXX 17124 41958 32956 01702 10334 20260 30035 40037 333 10385 59011 70000=
41958,2024,05,17,15,00,AAXX 17154 41958 32950 01701 10302 20270 30061 40063 333 59015 70000=
41958,2024,05,17,18,00,AAXX 17184 41958 32940 00000 10290 20280 30063 40065 333 59012 70000=
41958,2024,05,17,21,00,AAXX 17214 41958 32940 00000 10288 20280 30051 40053 333 59018 70000=
41958,2024,05,18,00,00,AAXX 18004 41958 32450 61701 10290 20280 30051 40053 83410 333 56490 59021 70000 83616 85459=
41958,2024,05,18,03,00,AAXX 18034 41958 32456 83101 10335 20290 30067 40069 8542/ 333 20284 56799 59019 70000 84616 88458=
41958,2024,05,18,06,00,AAXX 18064 41958 32456 80000 10374 20270 30053 40055 8542/ 333 56999 59015 70000 84616 88458=
41958,2024,05,18,09,00,AAXX 18094 41958 31450 83101 10347 20290 30020 40022 71722 8592/ 333 56799 59021 70000 84616 82930=
41958,2024,05,18,12,00,AAXX 18124 41958 31450 81703 10297 20250 30031 40033 70292 8592/ 333 10382 56499 59004 70000 84616 82930 88458=
41958,2024,05,18,15,00,AAXX 18154 41958 31440 80000 10285 20270 30043 40045 71792 8592/ 333 56999 59018 70000 84616 82930 88458=
41958,2024,05,18,18,00,AAXX 18184 41958 11440 83101 10293 20280 30030 40032 69965 70296 8542/ 333 56799 59032 70006 84616 88458=
41958,2024,05,18,21,00,AAXX 18214 41958 32440 83102 10291 20290 30038 40040 8542/ 333 56799 59013 70006 84616 88458=
41958,2024,05,19,00,00,AAXX 19004 41958 32450 80000 10290 20290 30039 40041 8542/ 333 56999 59012 70006 84616 88458=
41958,2024,05,19,03,00,AAXX 19034 41958 32450 80000 10320 20290 30054 40056 8542/ 333 20280 56999 59013 70006 84616 88458=
41958,2024,05,19,06,00,AAXX 19064 41958 32457 60000 10352 20270 30042 40044 85410 333 56490 59011 70006 84616 86459=
41958,2024,05,19,09,00,AAXX 19094 41958 31458 50000 10381 20270 30004 40006 85910 333 56990 59016 70006 84616 82928 85459=
41958,2024,05,19,12,00,AAXX 19124 41958 11456 51802 10280 20250 30022 40024 69946 70296 85310 333 10383 56990 59009 70010 84616 81930 85459=
41958,2024,05,19,15,00,AAXX 19154 41958 32450 41601 10275 20260 30036 40038 84300 333 56900 59007 70010 83616 81930=
41958,2024,05,19,18,00,AAXX 19184 41958 32450 62201 10285 20280 30033 40035 85310 333 56990 58002 70004 84616 81930 86459=
41958,2024,05,19,21,00,AAXX 19214 41958 32450 60000 10283 20270 30037 40039 85410 333 56990 59001 70004 84616 86459=
41958,2024,05,20,00,00,AAXX 20004 41958 32450 60000 10280 20280 30039 40041 85410 333 56990 58000 70000 84616 86459=
41958,2024,05,20,03,00,AAXX 20034 41958 32457 61801 10334 20280 30055 40057 85310 333 20265 56490 58001 70004 84616 81930 86459=
41958,2024,05,20,06,00,AAXX 20064 41958 11457 81603 10320 20290 30044 40046 60014 76122 8532/ 333 56499 58002 70016 84616 81930 88459=
41958,2024,05,20,09,00,AAXX 20094 41958 21456 80000 10253 20250 30047 40049 79596 8592/ 333 56990 58043 60329 70336 84616 82928 88459=
41958,2024,05,20,12,00,AAXX 20124 41958 11450 60000 10262 20240 30031 40033 60358 70196 85310 333 10360 56990 58009 70364 84616 81930 86459=
41958,2024,05,20,15,00,AAXX 20154 41958 32450 60000 10258 20250 30043 40045 85410 333 56990 58007 70364 84616 86459=
41958,2024,05,20,18,00,AAXX 20184 41958 32450 81801 10274 20250 30041 40043 8542/ 333 56999 58008 70364 84616 88459=
41958,2024,05,20,21,00,AAXX 20214 41958 32450 40000 10264 20250 30044 40046 84400 333 56900 58007 70364 83617=
41958,2024,05,21,00,00,AAXX 21004 41958 32450 40000 10260 20260 30047 40049 84400 333 56900 58008 70364 83617=
41958,2024,05,21,03,00,AAXX 21034 41958 32457 20000 10322 20270 30060 40062 82500 333 20247 56900 58005 70364 82617=
41958,2024,05,21,06,00,AAXX 21064 41958 32458 20000 10345 20270 30053 40055 82500 333 56900 58009 70352 82617=
41958,2024,05,21,09,00,AAXX 21094 41958 32458 20000 10356 20280 30025 40027 82500 333 56900 59022 70032 82617=
41958,2024,05,21,12,00,AAXX 21124 41958 32956 00000 10300 20260 30022 40024 333 10360 59009 70000=
41958,2024,05,21,15,00,AAXX 21154 41958 32450 20000 10290 20260 30044 40046 82500 333 56900 58001 70000 82617=
41958,2024,05,21,18,00,AAXX 21184 41958 32450 21801 10290 20280 30057 40059 82500 333 56900 58016 70000 82617=
41958,2024,05,21,21,00,AAXX 21214 41958 32950 00000 10284 20280 30043 40045 333 59001 70000=
41958,2024,05,22,00,00,AAXX 22004 41958 32950 00000 10279 20279 30044 40047 333 59003 70000=
41958,2024,05,22,03,00,AAXX 22034 41958 32457 20000 10340 20260 30060 40063 82500 333 20274 56900 58000 70000 82617=
41958,2024,05,22,06,00,AAXX 22064 41958 32458 60000 10354 20250 30049 40051 85310 333 56490 59004 70000 84616 81930 86459=
41958,2024,05,22,09,00,AAXX 22094 41958 21458 60000 10334 20260 30026 40028 70296 85310 333 56490 58001 6994/ 70004 84616 81930 86459=
41958,2024,05,22,12,00,AAXX 22124 41958 11456 50000 10318 20280 30019 40021 69946 70196 85400 333 10360 56900 59003 70004 84617=
41958,2024,05,22,15,00,AAXX 22154 41958 32450 70000 10300 20280 30043 40045 85310 333 56990 59001 70004 84616 81930 87459=
41958,2024,05,22,18,00,AAXX 22184 41958 32450 20000 10280 20270 30048 40050 82500 333 56900 59009 70004 82617=
41958,2024,05,22,21,00,AAXX 22214 41958 32450 50000 10278 20270 30032 40034 85400 333 56900 59011 70004 84616=
41958,2024,05,23,00,00,AAXX 23004 41958 32450 60000 10277 20270 30033 40035 85410 333 56990 59011 70004 84616 86459=
41958,2024,05,23,03,00,AAXX 23034 41958 32458 30000 10337 20270 30045 40047 83500 333 20270 56400 59015 70004 83617=
41958,2024,05,23,06,00,AAXX 23064 41958 32458 20000 10354 20260 30034 40036 82500 333 56900 59015 70004 82617=
41958,2024,05,23,09,00,AAXX 23094 41958 32458 20000 10370 20280 30007 40009 82500 333 56900 59019 70004 82617=
41958,2024,05,23,12,00,AAXX 23124 41958 32456 60000 10310 20260 30002 40004 83410 333 10370 56990 59017 70004 83616 85459=
41958,2024,05,23,15,00,AAXX 23154 41958 32450 60000 10290 20260 30021 40023 83410 333 56990 59022 70004 83616 85459=
41958,2024,05,23,18,00,AAXX 23184 41958 32440 50000 10278 20270 30026 40028 83410 333 56990 59022 70000 83626 84459=
41958,2024,05,23,21,00,AAXX 23214 41958 32440 20000 10278 20278 30016 40018 82400 333 56900 59016 70000 82616=
41960,2024,05,17,00,00,AAXX 17004 41960 02450 30000 10279 20270 30076 40078 82401 333 59025 70000 81618 83080==
41960,2024,05,17,03,00,AAXX 17034 41960 02457 31802 10319 20270 30090 40091 83400 333 20275 59027 70000 82618==
41960,2024,05,17,06,00,AAXX 17064 41960 02457 31802 10356 20270 30074 40075 83400 333 59021 70000 82618==
41960,2024,05,17,09,00,AAXX 17094 41960 02457 60000 10360 20260 30048 40050 85410 333 59021 70000 83618 85459==
41960,2024,05,17,12,00,AAXX 17124 41960 02956 01501 10333 20260 30043 40044 333 10375 59012 70000==
41960,2024,05,17,15,00,AAXX 17154 41960 02950 01801 10299 20280 30068 40069 333 58000 70000==
41960,2024,05,17,18,00,AAXX 17184 41960 02950 00000 10290 20280 30068 40070 333 59009 70000==
41960,2024,05,17,21,00,AAXX 17214 41960 02450 50000 10287 20280 30064 40066 84410 333 59013 70000 83618 85459==
41960,2024,05,18,00,00,AAXX 18004 41960 02450 60000 10284 20270 30060 40062 84430 333 59016 70000 83618 86363==
41960,2024,05,18,06,00,AAXX 18064 41960 02457 51802 10360 20270 30060 40062 85400 333 59014 70000 83618==
41960,2024,05,18,09,00,AAXX 18094 41960 01440 81802 10322 20260 30038 40039 79522 8592/ 333 59010 70002 83617 88459 82929==
41960,2024,05,18,12,00,AAXX 18124 41960 21450 81801 10270 20240 30032 40034 70296 8542/ 333 10365 59011 60027 70018 83617 83822 88459==
41960,2024,05,18,15,00,AAXX 18154 41960 02450 80000 10263 20250 30045 40047 8542/ 333 59023 70018 84617 88459==
41960,2024,05,18,18,00,AAXX 18184 41960 01440 80000 10267 20267 30043 40045 76162 8542/ 333 59025 70010 84617 88458==
41960,2024,05,18,21,00,AAXX 18214 41960 02450 80000 10275 20275 30046 40048 8642/ 333 59018 70032 84618 83822 88459==
41960,2024,05,19,00,00,AAXX 19004 41960 02450 70000 10280 20280 30048 40050 86410 333 59012 70031 84618 83822 87459==
41960,2024,05,19,03,00,AAXX 19034 41960 02456 60000 10324 20280 30056 40058 85410 333 20259 59018 70032 83618 85459==
41960,2024,05,19,06,00,AAXX 19064 41960 02457 51804 10352 20270 30042 40043 85410 333 59018 70032 83618 84459==
41960,2024,05,19,09,00,AAXX 19094 41960 01456 61606 10327 20250 30019 40020 71722 86910 333 59019 70030 84617 83822 86459 81929==
41960,2024,05,19,12,00,AAXX 19124 41960 22450 81801 10250 20250 30024 40026 8542/ 333 10370 59008 60247 70250 84617 88459==
41960,2024,05,19,15,00,AAXX 19154 41960 02450 70000 10256 20256 30043 40045 85430 333 59002 70236 83618 87362==
41960,2024,05,19,18,00,AAXX 19184 41960 02450 60000 10260 20260 30042 40044 84411 333 59001 70236 83618 86459==
41960,2024,05,19,21,00,AAXX 19214 41960 01440 50000 10266 20266 30044 40046 70522 84410 333 59002 70236 82618 85459==
41960,2024,05,20,00,00,AAXX 20004 41960 01440 20000 10272 20270 30045 40047 70521 82409 333 59003 70236 81618==
41960,2024,05,20,03,00,AAXX 20034 41960 02456 60000 10326 20290 30065 40068 85410 333 20240 58009 70236 83618 85459==
41960,2024,05,20,06,00,AAXX 20064 41960 02457 51802 10344 20270 30050 40051 85410 333 58008 70236 83618==
41960,2024,05,20,09,00,AAXX 20094 41960 01320 81802 10238 20238 30061 40062 79596 8692/ 333 58042 71362 82708 84614 88458 82928==
41960,2024,05,20,12,00,AAXX 20124 41960 21330 81801 10245 20245 30023 40025 76196 8672/ 333 10350 59001 61219 71214 82708 84614 88458==
41960,2024,05,20,15,00,AAXX 20154 41960 02450 51804 10244 20240 30044 40046 84410 333 58001 71214 83618 85459==
41960,2024,05,20,18,00,AAXX 20184 41960 02450 51802 10258 20258 30048 40050 84401 333 58001 71214 83618 85080==
41960,2024,05,20,21,00,AAXX 20214 41960 01440 50000 10257 20257 30049 40051 70522 83410 333 58005 71214 82618 85459==
41960,2024,05,21,00,00,AAXX 21004 41960 01440 40000 10256 20256 30050 40052 70522 82470 333 58005 71214 81618 83362==
41960,2024,05,21,03,00,AAXX 21034 41960 02456 20000 10326 20280 30059 40061 82400 333 20232 59006 71214 81618==
41960,2024,05,21,06,00,AAXX 21064 41960 02457 50000 10344 20260 30051 40053 85400 333 58001 71214 83618==
41960,2024,05,21,09,00,AAXX 21094 41960 01450 51801 10290 20240 30033 40034 72996 84410 333 59028 70732 83618 85459==
41960,2024,05,21,12,00,AAXX 21124 41960 21450 50000 10322 20280 30024 40026 70296 84401 333 10354 58001 60648 70644 83618 85080==
41960,2024,05,21,15,00,AAXX 21154 41960 02450 50000 10293 20280 30052 40054 84410 333 58008 70644 83618 85459==
41960,2024,05,21,18,00,AAXX 21184 41960 02450 50000 10283 20280 30060 40062 82410 333 58012 70644 81618 85459==
41960,2024,05,21,21,00,AAXX 21214 41960 02950 00000 10277 20277 30056 40057 333 58007 70644==
41960,2024,05,22,00,00,AAXX 22004 41960 01940 00000 10272 20272 30052 40054 70500 333 58002 70644==
41960,2024,05,22,03,00,AAXX 22034 41960 02456 50000 10330 20270 30065 40067 85410 333 20245 58006 70644 83618 85459==
41960,2024,05,22,06,00,AAXX 22064 41960 02457 50000 10346 20280 30053 40055 84410 333 58002 70644 83618 84459==
41960,2024,05,22,09,00,AAXX 22094 41960 41450 62702 10340 20260 30035 40037 79592 85911 333 58002 83618 86459 81930==
41960,2024,05,22,12,00,AAXX 22124 41960 21450 50000 10315 20280 30024 40025 70196 84440 333 10355 58000 60005 83618 85463==
41960,2024,05,22,15,00,AAXX 22154 41960 42450 50000 10291 20280 30051 40053 84410 333 59001 83618 85459==
41960,2024,05,22,18,00,AAXX 22184 41960 42450 40000 10284 20270 30051 40053 83401 333 59009 82618 84080==
41960,2024,05,22,21,00,AAXX 22214 41960 42450 30000 10276 20276 30041 40043 83400 333 59015 82618==
41960,2024,05,23,00,00,AAXX 23004 41960 42450 20000 10270 20270 30035 40037 82500 333 59017 82618==
41960,2024,05,23,03,00,AAXX 23034 41960 42456 50000 10327 20270 30051 40053 83530 333 20268 59014 83618 83362==
41960,2024,05,23,06,00,AAXX 23064 41960 42457 50000 10356 20250 30036 40037 83530 333 59017 83618 83362==
41960,2024,05,23,09,00,AAXX 23094 41960 42457 41802 10361 20260 30008 40009 84400 333 59027 83618==
41960,2024,05,23,12,00,AAXX 23124 41960 02456 51802 10316 20270 30004 40006 84411 333 10367 59020 70000 83618 85459==
41960,2024,05,23,15,00,AAXX 23154 41960 02450 30000 10294 20260 30027 40029 82401 333 59024 70000 81618 83080==
41960,2024,05,23,18,00,AAXX 23184 41960 02950 20000 10286 20280 30031 40033 80009 333 59020 70000 81180==
41960,2024,05,23,21,00,AAXX 23214 41960 02950 20000 10280 20270 30025 40027 80009 333 59016 70000 81180==
41963,2024,05,17,00,00,AAXX 17004 41963 01930 00000 10280 20280 30074 40076 70500 333 59019 70000==
41963,2024,05,17,03,00,AAXX 17034 41963 02456 21801 10330 20230 30089 40092 82500 333 20275 59009 70000 82618==
41963,2024,05,17,06,00,AAXX 17064 41963 02456 41801 10330 20270 30072 40075 82510 333 59021 70000 82618 84458==
41963,2024,05,17,09,00,AAXX 17094 41963 02958 01802 10340 20250 30050 40053 333 59018 70000==
41963,2024,05,17,12,00,AAXX 17124 41963 02950 00000 10320 20260 30049 40052 333 10350 59004 70000==
41963,2024,05,17,15,00,AAXX 17154 41963 02940 00000 10290 20260 30066 40069 333 59008 70000==
41963,2024,05,18,00,00,AAXX 18004 41963 01440 20000 10280 20260 30077 40079 70510 82500 333 58003 70000 82618==
41963,2024,05,18,03,00,AAXX 18034 41963 02456 41801 10320 20260 30083 40086 82510 333 20274 59006 70000 82618 84458==
41963,2024,05,18,06,00,AAXX 18064 41963 02457 61801 10340 20260 30054 40057 82510 333 59018 70000 82618 86458==
41963,2024,05,18,09,00,AAXX 18094 41963 02456 72803 10310 20250 30044 40046 82510 333 59006 70000 82618 87458==
41963,2024,05,18,12,00,AAXX 18124 41963 02440 80000 10290 20260 30041 40044 83720 333 10360 59008 70000 82708 83616 88458==
41963,2024,05,19,00,00,AAXX 19004 41963 01430 50000 10270 20250 30054 40057 70522 82510 333 59023 70000 82618 85458==
41963,2024,05,19,03,00,AAXX 19034 41963 02456 52803 10330 20270 30062 40065 82510 333 20262 59021 70000 82618 85458==
41963,2024,05,19,06,00,AAXX 19064 41963 02457 71303 10335 20290 30050 40053 82510 333 59004 70000 82618 87458==
41963,2024,05,19,12,00,AAXX 19124 41963 11340 81801 10260 20250 30032 40035 60276 70596 8372/ 333 10350 59009 70270 82708 83618 88456==
41963,2024,05,19,15,00,AAXX 19154 41963 01930 00000 10260 20260 30042 40045 70522 333 59005 70270==
41963,2024,05,19,18,00,AAXX 19184 41963 NIL=
41963,2024,05,20,00,00,AAXX 20004 41963 01430 50000 10280 20260 30047 40050 70520 82510 333 59007 70270 82618 85458==
41963,2024,05,20,03,00,AAXX 20034 41963 02450 61802 10315 20280 30067 40069 82510 333 20238 58005 70270 83616 86458==
41963,2024,05,20,06,00,AAXX 20064 41963 02456 71802 10310 20280 30061 40063 82510 333 58011 70270 82618 87458==
41963,2024,05,20,09,00,AAXX 20094 41963 02430 81803 10300 20280 30050 40053 8272/ 333 58009 70020 82708 83616 88458==
41963,2024,05,20,12,00,AAXX 20124 41963 21330 81801 10262 20260 30037 40040 70562 8372/ 333 10320 58005 60025 70020 82708 83616 88458==
41963,2024,05,20,15,00,AAXX 20154 41963 01930 00000 10265 20260 30057 40060 70500 333 58015 70020==
41963,2024,05,20,18,00,AAXX 20184 41963 NIL=
41963,2024,05,21,00,00,AAXX 21004 41963 01440 30000 10262 20260 30060 40063 70521 82500 333 58013 70020 83618==
41963,2024,05,21,03,00,AAXX 21034 41963 02956 31801 10320 20260 30063 40065 53030 333 20255 58004 70020 83362==
41963,2024,05,21,06,00,AAXX 21064 41963 02958 01301 10340 20250 30053 40055 333 59008 70020==
41963,2024,05,21,09,00,AAXX 21094 41963 02457 21801 10330 20270 30031 40033 82500 333 59021 70020 82618==
41963,2024,05,21,12,00,AAXX 21124 41963 02950 00000 10310 20280 30031 40034 333 10355 59006 70000==
41963,2024,05,21,15,00,AAXX 21154 41963 02940 00000 10290 20280 30053 40055 333 59004 70000==
41963,2024,05,21,18,00,AAXX 21184 41963 NIL=
41963,2024,05,22,00,00,AAXX 22004 41963 01930 00000 10275 20275 30055 40058 70500 333 59005 70000==
41963,2024,05,22,03,00,AAXX 22034 41963 02457 21801 10330 20230 30066 40068 82500 333 20270 58003 70000 82618==
41963,2024,05,22,06,00,AAXX 22064 41963 02958 01801 10345 20250 30050 40053 333 59003 70000==
41963,2024,05,22,09,00,AAXX 22094 41963 02958 01801 10350 20260 30036 40039 333 59005 70000==
41963,2024,05,22,12,00,AAXX 22124 41963 02456 21801 10320 20270 30028 40031 82500 333 10356 59003 70000 82618==
41963,2024,05,22,15,00,AAXX 22154 41963 02940 00000 10290 20280 30049 40052 333 59004 70000==
41963,2024,05,23,00,00,AAXX 23004 41963 01940 00000 10276 20275 30039 40041 70500 333 59016 70000==
41963,2024,05,23,03,00,AAXX 23034 41963 02956 01801 10340 20250 30051 40054 333 20270 59029 70000==
41963,2024,05,23,06,00,AAXX 23064 41963 02958 01301 10350 20260 30039 40042 333 59011 70000==
41963,2024,05,23,09,00,AAXX 23094 41963 02958 02801 10360 20270 30010 40013 333 59026 70000==
41963,2024,05,23,12,00,AAXX 23124 41963 02956 00000 10320 20290 30015 40018 333 10370 59013 70000==
41963,2024,05,23,15,00,AAXX 23154 41963 02450 20000 10300 20290 30029 40032 82500 333 59020 70000 82618==
41964,2024,05,17,00,00,AAXX 17004 41964 02956 00000 10300 20280 30078 40080 333 59022 70000==
41964,2024,05,17,03,00,AAXX 17034 41964 02457 52202 10324 20260 30084 40087 85410 333 20270 59016 70000 84619==
41964,2024,05,17,06,00,AAXX 17064 41964 02458 42002 10358 20250 30069 40071 84500 333 59018 70000 84619==
41964,2024,05,17,09,00,AAXX 17094 41964 02458 22303 10345 20270 30042 40045 82500 333 59016 70000 82619==
41964,2024,05,17,12,00,AAXX 17124 41964 02957 02302 10315 20270 30042 40045 333 10358 59004 70000==
41964,2024,05,17,18,00,AAXX 17184 41964 02950 02001 10304 20270 30058 40061 333 59007 70000==
41964,2024,05,18,00,00,AAXX 18004 41964 02456 60000 10307 20290 30065 40068 83520 333 59013 70000 83618 85460==
41964,2024,05,18,03,00,AAXX 18034 41964 02457 60502 10330 20270 30075 40077 85510 333 20273 59009 70000 85617 83460==
41964,2024,05,18,06,00,AAXX 18064 41964 NIL=
41964,2024,05,18,09,00,AAXX 18094 41964 01457 61801 10298 20270 30040 40042 72996 84310 333 59002 70116 83618 84460 81930==
41964,2024,05,18,12,00,AAXX 18124 41964 01350 81401 10278 20270 30027 40029 79596 8632/ 333 10355 59015 70118 83709 84616 88458 81928==
41964,2024,05,18,18,00,AAXX 18184 41964 02450 60000 10280 20280 30050 40052 83520 333 59015 70118 83618 85460==
41964,2024,05,18,21,00,AAXX 18214 41964 02450 60000 10280 20280 30050 40052 83520 333 59014 70118 83618 85460==
41964,2024,05,19,00,00,AAXX 19004 41964 02456 70000 10294 20280 30052 40054 83520 333 59013 70118 83618 86460==
41964,2024,05,19,03,00,AAXX 19034 41964 02457 71402 10329 20290 30055 40057 83510 333 20264 59020 70118 83618 86460==
41964,2024,05,19,06,00,AAXX 19064 41964 01356 83603 10245 20240 30040 40042 79722 8592/ 333 59016 70700 83707 83614 88456 81927==
41964,2024,05,19,07,00,AAXX 19074 41964 01356 83603 10245 20240 30040 40042 79722 8592/ 333 59016 70700 83707 83614 88456 81927==
41964,2024,05,19,09,00,AAXX 19094 41964 01456 72402 10262 20250 30038 40041 71796 85310 333 59002 70706 85617 84460 81928==
41964,2024,05,19,12,00,AAXX 19124 41964 01350 83601 10258 20256 30023 40025 79596 8632/ 333 10334 59004 70712 84709 83617 88458 81928==
41964,2024,05,19,18,00,AAXX 19184 41964 11/50 40000 10250 20250 30037 40039 69926 70296 84010 333 59013 70714 84460==
41964,2024,05,20,00,00,AAXX 20004 41964 02/50 50000 10290 20280 30054 40056 85070 333 58002 70714 84365==
41964,2024,05,20,03,00,AAXX 20034 41964 02/57 41402 10325 20270 30062 40065 83012 333 20230 58007 70714 83460==
41964,2024,05,20,06,00,AAXX 20064 41964 01457 70000 10310 20290 30050 40053 76122 84320 333 58010 70020 83617 87458 81928==
41964,2024,05,20,09,00,AAXX 20094 41964 01456 83202 10312 20290 30030 40033 70396 8532/ 333 59008 70029 85617 88459 81930==
41964,2024,05,20,12,00,AAXX 20124 41964 01356 82302 10267 20250 30018 40021 70296 8562/ 333 10344 59005 70028 83709 83618 88459==
41964,2024,05,20,15,00,AAXX 20154 41964 02/50 30000 10261 20260 30056 40058 83030 333 58023 70026 83365==
41964,2024,05,20,18,00,AAXX 20184 41964 NIL=
41964,2024,05,20,21,00,AAXX 20214 41964 02/50 30000 10260 20260 30055 40057 83010 333 58005 70026 83460==
41964,2024,05,21,00,00,AAXX 21004 41964 02/56 50000 10271 20270 30054 40056 85070 333 58000 70026 83460==
41964,2024,05,21,03,00,AAXX 21034 41964 02957 30000 10325 20250 30056 40059 80001 333 20250 59006 70026 83074==
41964,2024,05,21,06,00,AAXX 21064 41964 02458 30000 10350 20260 30049 40051 83500 333 59001 70010 83618==
41964,2024,05,21,09,00,AAXX 21094 41964 02558 22503 10360 20240 30016 40018 82100 333 59014 70007 82825==
41964,2024,05,21,12,00,AAXX 21124 41964 02957 10000 10316 20270 30019 40021 80001 333 10364 58001 70000 81074==
41964,2024,05,21,18,00,AAXX 21184 41964 02/50 60000 10290 20280 30058 40060 86070 333 58000 70000 84466==
41964,2024,05,21,21,00,AAXX 21214 41964 02450 20000 10284 20270 30053 40056 82500 333 59002 70000 82618==
41964,2024,05,22,00,00,AAXX 22004 41964 02456 11201 10280 20260 30050 40053 81500 333 59004 70000 81618==
41964,2024,05,22,03,00,AAXX 22034 41964 02557 21402 10331 20230 30058 40060 82100 333 20255 58002 70000 82825==
41964,2024,05,22,06,00,AAXX 22064 41964 02458 21201 10353 20240 30047 40049 82500 333 59002 70000 82619==
41964,2024,05,22,09,00,AAXX 22094 41964 02958 02302 10361 20220 30019 40021 333 58003 70000==
41964,2024,05,22,12,00,AAXX 22124 41964 02/57 42301 10311 20270 30017 40019 83011 333 10363 59002 70000 83460==
41964,2024,05,22,18,00,AAXX 22184 41964 02/50 30000 10290 20280 30052 40054 83010 333 59006 70000 83460==
41964,2024,05,22,21,00,AAXX 22214 41964 02950 00000 10290 20280 30043 40045 333 59010 70000==
41964,2024,05,23,00,00,AAXX 23004 41964 02957 00000 10307 20270 30038 40040 333 59012 70000==
41964,2024,05,23,03,00,AAXX 23034 41964 02958 00501 10336 20270 30034 40036 333 20270 59024 70000==
41964,2024,05,23,06,00,AAXX 23064 41964 02458 33601 10373 20240 30019 40021 83500 333 59028 70000 83618==
41964,2024,05,23,09,00,AAXX 23094 41964 02558 12702 10365 20270 39995 49997 81100 333 59024 70000 81826==
41964,2024,05,23,12,00,AAXX 23124 41964 02/57 32301 10330 20270 39997 49999 83010 333 10375 59020 70000 83460==
41964,2024,05,23,15,00,AAXX 23154 41964 42450 60000 10310 20280 30029 40031 59020 85364==
41964,2024,05,23,18,00,AAXX 23184 41964 02450 60000 10300 20290 30034 40036 84520 333 59018 70000 84618 85460==
41965,2024,05,17,00,00,AAXX 17004 41965 02440 30000 10280 20260 30075 40084 83600 333 59024 70000 83618==
41965,2024,05,17,06,00,AAXX 17064 41965 NIL=
41965,2024,05,17,09,00,AAXX 17094 41965 02456 32802 10350 20240 30045 40054 83600 333 59014 70000 83618==
41965,2024,05,17,12,00,AAXX 17124 41965 02440 30000 10320 20240 30040 40045 83600 333 10365 59007 70000 83618==
41965,2024,05,17,21,00,AAXX 17214 41965 02430 30000 10278 20250 30061 40070 83600 333 58002 70000 83618==
41965,2024,05,18,00,00,AAXX 18004 41965 02440 50000 10285 20270 30066 40075 84610 333 59009 70000 83618 86460==
41965,2024,05,18,03,00,AAXX 18034 41965 02440 50000 10310 20240 30097 40106 84610 333 20260 59002 70000 83618 84460==
41965,2024,05,18,06,00,AAXX 18064 41965 02456 51302 10340 20230 30064 40073 84610 333 59007 70000 83618 84460==
41965,2024,05,18,09,00,AAXX 18094 41965 01456 81802 10300 20240 30039 40048 76122 8461/ 333 59006 70030 81710 83618 88460==
41965,2024,05,18,12,00,AAXX 18124 41965 21430 80000 10268 20240 30028 40037 70262 8461/ 333 10355 59012 60035 70030 81710 83618 88460==
41965,2024,05,18,15,00,AAXX 18154 41965 02430 80000 10265 20230 30039 40048 8461/ 333 59019 70030 83618 88460==
41965,2024,05,18,21,00,AAXX 18214 41965 02430 80000 10270 20250 30048 40057 8461/ 333 59013 70030 83618 88460==
41965,2024,05,19,00,00,AAXX 19004 41965 02440 80000 10280 20250 30050 40059 8461/ 333 59016 70030 83618 88460==
41965,2024,05,19,03,00,AAXX 19034 41965 02450 50000 10315 20250 30059 40068 84610 333 20250 59038 70030 83618 84460==
41965,2024,05,19,06,00,AAXX 19064 41965 01440 80000 10270 20240 30056 40065 76196 8461/ 333 59008 70040 81710 83618 88456==
41965,2024,05,19,09,00,AAXX 19094 41965 02450 80000 10276 20240 30033 40042 8461/ 333 59006 70040 81710 83618 88460==
41965,2024,05,19,12,00,AAXX 19124 41965 02430 80000 10265 20250 30020 40029 8461/ 333 10340 59008 70040 81710 83618 88460==
41965,2024,05,19,15,00,AAXX 19154 41965 01430 80000 10250 20200 30029 40038 70261 8461/ 333 59010 70070 83618 88460==
41965,2024,05,19,18,00,AAXX 19184 41965 NIL=
41965,2024,05,19,21,00,AAXX 19214 41965 02430 60000 10250 20190 30036 40049 84610 333 59012 70070 83618 86460==
41965,2024,05,20,00,00,AAXX 20004 41965 02440 60000 10270 20240 30045 40054 84610 333 59005 70070 83618 86460==
41965,2024,05,20,03,00,AAXX 20034 41965 02450 30000 10320 20220 30066 40075 83600 333 20232 58007 70070 83618==
41965,2024,05,20,06,00,AAXX 20064 41965 02450 31302 10330 20230 30049 40058 83600 333 59007 70030 83618==
41965,2024,05,20,09,00,AAXX 20094 41965 02440 50000 10310 20260 30028 40037 84610 333 59005 70030 83618 84460==
41965,2024,05,20,12,00,AAXX 20124 41965 02440 50000 10275 20240 30017 40026 84610 333 10340 59003 70030 83618 86460==
41965,2024,05,20,15,00,AAXX 20154 41965 02430 50000 10270 20240 30039 40048 84610 333 58010 70000 83618 84460==
41965,2024,05,20,18,00,AAXX 20184 41965 NIL=
41965,2024,05,20,21,00,AAXX 20214 41965 02430 50000 10265 20250 30045 40054 84610 333 58009 70000 83618 84460==
41965,2024,05,21,00,00,AAXX 21004 41965 02440 60000 10262 20240 30052 40061 84610 333 58007 70000 83618 86460==
41965,2024,05,21,03,00,AAXX 21034 41965 02456 30000 10320 20220 30058 40067 83600 333 20238 59008 70000 83618==
41965,2024,05,21,06,00,AAXX 21064 41965 02456 31402 10345 20210 30045 40046 83600 333 59004 70000 83618==
41965,2024,05,21,09,00,AAXX 21094 41965 02456 33601 10365 20230 30041 40050 83600 333 58013 70000 83618==
41965,2024,05,21,12,00,AAXX 21124 41965 02450 31802 10326 20230 30018 40027 83600 333 10374 58001 70000 83618==
41965,2024,05,21,15,00,AAXX 21154 41965 02440 30000 10280 20250 30045 40054 83600 333 58006 70000 83618==
41965,2024,05,21,18,00,AAXX 21184 41965 NIL=
41965,2024,05,22,00,00,AAXX 22004 41965 NIL=
41965,2024,05,22,03,00,AAXX 22034 41965 02450 30000 10325 20220 30060 40069 83600 333 20243 58002 70000 83618==
41965,2024,05,22,06,00,AAXX 22064 41965 NIL=
41965,2024,05,22,09,00,AAXX 22094 41965 02456 31701 10360 20200 30018 40027 83600 333 59003 70000 83618==
41965,2024,05,22,12,00,AAXX 22124 41965 02450 30000 10320 20230 30018 40027 83600 333 10378 58000 70000 83618==
41965,2024,05,22,15,00,AAXX 22154 41965 02440 30000 10280 20250 30051 40060 83600 333 58006 70000 83618==
41965,2024,05,22,21,00,AAXX 22214 41965 02430 30000 10270 20240 30053 40062 83600 333 58004 70000 83618==
41965,2024,05,23,00,00,AAXX 23004 41965 02440 30000 10275 20240 30035 40044 83600 333 59020 70000 83618==
41965,2024,05,23,03,00,AAXX 23034 41965 02456 31402 10340 20190 30034 40043 83600 333 20251 59026 70000 83618==
41965,2024,05,23,06,00,AAXX 23064 41965 02456 30000 10360 20230 30019 40028 83600 333 59032 70000 83618==
41965,2024,05,23,09,00,AAXX 23094 41965 02556 30000 10370 20240 39992 40000 83600 333 59026 70000 83618==
41965,2024,05,23,12,00,AAXX 23124 41965 02450 30000 10335 20260 39996 40000 83600 333 10380 59022 70000 83618==
41965,2024,05,23,15,00,AAXX 23154 41965 02440 50000 10300 20270 30025 40034 84610 333 59026 70000 83618==
41965,2024,05,23,21,00,AAXX 23214 41965 02430 80000 10280 20250 30017 40026 8461/ 333 59036 70120 83618 88456==
41966,2024,05,17,00,00,AAXX 17004 41966 02440 40901 10275 20260 30015 40094 82510 333 59011 70000 82616 83460==
41966,2024,05,17,03,00,AAXX 17034 41966 02450 41501 10340 20250 30024 40101 82510 333 20270 59011 70000 82616 83460==
41966,2024,05,17,06,00,AAXX 17064 41966 NIL=
41966,2024,05,17,09,00,AAXX 17094 41966 02450 41801 10365 20180 39978 40054 82510 333 59014 70000 82616 83460==
41966,2024,05,17,12,00,AAXX 17124 41966 02/35 31201 10315 20230 39976 40053 83030 333 10370 59007 70000 83362==
41966,2024,05,17,15,00,AAXX 17154 41966 02/35 40000 10300 20250 39999 40077 84030 333 59001 70000 84362==
41966,2024,05,17,21,00,AAXX 17214 41966 02435 40000 10285 20270 30003 40082 82510 333 59013 70000 82616 83460==
41966,2024,05,18,00,00,AAXX 18004 41966 02440 60901 10280 20260 30003 40082 82510 333 59012 70000 82616 85460==
41966,2024,05,18,06,00,AAXX 18064 41966 02450 41502 10240 20210 39991 40068 82510 333 59016 70000 82616 83460==
41966,2024,05,18,09,00,AAXX 18094 41966 01350 83602 10270 20230 39994 40073 71792 8432/ 333 58019 70000 82709 83615 88460 81930==
41966,2024,05,18,12,00,AAXX 18124 41966 21440 70901 10260 20240 39965 40043 72996 83510 333 10025 59010 60037 83616 86460==
41966,2024,05,18,15,00,AAXX 18154 41966 02430 71201 10260 20240 39973 40052 83510 333 59025 70025 83616 86460==
41966,2024,05,18,21,00,AAXX 18214 41966 02430 71201 10260 20240 39992 40071 83510 333 59011 70025 83616 86460==
41966,2024,05,19,00,00,AAXX 19004 41966 02440 71201 10268 20250 39985 40063 83510 333 59019 70025 83616 86460==
41966,2024,05,19,03,00,AAXX 19034 41966 02450 41501 10320 20250 39999 40077 82530 333 20250 59014 70025 82616 83362==
41966,2024,05,19,06,00,AAXX 19064 41966 01350 81802 10256 20240 30001 40080 79596 8492/ 333 58012 70080 82709 83615 88460 81930==
41966,2024,05,19,09,00,AAXX 19094 41966 01450 71602 10265 20250 39984 40062 72996 83510 333 59011 70112 83616 86460==
41966,2024,05,19,12,00,AAXX 19124 41966 01440 71701 10255 20240 39970 40049 72996 83510 333 10325 58006 70090 83616 86460==
41966,2024,05,19,18,00,AAXX 19184 41966 NIL=
41966,2024,05,19,21,00,AAXX 19214 41966 02430 81601 10250 20240 39993 40073 8352/ 333 58002 70110 83616 88460==
41966,2024,05,20,00,00,AAXX 20004 41966 02440 81201 10250 20230 39992 40071 8352/ 333 58008 70110 83616 88460==
41966,2024,05,20,03,00,AAXX 20034 41966 02450 41301 10315 20240 30006 40083 82510 333 20242 58006 70110 82616 83460==
41966,2024,05,20,06,00,AAXX 20064 41966 02450 40401 10330 20200 39987 40065 82510 333 59015 70028 82616 83460==
41966,2024,05,20,09,00,AAXX 20094 41966 02450 63101 10335 20170 39960 40036 83510 333 59026 70023 83616 85460==
41966,2024,05,20,12,00,AAXX 20124 41966 02440 60000 10300 20210 39959 40036 83510 333 10340 59013 70020 83616 85460==
41966,2024,05,20,15,00,AAXX 20154 41966 02430 60501 10290 20240 39970 40048 83510 333 59004 70004 83616 85460==
41966,2024,05,20,18,00,AAXX 20184 41966 NIL=
41966,2024,05,20,21,00,AAXX 20214 41966 02430 70000 10260 20240 39982 40061 83510 333 59012 70000 83616 86460==
41966,2024,05,21,00,00,AAXX 21004 41966 02440 71201 10255 20240 39983 40062 83510 333 59009 70000 83616 86460==
41966,2024,05,21,03,00,AAXX 21034 41966 02/50 30401 10325 20210 39995 40072 83030 333 20250 59011 70000 83362==
41966,2024,05,21,06,00,AAXX 21064 41966 02450 43101 10360 20150 39982 40058 82510 333 59007 70000 82616 83460==
41966,2024,05,21,09,00,AAXX 21094 41966 02/50 30801 10365 20140 39951 40027 83030 333 59009 70000 83362==
41966,2024,05,21,12,00,AAXX 21124 41966 02/40 30000 10325 20180 39956 40033 83030 333 10370 59003 70000 83362==
41966,2024,05,21,15,00,AAXX 21154 41966 02/30 31201 10300 20210 39967 40044 83030 333 59004 70000 83362==
41966,2024,05,21,18,00,AAXX 21184 41966 NIL=
41966,2024,05,21,21,00,AAXX 21214 41966 02/30 31801 10270 20240 39984 40063 83030 333 58002 70000 83362==
41966,2024,05,22,00,00,AAXX 22004 41966 02440 41201 10255 20240 39995 40074 82510 333 58012 70000 82616 83460==
41966,2024,05,22,03,00,AAXX 22034 41966 02450 41301 10320 20170 30002 40079 82510 333 20250 58007 70000 82616 83460==
41966,2024,05,22,06,00,AAXX 22064 41966 02950 01301 10350 20140 39985 40062 333 58004 70000==
41966,2024,05,22,09,00,AAXX 22094 41966 02/50 30801 10370 20090 39955 40031 83030 333 58004 70000 83362==
41966,2024,05,22,12,00,AAXX 22124 41966 02/40 30901 10330 20180 39956 40033 83030 333 10375 58000 70000 83362==
41966,2024,05,22,15,00,AAXX 22154 41966 02/30 30000 10300 20230 39963 40041 83030 333 59003 70000 83362==
41966,2024,05,22,21,00,AAXX 22214 41966 02/30 31201 10270 20240 39972 40050 83030 333 59013 70000 83362==
41966,2024,05,23,00,00,AAXX 23004 41966 02/40 30901 10260 20240 39975 40054 83030 333 59020 70000 83362==
41966,2024,05,23,03,00,AAXX 23034 41966 02950 00401 10335 20180 39972 40048 333 20252 59031 70000==
41966,2024,05,23,06,00,AAXX 23064 41966 02950 00401 10365 20140 39959 40035 333 59027 70000==
41966,2024,05,23,09,00,AAXX 23094 41966 02/50 31301 10380 20050 39925 40000 83030 333 59031 70000 83362==
41966,2024,05,23,12,00,AAXX 23124 41966 02/40 31502 10340 20230 39935 40011 83030 333 10385 59022 70000 83362==
41966,2024,05,23,15,00,AAXX 23154 41966 01430 80901 10298 20240 39954 40032 71722 8332/ 333 59009 70000 83616 88460 81930==
41966,2024,05,23,21,00,AAXX 23214 41966 02430 51201 10265 20250 39969 40048 83510 333 59002 70028 83616 85460==
41977,2024,05,17,00,00,AAXX 17004 41977 01950 30000 10288 20270 30063 40100 70521 80001 333 59015 70000 83080==
41977,2024,05,17,03,00,AAXX 17034 41977 01950 30000 10328 20260 30076 40114 70521 80001 333 20280 58016 70000 83080==
41977,2024,05,17,06,00,AAXX 17064 41977 01450 40000 10348 20260 30053 40090 70521 84530 333 59020 70000 84618 84362==
41977,2024,05,17,09,00,AAXX 17094 41977 01450 20000 10341 20250 30024 40061 70511 82500 333 59017 70000 82618==
41977,2024,05,17,12,00,AAXX 17124 41977 01950 00000 10319 20260 30030 40067 70510 333 10350 59003 70000==
41977,2024,05,17,15,00,AAXX 17154 41977 01450 20000 10311 20260 30044 40082 70510 82500 333 59016 70000 82618==
41977,2024,05,17,18,00,AAXX 17184 41977 01450 72503 10305 20270 30050 40088 70520 83530 333 59006 70000 83618 86362==
41977,2024,05,17,21,00,AAXX 17214 41977 01450 70000 10290 20270 30039 40077 70522 83530 333 59014 70000 83618 86462==
41977,2024,05,18,00,00,AAXX 18004 41977 01450 70000 10285 20270 30044 40082 70522 83510 333 59019 70000 83618 86460==
41977,2024,05,18,03,00,AAXX 18034 41977 01450 61202 10320 20260 30064 40102 70522 82510 333 20275 59014 70000 82618 85460==
41977,2024,05,18,06,00,AAXX 18064 41977 02456 42703 10347 20250 30045 40082 80522 333 59008 70000 82530 82617 84363==
41977,2024,05,18,09,00,AAXX 18094 41977 01450 73103 10326 20260 30035 40072 70522 84370 333 58011 70000 83618 85460 81928==
41977,2024,05,18,12,00,AAXX 18124 41977 01440 80000 10294 20240 30018 40056 70592 8532/ 333 10353 59012 70000 84617 88458 81928==
41977,2024,05,18,15,00,AAXX 18154 41977 01450 61802 10283 20230 30025 40063 70592 83570 333 59019 70000 83617 85459==
41977,2024,05,18,18,00,AAXX 18184 41977 01450 70000 10288 20250 30036 40074 70522 84370 333 59014 70000 83618 88458 81928==
41977,2024,05,18,21,00,AAXX 18214 41977 01450 70000 10285 20250 30030 40068 70522 84370 333 59009 70000 83618 88458 81928==
41977,2024,05,19,00,00,AAXX 19004 41977 01440 80000 10282 20260 30032 40070 70522 83510 333 59009 70000 84617 88458 81928==
41977,2024,05,19,03,00,AAXX 19034 41977 01345 80000 10312 20270 30049 40087 70522 8692/ 333 20275 59015 70000 84708 88458 81928==
41977,2024,05,19,06,00,AAXX 19064 41977 21340 80000 10303 20260 30037 40074 79695 8692/ 333 59008 60047 70040 84708 88458 82928==
41977,2024,05,19,09,00,AAXX 19094 41977 01440 80000 10270 20260 30016 40054 70562 8432/ 333 59019 70054 83709 88460 81928==
41977,2024,05,19,12,00,AAXX 19124 41977 11445 80000 10283 20260 30007 40045 60016 70562 8432/ 333 10320 59011 70054 83618 88460 81930==
41977,2024,05,19,15,00,AAXX 19154 41977 01450 50000 10262 20250 30021 40058 70562 82510 333 59004 70060 82617 85459==
41977,2024,05,19,18,00,AAXX 19184 41977 11440 30000 10260 20250 30028 40066 69961 70565 81530 333 59008 70060 81618 83362==
41977,2024,05,19,21,00,AAXX 19214 41977 01440 70000 10258 20250 30026 40064 70522 84570 333 59004 70060 84617 85460==
41977,2024,05,20,00,00,AAXX 20004 41977 01750 60000 10267 20260 30032 40070 70522 88530 333 10228 20220 40071 58019 70142 83618 86362 81708 81928==
41977,2024,05,20,03,00,AAXX 20034 41977 01450 60000 10316 20260 30045 40083 70522 84570 333 20255 59004 70060 84618 86460==
41977,2024,05,20,06,00,AAXX 20064 41977 01450 70000 10340 20230 30035 40073 70522 84570 333 59002 70020 84616 86460==
41977,2024,05,20,09,00,AAXX 20094 41977 01450 70000 10330 20250 30012 40050 70522 84570 333 59004 70006 84616 86460==
41977,2024,05,20,12,00,AAXX 20124 41977 01450 72702 10295 20260 30018 40055 70522 84570 333 10355 58011 70006 84616 86460==
41977,2024,05,20,15,00,AAXX 20154 41977 01450 60000 10286 20260 30030 40068 70522 83510 333 58009 70000 83618 85460==
41977,2024,05,20,18,00,AAXX 20184 41977 01445 70000 10273 20260 30028 40066 70522 83510 333 58000 70000 83618 86460==
41977,2024,05,20,21,00,AAXX 20214 41977 01445 70000 10268 20260 30022 40060 70522 83510 333 59004 70000 83618 87460==
41977,2024,05,21,00,00,AAXX 21004 41977 01445 70000 10273 20260 30033 40071 70522 83510 333 58001 70000 83618 87460==
41977,2024,05,21,03,00,AAXX 21034 41977 01450 40000 10330 20240 30045 40083 70522 84530 333 20267 58000 70000 84618 83360==
41977,2024,05,21,06,00,AAXX 21064 41977 01450 40000 10350 20230 30027 40064 70522 83530 333 59008 70000 83618 84362==
41977,2024,05,21,09,00,AAXX 21094 41977 01/50 32905 10360 20210 30006 40043 70511 83030 333 59006 70000 83362==
41977,2024,05,21,12,00,AAXX 21124 41977 01950 32503 10324 20250 30010 40047 70511 80001 333 10365 59008 70000 83080==
41977,2024,05,21,15,00,AAXX 21154 41977 01950 30000 10296 20270 30038 40076 70511 80001 333 58008 70000 83080==
41977,2024,05,21,18,00,AAXX 21184 41977 01450 40000 10290 20250 30044 40082 70522 84530 333 58016 70000 84618 83360==
41977,2024,05,21,21,00,AAXX 21214 41977 01950 30000 10288 20250 30047 40085 70511 80001 333 58025 70000 83080==
41977,2024,05,22,00,00,AAXX 22004 41977 01950 00000 10265 20250 30032 40070 70500 333 59001 70000==
41977,2024,05,22,03,00,AAXX 22034 41977 01950 01002 10338 20240 30046 40084 70500 333 20262 58001 70000==
41977,2024,05,22,06,00,AAXX 22064 41977 01450 40000 10350 20220 30032 40069 70521 84570 333 58005 70000 83618 83460==
41977,2024,05,22,09,00,AAXX 22094 41977 02950 32502 10355 20240 30007 40044 80001 333 58001 70000 83080==
41977,2024,05,22,12,00,AAXX 22124 41977 02950 30000 10323 20230 30005 40042 80001 333 10355 59005 70000 83080==
41977,2024,05,22,15,00,AAXX 22154 41977 01450 30000 10310 20260 30030 40068 70511 81530 333 59008 70000 81517 83365==
41977,2024,05,22,18,00,AAXX 22184 41977 01440 30000 10294 20270 30035 40072 70511 81501 333 59008 70000 81618 83080==
41977,2024,05,22,21,00,AAXX 22214 41977 01440 20000 10284 20260 30022 40066 70511 82500 333 59025 70000 82618==
41977,2024,05,23,00,00,AAXX 23004 41977 01/50 30000 10278 20260 30021 40059 70511 83030 333 59011 70000 83362==
41977,2024,05,23,03,00,AAXX 23034 41977 01950 00000 10345 20250 30027 40064 70511 333 20275 59019 70000==
41977,2024,05,23,06,00,AAXX 23064 41977 02950 00000 10371 20240 30010 40047 333 59022 70000==
41977,2024,05,23,09,00,AAXX 23094 41977 01950 00000 10355 20260 39981 40018 70500 333 59026 70000==
41977,2024,05,23,12,00,AAXX 23124 41977 01950 00000 10336 20270 39983 40020 70500 333 10375 59022 70000==
41977,2024,05,23,15,00,AAXX 23154 41977 02950 00000 10318 20270 30009 40047 333 59021 70000==
41977,2024,05,23,18,00,AAXX 23184 41977 01450 70000 10291 20240 30021 40059 71320 83530 333 59014 70000 83618 86362==
41977,2024,05,23,21,00,AAXX 23214 41977 02450 50000 10278 20250 30010 40048 83510 333 59012 70000 83618 87460==
41978,2024,05,17,00,00,AAXX 17004 41978 01440 20000 10302 20290 30076 40083 70510 82100 333 59018 70000 82828==
41978,2024,05,17,03,00,AAXX 17034 41978 02458 42506 10326 20290 30089 40096 84800 333 20297 59019 70000 82620 83825==
41978,2024,05,17,06,00,AAXX 17064 41978 01456 42808 10323 20280 30108 40114 70510 82530 333 20281 59006 70000 82618 84326==
41978,2024,05,17,09,00,AAXX 17094 41978 02/59 22407 10342 20290 30051 40057 82030 333 59015 70000 82362==
41978,2024,05,17,12,00,AAXX 17124 41978 02958 02210 10323 20280 30045 40051 333 10349 59007 70000==
41978,2024,05,17,15,00,AAXX 17154 41978 02957 02206 10312 20280 30066 40072 333 59006 70000==
41978,2024,05,17,18,00,AAXX 17184 41978 02456 32107 10302 20270 30069 40075 83500 333 59002 70000 83617==
41978,2024,05,17,21,00,AAXX 17214 41978 02456 31505 10296 20280 30054 40060 83500 333 59013 70000 83617==
41978,2024,05,18,00,00,AAXX 18004 41978 02450 31403 10289 20280 30069 40075 83500 333 59007 70000 83617==
41978,2024,05,18,03,00,AAXX 18034 41978 02457 42608 10322 20280 30082 40088 82530 333 20286 59007 70000 82617 83362==
41978,2024,05,18,06,00,AAXX 18064 41978 02457 42610 10334 20270 30062 40068 82530 333 59016 70000 82617 83362==
41978,2024,05,18,09,00,AAXX 18094 41978 01450 73306 10341 20280 30046 40052 71711 84320 333 59005 70000 83616 86460 81928==
41978,2024,05,18,12,00,AAXX 18124 41978 01450 80605 10291 20270 30035 40042 71792 8432/ 333 10354 59010 70000 83616 88460 81928==
41978,2024,05,18,15,00,AAXX 18154 41978 02456 61502 10292 20250 30040 40047 83520 333 59026 70000 83618 85460==
41978,2024,05,18,18,00,AAXX 18184 41978 02456 60405 10313 20290 30048 40054 83520 333 59021 70000 83618 85460==
41978,2024,05,18,21,00,AAXX 18214 41978 01445 60503 10294 20270 30043 40049 70522 83520 333 59011 70000 83618 85460==
41978,2024,05,19,00,00,AAXX 19004 41978 01435 71602 10288 20280 30047 40053 70522 84320 333 59021 70000 83618 86460 81930==
41978,2024,05,19,03,00,AAXX 19034 41978 01450 62608 10333 20280 30061 40067 70522 84910 333 20277 59021 70000 83618 85460 81930==
41978,2024,05,19,06,00,AAXX 19064 41978 11450 72608 10300 20280 30055 40062 60152 79596 85320 333 59007 70150 83612 86460 82928==
41978,2024,05,19,09,00,AAXX 19094 41978 01440 71504 10274 20260 30042 40048 72996 84320 333 59004 70170 83616 87460 81930==
41978,2024,05,19,12,00,AAXX 19124 41978 01450 60000 10284 20260 30026 40032 70596 84320 333 10331 59009 70176 83616 86460 81930==
41978,2024,05,19,15,00,AAXX 19154 41978 01440 71003 10271 20271 30038 40044 70522 84320 333 59002 70176 83616 87460 81928==
41978,2024,05,19,18,00,AAXX 19184 41978 01440 60304 10269 20269 30039 40046 70522 84320 333 59009 70176 83616 86460 81930==
41978,2024,05,19,21,00,AAXX 19214 41978 01435 60504 10268 20268 30036 40043 70522 83520 333 59007 70176 83616 86460==
41978,2024,05,20,00,00,AAXX 20004 41978 01431 60604 10266 20266 30048 40054 70522 83530 333 58001 70176 83616 86360==
41978,2024,05,20,03,00,AAXX 20034 41978 01450 61005 10310 20270 30064 40070 70522 83530 333 20260 58003 70176 83616 86360==
41978,2024,05,20,06,00,AAXX 20064 41978 01456 60906 10348 20280 30052 40058 70522 83530 333 59003 70026 83616 86360==
41978,2024,05,20,09,00,AAXX 20094 41978 01450 73009 10334 20280 30026 40033 70522 84320 333 59016 70006 83618 86460 81930==
41978,2024,05,20,12,00,AAXX 20124 41978 01450 73012 10298 20280 30026 40032 70262 84320 333 10353 58000 70000 83618 86460 81930==
41978,2024,05,20,15,00,AAXX 20154 41978 41450 61103 10291 20270 30036 40042 70522 84320 333 59002 83618 86460 81930==
41978,2024,05,20,18,00,AAXX 20184 41978 41450 50000 10281 20260 30049 40055 70522 83520 333 58010 83618 84460==
41978,2024,05,20,21,00,AAXX 20214 41978 41450 50503 10277 20270 30041 40047 70522 83520 333 58005 83618 84460==
41978,2024,05,21,00,00,AAXX 21004 41978 41416 60504 10279 20270 30051 40057 71022 83520 333 58003 83618 85460==
41978,2024,05,21,03,00,AAXX 21034 41978 41450 40606 10320 20260 30061 40067 70511 82530 333 20275 59003 82618 83360==
41978,2024,05,21,06,00,AAXX 21064 41978 41456 42608 10340 20260 30050 40056 70511 82530 333 59002 82618 83360==
41978,2024,05,21,09,00,AAXX 21094 41978 41457 12501 10349 20260 30023 40029 70511 81500 333 59003 81619==
41978,2024,05,21,12,00,AAXX 21124 41978 01957 12406 10320 20260 30026 40032 70511 80001 333 10351 58000 70000 82080==
41978,2024,05,21,15,00,AAXX 21154 41978 01956 22003 10307 20280 30052 40058 70511 80001 333 58016 70000 82080==
41978,2024,05,21,18,00,AAXX 21184 41978 01956 20000 10298 20270 30060 40066 70511 80001 333 58011 70000 82080==
41978,2024,05,21,21,00,AAXX 21214 41978 01956 20000 10287 20260 30051 40057 70511 80001 333 58010 70000 82080==
41978,2024,05,22,00,00,AAXX 22004 41978 01950 20000 10273 20250 30056 40062 70511 80001 333 58005 70000 82080==
41978,2024,05,22,03,00,AAXX 22034 41978 02558 10000 10332 20260 30065 40071 81100 333 20270 58004 70000 81830==
41978,2024,05,22,06,00,AAXX 22064 41978 01457 22505 10348 20280 30049 40055 70500 82800 333 59001 70000 82620==
41978,2024,05,22,09,00,AAXX 22094 41978 02559 22608 10350 20270 30025 40031 82100 333 58002 70000 82830==
41978,2024,05,22,12,00,AAXX 22124 41978 02559 22407 10330 20280 30024 40031 82100 333 10358 59002 70000 82830==
41978,2024,05,22,15,00,AAXX 22154 41978 02556 22103 10312 20290 30053 40060 82100 333 58001 70000 82828==
41978,2024,05,22,18,00,AAXX 22184 41978 02456 41302 10298 20290 30050 40056 82520 333 59010 70000 82618 83460==
41978,2024,05,22,21,00,AAXX 22214 41978 02456 41102 10292 20270 30032 40038 82520 333 59019 70000 82618 83460==
41978,2024,05,23,00,00,AAXX 23004 41978 01950 30503 10282 20260 30036 40043 70521 80001 333 59020 70000 83080==
41978,2024,05,23,03,00,AAXX 23034 41978 01956 00606 10328 20260 30042 40048 70500 333 20279 59023 70000==
41978,2024,05,23,06,00,AAXX 23064 41978 01457 12308 10350 20270 30026 40032 70500 81100 333 59023 70000 81830==
41978,2024,05,23,09,00,AAXX 23094 41978 01557 12413 10351 20280 30000 40006 70500 81100 333 59025 70000 81830==
41978,2024,05,23,12,00,AAXX 23124 41978 01557 12309 10334 20290 30002 40008 70500 81100 333 10361 59022 70000 81828==
41978,2024,05,23,15,00,AAXX 23154 41978 01457 21705 10314 20290 30027 40033 70500 82500 333 59027 70000 82618==
41978,2024,05,23,18,00,AAXX 23184 41978 01456 60905 10290 20260 30038 40044 70510 83530 333 59012 70000 83618 86360==
41978,2024,05,23,21,00,AAXX 23214 41978 01456 60606 10284 20260 30012 40019 70521 83530 333 59020 70000 83618 86360==
41980,2024,05,17,00,00,AAXX 17004 41980 32950 20000 10280 20260 39974 40096 82030 333 56090 59019 70000 85362=
41980,2024,05,17,06,00,AAXX 17064 41980 NIL=
41980,2024,05,17,12,00,AAXX 17124 41980 32950 02202 10310 20260 39947 40057 333 10356 59006 70000=
41980,2024,05,18,00,00,AAXX 18004 41980 32950 20000 10284 20250 39963 40074 82030 333 56090 59011 82362=
41980,2024,05,18,06,00,AAXX 18064 41980 NIL=
41980,2024,05,18,12,00,AAXX 18124 41980 32450 80000 10282 20230 39930 40041 8252/ 333 10353 56999 59017 70000 83617 88458=
41980,2024,05,19,00,00,AAXX 19004 41980 32450 80000 10268 20250 39944 40052 8351/ 333 56999 59019 70000 83617 88458=
41980,2024,05,19,06,00,AAXX 19064 41980 NIL=
41980,2024,05,19,12,00,AAXX 19124 41980 32450 30000 10280 20240 39924 40030 82510 333 10345 56990 59006 70000 82617=
41980,2024,05,19,18,00,AAXX 19184 41980 NIL=
41980,2024,05,20,00,00,AAXX 20004 41980 NIL=
41980,2024,05,20,06,00,AAXX 20064 41980 32450 52203 10294 20250 39968 40079 82510 333 20239 56990 58004 70000 82617 83458=
41980,2024,05,20,12,00,AAXX 20124 41980 32450 40000 10305 20240 39930 40040 82510 333 10356 56990 58006 70000 82617=
41980,2024,05,20,18,00,AAXX 20184 41980 NIL=
41980,2024,05,21,00,00,AAXX 21004 41980 32450 40000 10269 20250 39947 40059 82510 333 56990 59002 70000 82617 83458=
41980,2024,05,21,12,00,AAXX 21124 41980 32950 10000 10320 20230 39928 40038 81030 333 10356 56090 59002 70000 81362=
41980,2024,05,21,18,00,AAXX 21184 41980 NIL=
41980,2024,05,22,00,00,AAXX 22004 41980 32950 23102 10256 20230 39950 40072 82030 333 56090 58003 82362=
41980,2024,05,22,06,00,AAXX 22064 41980 NIL=
41980,2024,05,22,12,00,AAXX 22124 41980 32450 32203 10318 20210 39925 40030 82510 333 10366 56990 59003 70000 82618=
41980,2024,05,23,00,00,AAXX 23004 41980 32950 01702 10276 20230 39936 40047 333 59014 70000=
41980,2024,05,23,06,00,AAXX 23064 41980 NIL=
41980,2024,05,23,12,00,AAXX 23124 41980 32450 31702 10324 20240 39907 40010 83500 333 10378 56900 59018 70000 83616=
41984,2024,05,17,00,00,AAXX 17004 41984 02950 00000 10296 20280 30069 40071 333 59017 70000==
41984,2024,05,17,03,00,AAXX 17034 41984 02456 23102 10340 20270 30077 40079 82500 333 20280 59017 70000 82618==
41984,2024,05,17,06,00,AAXX 17064 41984 02457 52602 10366 20270 30065 40067 83510 333 59015 70000 83618 85458==
41984,2024,05,17,09,00,AAXX 17094 41984 02958 02303 10350 20270 30039 40041 333 59016 70000==
41984,2024,05,17,12,00,AAXX 17124 41984 02956 02302 10320 20280 30036 40038 333 10375 59009 70000==
41984,2024,05,17,15,00,AAXX 17154 41984 02940 00000 10301 20280 30055 40057 333 59012 70000==
41984,2024,05,17,18,00,AAXX 17184 41984 02940 02302 10299 20280 30064 40066 333 59005 70000==
41984,2024,05,17,21,00,AAXX 17214 41984 02440 20000 10300 20280 30057 40059 82500 333 59012 70000 82618==
41984,2024,05,18,00,00,AAXX 18004 41984 02450 20000 10300 20280 30048 40050 82500 333 59021 70000 82618==
41984,2024,05,18,03,00,AAXX 18034 41984 02456 52204 10342 20280 30063 40065 83510 333 20291 59014 70000 83618 85458==
41984,2024,05,18,06,00,AAXX 18064 41984 02457 52604 10351 20260 30049 40051 83510 333 59016 70000 83618 85458==
41984,2024,05,18,09,00,AAXX 18094 41984 02456 82204 10348 20280 30026 40028 8352/ 333 59013 70000 83618 88458==
41984,2024,05,18,12,00,AAXX 18124 41984 01450 80000 10255 20250 30025 40027 72922 8352/ 333 10357 59011 70050 83618 88458==
41984,2024,05,18,15,00,AAXX 18154 41984 02440 50000 10282 20270 30033 40035 83510 333 59022 70050 83618 85458==
41984,2024,05,18,18,00,AAXX 18184 41984 02440 52702 10298 20290 30034 40036 83510 333 59030 70050 83618 85458==
41984,2024,05,18,21,00,AAXX 18214 41984 02440 80000 10295 20290 30034 40036 8352/ 333 59023 70050 83618 88458==
41984,2024,05,19,00,00,AAXX 19004 41984 02450 80000 10293 20290 30035 40037 8352/ 333 59013 70050 83618 88458==
41984,2024,05,19,03,00,AAXX 19034 41984 02456 80000 10340 20290 30050 40052 8352/ 333 20251 59013 70050 83618 88458==
41984,2024,05,19,06,00,AAXX 19064 41984 02457 22602 10357 20280 30036 40038 82500 333 59013 70050 82618==
41984,2024,05,19,09,00,AAXX 19094 41984 02458 21803 10350 20270 30007 40009 82500 333 59019 70050 82618==
41984,2024,05,19,12,00,AAXX 19124 41984 02456 50000 10290 20250 30013 40015 83510 333 10364 59012 70000 83618 85458==
41984,2024,05,19,15,00,AAXX 19154 41984 02440 50000 10285 20280 30029 40031 83510 333 59004 70000 83618 85458==
41984,2024,05,19,18,00,AAXX 19184 41984 02440 20000 10285 20280 30033 40035 82500 333 59001 70000 82618==
41984,2024,05,19,21,00,AAXX 19214 41984 02440 20000 10285 20285 30032 40034 82500 333 59002 70000 82618==
41984,2024,05,20,00,00,AAXX 20004 41984 02450 20000 10286 20286 30031 40033 82500 333 59004 70000 82618==
41984,2024,05,20,03,00,AAXX 20034 41984 02456 80000 10304 20270 30048 40050 8352/ 333 20279 59002 70000 83618 88458==
41984,2024,05,20,06,00,AAXX 20064 41984 02456 80903 10347 20290 30039 40041 8352/ 333 58003 70000 83618 88458==
41984,2024,05,20,09,00,AAXX 20094 41984 02350 83502 10284 20240 30034 40036 8562/ 333 58027 70000 82709 84616 88457==
41984,2024,05,20,12,00,AAXX 20124 41984 21456 80000 10255 20255 30021 40023 72996 8352/ 333 10351 58008 60077 70070 83618 88458==
41984,2024,05,20,15,00,AAXX 20154 41984 02440 80000 10255 20255 30030 40032 8352/ 333 58001 70070 83618 88458==
41984,2024,05,20,18,00,AAXX 20184 41984 02440 50000 10260 20260 30035 40037 83510 333 58002 70070 83618 85458==
41984,2024,05,20,21,00,AAXX 20214 41984 02440 20000 10262 20260 30034 40036 82500 333 58002 70070 82618==
41984,2024,05,21,00,00,AAXX 21004 41984 02450 20000 10266 20266 30033 40035 82500 333 58002 70070 82618==
41984,2024,05,21,03,00,AAXX 21034 41984 02457 80000 10325 20290 30049 40051 8352/ 333 20240 58001 70070 83618 88458==
41984,2024,05,21,06,00,AAXX 21064 41984 02356 81302 10310 20260 30045 40047 8562/ 333 58006 70070 82709 84616 88457==
41984,2024,05,21,09,00,AAXX 21094 41984 01457 51302 10337 20290 30019 40021 70162 83510 333 59015 70180 83618 85458==
41984,2024,05,21,12,00,AAXX 21124 41984 11456 50000 10314 20280 30014 40016 60116 70262 83510 333 10357 59007 70110 83618 85458==
41984,2024,05,21,15,00,AAXX 21154 41984 02440 50000 10286 20286 30033 40035 83510 333 58001 70110 83618 85458==
41984,2024,05,21,18,00,AAXX 21184 41984 02440 20000 10283 20280 30049 40051 82500 333 58014 70110 82618==
41984,2024,05,21,21,00,AAXX 21214 41984 02940 00000 10278 20278 30042 40044 333 58008 70110==
41984,2024,05,22,00,00,AAXX 22004 41984 02950 00000 10273 20270 30035 40037 333 58002 70110==
41984,2024,05,22,03,00,AAXX 22034 41984 02457 20000 10341 20270 30049 40051 82500 333 20266 58000 70110 82618==
41984,2024,05,22,06,00,AAXX 22064 41984 02457 51802 10350 20270 30042 40044 83510 333 59003 70110 83618 85458==
41984,2024,05,22,09,00,AAXX 22094 41984 02458 51802 10350 20270 30022 40024 83510 333 58003 70000 83618 85458==
41984,2024,05,22,12,00,AAXX 22124 41984 02456 50000 10320 20280 30012 40014 83510 333 10360 59002 70000 83618 85458==
41984,2024,05,22,15,00,AAXX 22154 41984 02940 00000 10290 20280 30036 40038 333 58005 70000==
41984,2024,05,22,18,00,AAXX 22184 41984 02940 00000 10281 20280 30036 40038 333 59013 70000==
41984,2024,05,22,21,00,AAXX 22214 41984 02440 20000 10280 20280 30028 40030 82500 333 59014 70000 82618==
41984,2024,05,23,00,00,AAXX 23004 41984 02450 20000 10280 20280 30022 40024 82500 333 59013 70000 82618==
41984,2024,05,23,03,00,AAXX 23034 41984 02456 60000 10335 20290 30030 40032 83510 333 20274 59019 70000 83618 85458==
41984,2024,05,23,06,00,AAXX 23064 41984 02456 60000 10350 20270 30022 40024 83510 333 59020 70000 83618 85458==
41984,2024,05,23,09,00,AAXX 23094 41984 02456 80000 10330 20260 30002 40004 8352/ 333 59020 70000 83618 88458==
41984,2024,05,23,12,00,AAXX 23124 41984 02456 50000 10330 20270 39995 49997 83510 333 10368 59017 70000 83618 85458==
41984,2024,05,23,15,00,AAXX 23154 41984 02440 20000 10296 20290 30013 40015 82500 333 59023 70000 82618==
41984,2024,05,23,18,00,AAXX 23184 41984 02940 00000 10284 20270 30022 40024 333 59014 70000==
41984,2024,05,23,21,00,AAXX 23214 41984 02940 00000 10285 20280 30014 40016 333 59014 70000==
41989,2024,05,17,00,00,AAXX 17004 41989 02450 50000 10297 20280 30077 40081 82570 333 59017 70000 82618 83362==
41989,2024,05,17,03,00,AAXX 17034 41989 02456 21303 10321 20280 30099 40102 82500 333 20282 59011 70000 82618==
41989,2024,05,17,06,00,AAXX 17064 41989 02450 33202 10334 20260 30079 40082 83500 333 59023 70000 83618==
41989,2024,05,17,09,00,AAXX 17094 41989 02456 21304 10337 20260 30051 40054 82500 333 59041 70000 82618==
41989,2024,05,17,12,00,AAXX 17124 41989 02456 11402 10318 20260 30042 40045 81500 333 10340 59038 70000 81618==
41989,2024,05,18,00,00,AAXX 18004 41989 02450 51802 10287 20280 30080 40084 83530 333 58003 70000 83618 83362==
41989,2024,05,18,06,00,AAXX 18064 41989 02456 21403 10334 20260 30062 40065 82500 333 59017 70000 82618==
41989,2024,05,18,09,00,AAXX 18094 41989 02456 21403 10340 20260 30051 40054 82500 333 58000 70000 82618==
41989,2024,05,18,12,00,AAXX 18124 41989 NIL=
41989,2024,05,18,15,00,AAXX 18154 41989 02450 41802 10302 20260 30041 40044 82530 333 59040 70000 82618 84362==
41989,2024,05,18,21,00,AAXX 18214 41989 02450 20000 10290 20260 30043 40046 82500 333 59026 70000 82618==
41989,2024,05,19,00,00,AAXX 19004 41989 02450 50000 10288 20280 30042 40045 82570 333 59038 70000 82618 83362==
41989,2024,05,19,03,00,AAXX 19034 41989 41456 51802 10322 20270 30066 40069 70262 83570 333 20275 59015 82618 83362==
41989,2024,05,19,06,00,AAXX 19064 41989 11456 31703 10340 20260 30075 40076 60006 70162 83500 333 58013 83618==
41989,2024,05,19,09,00,AAXX 19094 41989 42456 61403 10300 20230 30043 40046 82570 333 59007 82618 84460==
41989,2024,05,19,12,00,AAXX 19124 41989 42456 41804 10306 20240 30039 40042 82530 333 10346 59004 82618 84362==
41989,2024,05,19,15,00,AAXX 19154 41989 42450 41703 10285 20260 30049 40052 83530 333 58008 83618 83362==
41989,2024,05,19,18,00,AAXX 19184 41989 NIL=
41989,2024,05,19,21,00,AAXX 19214 41989 42440 43202 10278 20250 30058 40061 83500 333 58015 83618 83362==
41989,2024,05,20,00,00,AAXX 20004 41989 42450 51803 10275 20250 30055 40058 83530 333 58013 83618 83362==
41989,2024,05,20,03,00,AAXX 20034 41989 42450 51802 10308 20250 30063 40067 83530 333 20270 59003 83618 83362==
41989,2024,05,20,06,00,AAXX 20064 41989 02456 41702 10340 20260 30063 40066 82530 333 59012 70000 82618 83362==
41989,2024,05,20,09,00,AAXX 20094 41989 02450 31403 10343 20260 30052 40055 83500 333 58009 70000 83618==
41989,2024,05,20,12,00,AAXX 20124 41989 02450 51803 10305 20260 30044 40047 83530 333 10350 58005 70000 83618 84362==
41989,2024,05,20,15,00,AAXX 20154 41989 02450 51702 10292 20260 30030 40033 82570 333 59019 70000 82618 83362==
41989,2024,05,20,18,00,AAXX 20184 41989 NIL=
41989,2024,05,20,21,00,AAXX 20214 41989 42450 60000 10283 20250 30033 40036 83570 333 59025 83618 84362==
41989,2024,05,21,00,00,AAXX 21004 41989 02450 60000 10283 20260 30032 40035 82570 333 59023 70000 82618 84460==
41989,2024,05,21,03,00,AAXX 21034 41989 02456 41303 10312 20260 30055 40058 82530 333 20276 59008 70000 82618 83362==
41989,2024,05,21,06,00,AAXX 21064 41989 02450 51703 10340 20250 30059 40062 82530 333 59004 70000 82618 84362==
41989,2024,05,21,09,00,AAXX 21094 41989 02456 11305 10344 20240 30030 40033 81500 333 59022 70000 81618==
41989,2024,05,21,12,00,AAXX 21124 41989 02456 21703 10316 20250 30021 40024 82500 333 10352 59024 70000 82618==
41989,2024,05,21,15,00,AAXX 21154 41989 02450 51803 10290 20260 30061 40064 83530 333 58031 70000 83618 83362==
41989,2024,05,21,18,00,AAXX 21184 41989 NIL=
41989,2024,05,22,00,00,AAXX 22004 41989 02450 51803 10273 20250 30049 40052 83530 333 58017 70000 83618 83362==
41989,2024,05,22,03,00,AAXX 22034 41989 02450 11803 10320 20260 30058 40061 81500 333 20270 58003 70000 81618==
41989,2024,05,22,06,00,AAXX 22064 41989 02456 11304 10342 20240 30050 40053 81500 333 59009 70000 81618==
41989,2024,05,22,09,00,AAXX 22094 41989 02450 31403 10340 20250 30032 40035 83500 333 58002 70000 83616==
41989,2024,05,22,12,00,AAXX 22124 41989 02450 31302 10310 20260 30029 40032 83500 333 10350 58008 70000 83618==
41989,2024,05,22,15,00,AAXX 22154 41989 02450 20000 10297 20270 30053 40056 82500 333 59008 70000 82618==
41989,2024,05,22,21,00,AAXX 22214 41989 02450 10000 10285 20270 30059 40062 81500 333 59003 70000 81618==
41989,2024,05,23,00,00,AAXX 23004 41989 02450 10000 10277 20260 30043 40047 81500 333 59023 70000 81618==
41989,2024,05,23,03,00,AAXX 23034 41989 02456 21303 10318 20260 30066 40069 82500 333 20272 58008 70000 82618==
41989,2024,05,23,06,00,AAXX 23064 41989 02456 23202 10340 20250 30039 40042 82500 333 59011 70000 82618==
41989,2024,05,23,09,00,AAXX 23094 41989 02456 11403 10347 20260 30015 40018 81500 333 59017 70000 81618==
41989,2024,05,23,12,00,AAXX 23124 41989 02456 21302 10317 20260 30008 40011 82500 333 10351 59021 70000 82618==
41989,2024,05,23,15,00,AAXX 23154 41989 02450 31403 10300 20250 30042 40045 83500 333 59011 70000 83618==
41989,2024,05,23,18,00,AAXX 23184 41989 02440 31804 10290 20250 30056 40059 83500 333 59010 70000 83618==
41989,2024,05,23,21,00,AAXX 23214 41989 32440 41402 10285 20260 30046 40050 82501 333 56909 58013 70000 82618 83080=
41992,2024,05,17,00,00,AAXX 17004 41992 01430 40902 10290 20270 30086 40088 70510 82530 333 59020 70000 82616 84362==
41992,2024,05,17,03,00,AAXX 17034 41992 01530 43302 10325 20270 30098 40100 70521 83230 333 20288 59013 70000 83830 84362==
41992,2024,05,17,06,00,AAXX 17064 41992 01940 03305 10340 20260 30083 40085 70510 333 59012 70000==
41992,2024,05,17,09,00,AAXX 17094 41992 01530 22405 10350 20260 30060 40062 70510 82200 333 59013 70000 82830==
41992,2024,05,17,12,00,AAXX 17124 41992 01930 02404 10330 20250 30051 40053 70500 333 10355 59008 70000==
41992,2024,05,17,15,00,AAXX 17154 41992 01925 00000 10310 20260 30071 40073 70500 333 59007 70000==
41992,2024,05,17,18,00,AAXX 17184 41992 01925 02102 10304 20260 30077 40079 70500 333 59002 70000==
41992,2024,05,17,21,00,AAXX 17214 41992 01925 01502 10302 20260 30060 40062 70500 333 59014 70000==
41992,2024,05,18,00,00,AAXX 18004 41992 01425 40902 10296 20260 30078 40080 70510 82530 333 59008 70000 82616 84362==
41992,2024,05,18,03,00,AAXX 18034 41992 01435 10000 10327 20270 30085 40087 70511 81500 333 20283 59013 70000 81616==
41992,2024,05,18,06,00,AAXX 18064 41992 01935 00000 10344 20250 30067 40069 70510 333 59016 70000==
41992,2024,05,18,09,00,AAXX 18094 41992 01930 02406 10355 20250 30049 40051 70500 333 59011 70000==
41992,2024,05,18,12,00,AAXX 18124 41992 01435 60000 10318 20260 30041 40043 70500 83530 333 10360 59010 70000 83616 86362==
41992,2024,05,18,15,00,AAXX 18154 41992 01930 00000 10300 20270 30049 40051 70520 333 59022 70000==
41992,2024,05,18,18,00,AAXX 18184 41992 01425 40000 10305 20260 30052 40054 70521 84500 333 59025 70000 84616==
41992,2024,05,18,21,00,AAXX 18214 41992 01425 40000 10300 20260 30043 40045 70521 82530 333 59017 70000 82616 84362==
41992,2024,05,19,00,00,AAXX 19004 41992 01430 40902 10296 20260 30062 40064 70521 82530 333 59016 70000 82616 84362==
41992,2024,05,19,03,00,AAXX 19034 41992 01435 10000 10335 20270 30069 40071 70511 81500 333 20286 59016 70000 81616==
41992,2024,05,19,06,00,AAXX 19064 41992 01435 10000 10347 20260 30053 40055 70511 81500 333 59014 70000 81616==
41992,2024,05,19,09,00,AAXX 19094 41992 01435 70513 10345 20260 30049 40051 70522 84330 333 58000 70000 84616 87360 81925==
41992,2024,05,19,12,00,AAXX 19124 41992 01930 40302 10320 20230 30020 40022 70510 84001 333 10356 59021 70000 84080==
41992,2024,05,19,15,00,AAXX 19154 41992 01/25 20000 10297 20240 30047 40049 70511 82030 333 59002 70000 82362==
41992,2024,05,19,18,00,AAXX 19184 41992 01925 00000 10286 20240 30046 40048 70510 333 59006 70000==
41992,2024,05,19,21,00,AAXX 19214 41992 01925 00000 10280 20230 30040 40042 70500 333 59003 70000==
41992,2024,05,20,00,00,AAXX 20004 41992 01530 41506 10275 20240 30059 40061 70510 82230 333 59003 70000 82830 84362==
41992,2024,05,20,03,00,AAXX 20034 41992 01435 50000 10333 20260 30075 40073 70511 84430 333 20272 58002 70000 83616 85362==
41992,2024,05,20,06,00,AAXX 20064 41992 01435 60000 10337 20270 30057 40059 70521 83430 333 59012 70000 82616 86362==
41992,2024,05,20,09,00,AAXX 20094 41992 01535 42105 10340 20260 30028 40030 70521 82230 333 59021 70000 82825 84362==
41992,2024,05,20,12,00,AAXX 20124 41992 01/30 50000 10318 20250 30034 40036 70522 85030 333 10350 59014 70000 85362==
41992,2024,05,20,15,00,AAXX 20154 41992 01425 60000 10300 20260 30044 40046 70522 84530 333 59003 70000 84616 86362==
41992,2024,05,20,18,00,AAXX 20184 41992 01425 40000 10295 20260 30054 40056 70521 84530 333 58008 70000 84616 84362==
41992,2024,05,20,21,00,AAXX 20214 41992 01425 20000 10290 20260 30038 40040 70510 82500 333 59002 70000 82616==
41992,2024,05,21,00,00,AAXX 21004 41992 01430 40303 10285 20270 30060 40062 70521 82530 333 58001 70000 82616 84362==
41992,2024,05,21,03,00,AAXX 21034 41992 01/35 23304 10335 20260 30067 40069 70511 82030 333 20283 59004 70000 82362==
41992,2024,05,21,06,00,AAXX 21064 41992 01435 33304 10352 20250 30053 40055 70511 81530 333 59004 70000 81616 83362==
41992,2024,05,21,09,00,AAXX 21094 41992 01430 23310 10355 20210 30030 40032 70510 82500 333 58002 70000 82616==
41992,2024,05,21,12,00,AAXX 21124 41992 01930 03004 10325 20250 30030 40032 70500 333 10361 59004 70000==
41992,2024,05,21,15,00,AAXX 21154 41992 01925 00000 10305 20260 30062 40064 70500 333 59018 70000==
41992,2024,05,21,18,00,AAXX 21184 41992 01925 00000 10290 20240 30063 40065 70500 333 59009 70000==
41992,2024,05,21,21,00,AAXX 21214 41992 01925 00000 10285 20240 30046 40048 70500 333 58008 70000==
41992,2024,05,22,00,00,AAXX 22004 41992 01530 20302 10280 20240 30058 40060 70510 82200 333 59002 70000 82830==
41992,2024,05,22,03,00,AAXX 22034 41992 01435 20000 10333 20250 30069 40071 70511 82500 333 20273 58002 70000 82616==
41992,2024,05,22,06,00,AAXX 22064 41992 01935 00000 10354 20240 30055 40057 70511 333 58002 70000==
41992,2024,05,22,09,00,AAXX 22094 41992 01440 42104 10352 20240 30032 40034 70521 84500 333 58002 70000 84616==
41992,2024,05,22,12,00,AAXX 22124 41992 01430 20000 10342 20240 30031 40033 70521 82500 333 10358 58001 70000 82616==
41992,2024,05,22,15,00,AAXX 22154 41992 01925 00000 10307 20260 30059 40061 70500 333 59003 70000==
41992,2024,05,22,18,00,AAXX 22184 41992 01925 00000 10293 20240 30055 40057 70500 333 59008 70000==
41992,2024,05,22,21,00,AAXX 22214 41992 01925 00000 10285 20240 30034 40036 70500 333 59012 70000==
41992,2024,05,23,00,00,AAXX 23004 41992 01930 00303 10280 20230 30048 40050 70500 333 59010 70000==
41992,2024,05,23,03,00,AAXX 23034 41992 01935 03303 10342 20230 30045 40047 70510 333 20274 59024 70000==
41992,2024,05,23,06,00,AAXX 23064 41992 01940 02103 10348 20260 30033 40035 70510 333 59022 70000==
41992,2024,05,23,09,00,AAXX 23094 41992 01940 02005 10350 20250 30011 40013 70500 333 59021 70000==
41992,2024,05,23,12,00,AAXX 23124 41992 01/30 60000 10325 20250 30016 40018 70520 86030 333 10365 59015 70000 86362==
41992,2024,05,23,15,00,AAXX 23154 41992 01925 00000 10320 20250 30031 40033 70510 333 59028 70000==
41992,2024,05,23,18,00,AAXX 23184 41992 01425 32102 10300 20250 30044 40046 70511 83500 333 59011 70000 83616==
41992,2024,05,23,21,00,AAXX 23214 41992 01925 20902 10290 20240 30014 40016 70510 82001 333 59017 70000 82080==
41998,2024,05,17,03,00,AAXX 17034 41998 02956 00000 10308 20270 30093 40099 333 20263 59007 70000==
41998,2024,05,17,06,00,AAXX 17064 41998 NIL=
41998,2024,05,17,09,00,AAXX 17094 41998 02956 02403 10328 20260 30060 40066 333 59005 70000==
41998,2024,05,17,12,00,AAXX 17124 41998 02956 00000 10298 20250 30058 40064 333 10352 59003 70000==
41998,2024,05,18,03,00,AAXX 18034 41998 02956 00000 10293 20260 30086 40092 333 20266 59007 70000==
41998,2024,05,18,06,00,AAXX 18064 41998 NIL=
41998,2024,05,18,09,00,AAXX 18094 41998 02956 02403 10331 20250 30057 40063 333 59007 70000==
41998,2024,05,18,12,00,AAXX 18124 41998 02456 30000 10304 20250 30055 40061 82470 333 10354 59003 70000 81618==
41998,2024,05,19,00,00,AAXX 19004 41998 02456 40000 10276 20250 30078 40084 82470 333 59005 70000 82618 83458==
41998,2024,05,19,03,00,AAXX 19034 41998 02456 40000 10300 20270 30082 40088 83470 333 10268 59007 70000 82618 83458==
41998,2024,05,19,06,00,AAXX 19064 41998 NIL=
41998,2024,05,19,09,00,AAXX 19094 41998 02456 42902 10332 20250 30045 40051 82470 333 59012 70000 82618 83458==
41998,2024,05,19,12,00,AAXX 19124 41998 02456 30000 10304 20250 30043 40049 82470 333 10346 59012 70000 81618 83458==
41998,2024,05,19,18,00,AAXX 19184 41998 NIL=
41998,2024,05,20,00,00,AAXX 20004 41998 NIL=
41998,2024,05,20,03,00,AAXX 20034 41998 02956 00000 10305 20270 30070 40076 333 20270 59015 70000==
41998,2024,05,20,06,00,AAXX 20064 41998 NIL=
41998,2024,05,20,09,00,AAXX 20094 41998 02456 42803 10328 20250 30036 40042 82470 333 59009 70000 82618 83458==
41998,2024,05,20,12,00,AAXX 20124 41998 02456 60000 10298 20250 30038 40044 83470 333 10352 59005 70000 82618 84458==
41998,2024,05,20,18,00,AAXX 20184 41998 NIL=
41998,2024,05,21,00,00,AAXX 21004 41998 02956 00000 10278 20260 30058 40064 83470 333 59019 70000 82618 83458==
41998,2024,05,21,03,00,AAXX 21034 41998 02456 60000 10305 20260 30066 40072 83470 333 20268 59004 70000 82618 83458==
41998,2024,05,21,09,00,AAXX 21094 41998 02456 41902 10334 20250 30034 40040 83470 333 59002 70000 82618 84458==
41998,2024,05,21,12,00,AAXX 21124 41998 02456 40000 10303 20250 30031 40037 83470 333 10353 59007 70000 81618 83458==
41998,2024,05,21,18,00,AAXX 21184 41998 NIL=
41998,2024,05,22,00,00,AAXX 22004 41998 NIL=
41998,2024,05,22,03,00,AAXX 22034 41998 02956 00000 10310 20270 30064 40070 333 20270 59002 70000==
41998,2024,05,22,06,00,AAXX 22064 41998 NIL=
41998,2024,05,22,12,00,AAXX 22124 41998 02456 40000 10303 20250 30028 40034 82470 333 10348 59003 70000 82618 84458==
41998,2024,05,23,00,00,AAXX 23004 41998 NIL=
41998,2024,05,23,03,00,AAXX 23034 41998 02956 00000 10310 20280 30047 40053 333 20272 59017 70000==
41998,2024,05,23,06,00,AAXX 23064 41998 02956 01108 10330 20270 30026 40032 333 59019 70000==
41998,2024,05,23,12,00,AAXX 23124 41998 02456 40000 10315 20260 30011 40017 83470 333 10370 59025 70000 82618==
41998,2024,05,23,15,00,AAXX 23154 41998 01356 80000 10287 20260 30042 40048 71792 8342/ 333 58027 70000 82617 88458 81929==
41998,2024,05,23,18,00,AAXX 23184 41998 02456 40000 10255 20240 30039 40045 83470 333 59015 70000 82618==
