ESTACION,ANO,MES,DIA,HORA,MINUTO,PARTE
41850,2023,10,20,00,00,AAXX 20004 41850 31920 00000 10194 20190 30047 40148 71000 333 58011 70000=
41850,2023,10,20,06,00,AAXX 20064 41850 32457 10402 10290 20220 30054 40152 81500 333 56900 58009 70000 81616=
41850,2023,10,20,12,00,AAXX 20124 41850 31440 10000 10258 20220 30024 40123 70500 81500 333 10314 56900 58006 70000 81616=
41850,2023,10,20,18,00,AAXX 20184 41850 NIL=
41850,2023,10,21,00,00,AAXX 21004 41850 31940 03602 10187 20187 30050 40152 70500 333 58003 70000=
41850,2023,10,21,06,00,AAXX 21064 41850 32956 01503 10307 20170 30053 40150 333 59001 70000=
41850,2023,10,21,12,00,AAXX 21124 41850 31940 00000 10260 20220 30032 40131 70500 333 10318 58008 70000=
41850,2023,10,21,18,00,AAXX 21184 41850 31930 00000 10211 20200 30050 40151 70500 333 58002 70000=
41850,2023,10,22,00,00,AAXX 22004 41850 31920 00000 10173 20160 30052 40154 71000 333 58002 70000=
41850,2023,10,22,06,00,AAXX 22064 41850 32956 00602 10304 20160 30047 40145 333 59006 70000=
41850,2023,10,22,12,00,AAXX 22124 41850 31940 00000 10247 20220 30029 40128 70500 333 10320 59003 70000=
41850,2023,10,22,18,00,AAXX 22184 41850 31935 00000 10201 20190 30046 40147 70500 333 59005 70000=
41850,2023,10,23,00,00,AAXX 23004 41850 31940 00000 10170 20170 30046 40148 70500 333 59006 70000=
41850,2023,10,23,06,00,AAXX 23064 41850 32456 21602 10302 20140 30035 40133 82500 333 56900 59012 70000 82618=
41850,2023,10,23,12,00,AAXX 23124 41850 31940 40000 10250 20230 30012 40111 70522 84030 333 10314 56090 70000 84362=
41850,2023,10,24,00,00,AAXX 24004 41850 31440 40000 10178 20170 30024 40125 70522 82530 333 56990 70000 82618 84362=
41850,2023,10,24,06,00,AAXX 24064 41850 32956 40000 10296 20180 30028 40126 80001 333 56009 59007 70000 84082=
41850,2023,10,24,12,00,AAXX 24124 41850 31950 00000 10226 20210 30009 40108 70520 333 10314 59003 70000=
41850,2023,10,24,18,00,AAXX 24184 41850 31935 00000 10200 20190 30020 40121 70500 333 59009 70000=
41850,2023,10,25,00,00,AAXX 25004 41850 31940 00000 10165 20165 30022 40124 70500 333 59002 70000=
41850,2023,10,26,06,00,AAXX 26064 41850 32957 01202 10293 20170 30039 40137 333 58008 70000=
41850,2023,10,26,12,00,AAXX 26124 41850 31940 00000 10272 20220 30012 40111 70500 333 10328 58003 70000=
41850,2023,10,26,18,00,AAXX 26184 41850 31920 00000 10230 20220 30031 40131 71000 333 58006 70000=
41851,2023,10,20,00,00,AAXX 20004 41851 31920 00000 10205 20205 30083 40118 71000 333 58012 70000=
41851,2023,10,20,06,00,AAXX 20064 41851 31445 20000 10296 20230 30087 40150 70500 82500 333 56900 58004 70000 82618=
41851,2023,10,20,12,00,AAXX 20124 41851 31940 00000 10265 20240 30057 40120 70510 333 10315 58004 70000=
41851,2023,10,20,18,00,AAXX 20184 41851 31940 00000 10228 20228 30083 40147 70500 333 58004 70000=
41851,2023,10,21,00,00,AAXX 21004 41851 31930 00000 10210 20200 30083 40148 70500 333 58000 70000=
41851,2023,10,21,06,00,AAXX 21064 41851 32950 00901 10292 20190 30090 40153 333 58003 70000=
41851,2023,10,21,12,00,AAXX 21124 41851 31945 00000 10273 20230 30065 40128 70500 333 10310 58008 70000=
41851,2023,10,21,18,00,AAXX 21184 41851 31945 00000 10218 20210 30085 40149 70500 333 58002 70000=
41851,2023,10,22,00,00,AAXX 22004 41851 31930 00000 10200 20190 30088 40153 70500 333 58005 70000=
41851,2023,10,22,06,00,AAXX 22064 41851 32950 00902 10295 20210 30083 40146 333 59007 70000=
41851,2023,10,22,12,00,AAXX 22124 41851 32450 10000 10271 20230 30060 40123 81500 333 10322 56900 59005 70000 81618=
41851,2023,10,22,18,00,AAXX 22184 41851 31940 00000 10215 20210 30081 40145 70510 333 59004 70000=
41851,2023,10,23,00,00,AAXX 23004 41851 31445 30501 10194 20170 30079 40144 70510 81530 333 56990 59009 70000 81618 83362=
41851,2023,10,23,06,00,AAXX 23064 41851 32450 60702 10285 20200 30075 40138 82520 333 56990 59008 70000 82618 86458=
41851,2023,10,23,12,00,AAXX 23124 41851 31445 80000 10255 20240 30048 40111 70522 8352/ 333 10293 56999 59012 70000 83618 88458=
41851,2023,10,23,18,00,AAXX 23184 41851 31440 60000 10220 20210 30069 40133 70522 83520 333 56990 59012 70000 83618 86458=
41851,2023,10,24,00,00,AAXX 24004 41851 31445 50000 10200 20190 30056 40120 70522 82510 333 56990 59023 70000 82618 85458=
41851,2023,10,24,06,00,AAXX 24064 41851 31445 50901 10274 20190 30069 40132 70522 82510 333 56990 59006 70000 82618 85458=
41851,2023,10,24,12,00,AAXX 24124 41851 32450 70000 10265 20240 30047 40110 83520 333 10298 56990 59001 70000 83618 87458=
41851,2023,10,24,18,00,AAXX 24184 41851 31430 20000 10215 20210 30052 40116 70521 82500 333 56900 59017 70000 82618=
41851,2023,10,25,00,00,AAXX 25004 41851 31440 10000 10192 20180 30057 40122 70511 81500 333 56900 58001 70000 81618=
41851,2023,10,26,00,00,AAXX 26004 41851 31910 00000 10196 20190 30063 40127 71000 333 58006 70000=
41851,2023,10,26,06,00,AAXX 26064 41851 31940 01802 10305 20220 30072 40134 70500 333 58003 70000=
41851,2023,10,26,12,00,AAXX 26124 41851 31940 00000 10260 20230 30049 40112 70500 333 10320 58003 70000=
41851,2023,10,26,18,00,AAXX 26184 41851 31940 00000 10222 20210 30068 40132 70500 333 58007 70000=
41856,2023,10,20,00,00,AAXX 20004 41856 31920 00000 10213 20200 30108 40144 71000 333 58012 70000=
41856,2023,10,20,06,00,AAXX 20064 41856 32956 30902 10297 20270 30110 40145 83030 333 56090 58007 70000=
41856,2023,10,20,12,00,AAXX 20124 41856 31940 00000 10263 20240 30083 40119 70500 333 10317 58004 70000=
41856,2023,10,20,18,00,AAXX 20184 41856 31925 00000 10227 20227 30108 40144 70500 333 58002 70000=
41856,2023,10,21,00,00,AAXX 21004 41856 31930 00502 10212 20200 30107 40143 70500 333 59001 70000=
41856,2023,10,21,06,00,AAXX 21064 41856 32956 00502 10295 20210 30112 40147 333 58002 70000=
41856,2023,10,21,12,00,AAXX 21124 41856 31950 00000 10262 20240 30091 40127 70500 333 10317 58008 70000=
41856,2023,10,21,18,00,AAXX 21184 41856 31925 00501 10220 20210 30111 40147 70500 333 58003 70000=
41856,2023,10,22,00,00,AAXX 22004 41856 31930 00402 10198 20190 30109 40146 70500 333 58002 70000=
41856,2023,10,22,06,00,AAXX 22064 41856 32956 00704 10300 20220 30106 40141 333 59006 70000=
41856,2023,10,22,12,00,AAXX 22124 41856 32940 10000 10264 20230 30086 40122 81030 333 10314 56090 59005 70000 81362=
41856,2023,10,22,18,00,AAXX 22184 41856 31925 00000 10216 20210 30105 40141 70500 333 59006 70000=
41856,2023,10,23,00,00,AAXX 23004 41856 31940 50501 10205 20190 30103 40139 70522 85030 333 56090 58006 70000 85362=
41856,2023,10,23,06,00,AAXX 23064 41856 32950 60802 10288 20210 30097 40132 86070 333 56090 59009 70000 84362=
41856,2023,10,23,12,00,AAXX 23124 41856 32440 60501 10270 20230 30072 40107 83530 333 10303 56990 59014 70000 83618 86362=
41856,2023,10,23,18,00,AAXX 23184 41856 31930 10502 10226 20220 30092 40128 70511 81030 333 56090 59013 70000 81362=
41856,2023,10,24,00,00,AAXX 24004 41856 31435 50502 10210 20190 30082 40118 70521 82530 333 56990 59021 70000 82618 85362=
41856,2023,10,24,06,00,AAXX 24064 41856 32956 50503 10295 20220 30087 40122 85030 333 56090 59010 70000 85362=
41856,2023,10,24,12,00,AAXX 24124 41856 32440 40000 10260 20230 30069 40105 82430 333 10306 56990 59003 70000 81618 84362=
41856,2023,10,24,18,00,AAXX 24184 41856 31930 20501 10224 20210 30076 40112 70511 82030 333 56090 59016 70000 82362=
41856,2023,10,25,00,00,AAXX 25004 41856 31935 10502 10201 20180 30079 40116 70511 81030 333 56090 59003 70000 81362=
41856,2023,10,25,18,00,AAXX 25184 41856 31930 00000 10224 20200 30093 40129 70500 333 58017 70000=
41856,2023,10,26,00,00,AAXX 26004 41856 31930 00000 10204 20190 30089 40126 70500 333 58010 70000=
41856,2023,10,26,06,00,AAXX 26064 41856 32950 40501 10313 20210 30099 40134 84030 333 56090 58007 70000 83362=
41856,2023,10,26,12,00,AAXX 26124 41856 31940 00000 10270 20240 30073 40109 70500 333 10325 58005 70000=
41856,2023,10,26,18,00,AAXX 26184 41856 31930 00000 10233 20220 30094 40130 70500 333 58001 70000=
41858,2023,10,20,00,00,AAXX 20004 41858 01908 00000 10216 20210 30102 40148 74200 333 58011 70000==
41858,2023,10,20,03,00,AAXX 20034 41858 01930 00605 10270 20220 30118 40164 70540 333 20204 58006 70000==
41858,2023,10,20,06,00,AAXX 20064 41858 01550 31205 10315 20220 30103 40148 70542 83100 333 58004 70000 83825==
41858,2023,10,20,09,00,AAXX 20094 41858 01450 50604 10310 20210 30077 40122 70522 83520 333 58003 70000 83618 85458==
41858,2023,10,20,12,00,AAXX 20124 41858 01940 03402 10276 20240 30074 40119 70520 333 10324 58002 70000==
41858,2023,10,20,15,00,AAXX 20154 41858 01935 02402 10264 20230 30097 40143 70500 333 58005 70000==
41858,2023,10,20,18,00,AAXX 20184 41858 01930 02402 10252 20230 30104 40152 70500 333 58004 70000==
41858,2023,10,20,21,00,AAXX 20214 41858 01915 00000 10230 20210 30102 40148 71000 333 58005 70000==
41858,2023,10,21,00,00,AAXX 21004 41858 01908 00000 10222 20210 30105 40151 74000 333 58003 70000==
41858,2023,10,21,03,00,AAXX 21034 41858 01930 00605 10262 20200 30123 40169 70500 333 20210 58005 70000==
41858,2023,10,21,06,00,AAXX 21064 41858 01550 30905 10305 20220 30108 40153 70500 83100 333 58005 70000 83825==
41858,2023,10,21,09,00,AAXX 21094 41858 01550 20606 10314 20210 30081 40126 70510 82100 333 58004 70000 82825==
41858,2023,10,21,12,00,AAXX 21124 41858 01940 00902 10280 20230 30084 40130 70500 333 10317 58010 70000==
41858,2023,10,21,15,00,AAXX 21154 41858 01940 00000 10254 20230 30105 40151 70500 333 58008 70000==
41858,2023,10,21,18,00,AAXX 21184 41858 01930 00000 10248 20240 30110 40156 70500 333 58004 70000==
41858,2023,10,21,21,00,AAXX 21214 41858 01930 00305 10230 20210 30105 40154 70500 333 58006 70000==
41858,2023,10,22,00,00,AAXX 22004 41858 01930 00305 10217 20200 30102 40151 70500 333 58000 70000==
41858,2023,10,22,03,00,AAXX 22034 41858 01935 00905 10262 20180 30123 40169 70500 333 20205 58000 70000==
41858,2023,10,22,06,00,AAXX 22064 41858 01945 00505 10312 20180 30099 40144 70500 333 59009 70000==
41858,2023,10,22,09,00,AAXX 22094 41858 01/50 20000 10322 20210 30078 40123 70500 82030 333 59003 70000 82362==
41858,2023,10,22,12,00,AAXX 22124 41858 01/40 20000 10270 20220 30079 40125 70510 82030 333 10330 59005 70000 82362==
41858,2023,10,22,15,00,AAXX 22154 41858 01940 00000 10250 20230 30101 40147 70500 333 59004 70000==
41858,2023,10,22,18,00,AAXX 22184 41858 01935 00000 10240 20230 30108 40154 70500 333 59002 70000==
41858,2023,10,22,21,00,AAXX 22214 41858 01930 00000 10228 20210 30091 40137 70500 333 59017 70000==
41858,2023,10,23,00,00,AAXX 23004 41858 01/30 43605 10216 20200 30098 40144 70510 84030 333 59007 70000 84362==
41858,2023,10,23,06,00,AAXX 23064 41858 01550 50605 10290 20210 30093 40139 70522 82140 333 59006 70000 82825 85362==
41858,2023,10,23,09,00,AAXX 23094 41858 01/50 60000 10295 20230 30065 40110 70522 86020 333 70000 86458==
41858,2023,10,23,12,00,AAXX 23124 41858 01440 60000 10282 20230 30067 40113 70522 82520 333 10305 59012 70000 82616 86458==
41858,2023,10,23,15,00,AAXX 23154 41858 01440 60602 10256 20240 30083 40129 70522 83520 333 59018 70000 83616 86458==
41858,2023,10,23,18,00,AAXX 23184 41858 01930 60603 10248 20240 30091 40137 70522 83520 333 59017 70000 83616 86458==
41858,2023,10,23,21,00,AAXX 23214 41858 01/35 40505 10230 20200 30073 40119 70522 84030 333 59018 70000 84362==
41858,2023,10,24,00,00,AAXX 24004 41858 01440 70505 10220 20180 30076 40122 70522 84520 333 59022 70000 84615 86458==
41858,2023,10,24,03,00,AAXX 24034 41858 01450 60905 10240 20190 30101 40147 70522 84520 333 20210 59008 70000 84615 86458==
41858,2023,10,24,06,00,AAXX 24064 41858 01450 60905 10288 20210 30085 40131 70522 83520 333 59008 70000 83615 86458==
41858,2023,10,24,09,00,AAXX 24094 41858 01450 50905 10302 20240 30056 40101 70522 83520 333 59009 70000 83616 85458==
41858,2023,10,24,12,00,AAXX 24124 41858 01440 81404 10276 20260 30064 40110 70522 8452/ 333 10306 59003 70000 84616 88458==
41858,2023,10,24,15,00,AAXX 24154 41858 01440 40304 10256 20250 30076 40122 70522 82520 333 59007 70000 82625 84458==
41858,2023,10,24,18,00,AAXX 24184 41858 01935 40904 10246 20240 30080 40126 70522 83520 333 59011 70009 83618 84458==
41858,2023,10,24,21,00,AAXX 24214 41858 01930 00000 10220 20190 30077 40123 70500 333 58004 70000==
41858,2023,10,25,00,00,AAXX 25004 41858 01920 00000 10214 20190 30079 40125 71000 333 58003 70000==
41858,2023,10,25,03,00,AAXX 25034 41858 01940 00606 10254 20180 30101 40147 70500 333 20204 58000 70000==
41858,2023,10,26,06,00,AAXX 26064 41858 01540 30000 10320 20200 30092 40137 70500 333 58006 70000 83625==
41858,2023,10,26,09,00,AAXX 26094 41858 01950 02406 10330 20220 30066 40110 70500 333 58004 70000==
41858,2023,10,26,12,00,AAXX 26124 41858 NIL=
41858,2023,10,26,15,00,AAXX 26154 41858 01940 02405 10236 20210 30085 40131 70500 333 58005 70000==
41858,2023,10,26,18,00,AAXX 26184 41858 01935 02405 10225 20210 30085 40131 70500 333 58005 70000==
41858,2023,10,26,21,00,AAXX 26214 41858 01920 00000 10216 20200 30079 40125 71000 333 58005 70000==
41859,2023,10,20,00,00,AAXX 20004 41859 02/30 40000 10225 20220 30107 40145 84030 333 58006 70000 84362==
41859,2023,10,20,03,00,AAXX 20034 41859 02950 00501 10280 20250 30126 40163 333 20223 58006 70000==
41859,2023,10,20,06,00,AAXX 20064 41859 02450 40502 10310 20210 30109 40146 84400 333 58000 70000 81618 83828==
41859,2023,10,20,09,00,AAXX 20094 41859 02450 50000 10310 20210 30083 40120 84430 333 58003 70000 81618 83822 85362==
41859,2023,10,20,12,00,AAXX 20124 41859 02430 30000 10282 20240 30080 40117 82430 333 10320 59001 70000 82618 83362==
41859,2023,10,20,15,00,AAXX 20154 41859 02930 00000 10253 20240 30104 40142 333 58004 70000==
41859,2023,10,20,18,00,AAXX 20184 41859 02930 00000 10243 20230 30108 40146 333 58002 70000==
41859,2023,10,20,21,00,AAXX 20214 41859 02930 00502 10234 20210 30102 40140 333 58003 70000==
41859,2023,10,21,00,00,AAXX 21004 41859 01930 00502 10230 20210 30106 40144 70500 333 59001 70000==
41859,2023,10,21,03,00,AAXX 21034 41859 01450 30502 10269 20200 30129 40166 70520 333 20225 58003 70000 83618==
41859,2023,10,21,06,00,AAXX 21064 41859 02450 30502 10301 20210 30114 40151 333 58005 70000 83618==
41859,2023,10,21,09,00,AAXX 21094 41859 02450 30502 10319 20210 30088 40125 81530 333 58005 70000 81618 83362==
41859,2023,10,21,12,00,AAXX 21124 41859 02430 40000 10284 20230 30091 40128 81530 333 10322 58011 70000 81618 84362==
41859,2023,10,21,15,00,AAXX 21154 41859 02430 40000 10255 20240 30111 40149 81530 333 58007 70000 81618 84362==
41859,2023,10,21,18,00,AAXX 21184 41859 02430 40000 10240 20220 30109 40147 82530 333 58001 70000 82618 84362==
41859,2023,10,21,21,00,AAXX 21214 41859 02430 50000 10230 20210 30098 40136 83530 333 59004 70000 83618 84362==
41859,2023,10,22,00,00,AAXX 22004 41859 02430 50000 10220 20200 30104 40142 83530 333 59002 70000 83618 84362==
41859,2023,10,22,03,00,AAXX 22034 41859 02450 50000 10263 20190 30129 40166 83530 333 20216 58000 70000 83618 84362==
41859,2023,10,22,06,00,AAXX 22064 41859 02450 50502 10307 20220 30109 40146 83530 333 58000 70000 83618 85362==
41859,2023,10,22,09,00,AAXX 22094 41859 02450 20901 10318 20210 30085 40122 82500 333 59003 70000 82618==
41859,2023,10,22,12,00,AAXX 22124 41859 02440 40501 10298 20230 30087 40124 81530 333 10322 59004 70000 81618 83362==
41859,2023,10,22,15,00,AAXX 22154 41859 02430 40501 10260 20230 30107 40145 81530 333 59004 70000 81618 83362==
41859,2023,10,22,18,00,AAXX 22184 41859 02430 50000 10244 20220 30106 40144 83520 333 59003 70000 83618 85458==
41859,2023,10,22,21,00,AAXX 22214 41859 02430 50501 10232 20210 30094 40132 83520 333 59004 70000 83618 85458==
41859,2023,10,23,00,00,AAXX 23004 41859 02430 60502 10221 20180 30102 40140 83520 333 59002 70000 83618 86458==
41859,2023,10,23,03,00,AAXX 23034 41859 02450 60502 10264 20170 30116 40152 83520 333 20210 59013 70000 83618 86458==
41859,2023,10,23,06,00,AAXX 23064 41859 02450 70502 10294 20210 30099 40136 83520 333 59010 70000 83618 87458==
41859,2023,10,23,09,00,AAXX 23094 41859 02450 60000 10310 20230 30072 40109 83570 333 59013 70000 83618 85458==
41859,2023,10,23,12,00,AAXX 23124 41859 02440 60000 10277 20240 30076 40113 83570 333 10323 59011 70000 83618 85458==
41859,2023,10,23,15,00,AAXX 23154 41859 02430 60501 10261 20230 30090 40128 83530 333 59017 70000 83618 86362==
41859,2023,10,23,18,00,AAXX 23184 41859 02430 70000 10244 20230 30092 40130 84620 333 59014 70000 82710 83618 87458==
41859,2023,10,23,21,00,AAXX 23214 41859 02/30 30502 10232 20210 30082 40120 83030 333 59012 70000 83362==
41859,2023,10,24,00,00,AAXX 24004 41859 01930 00502 10227 20200 30081 40119 70500 333 59021 70000==
41859,2023,10,24,03,00,AAXX 24034 41859 01450 80502 10254 20190 30108 40146 70520 8562/ 333 20214 59008 70000 82710 83618 88458==
41859,2023,10,24,06,00,AAXX 24064 41859 02450 80502 10301 20220 30087 40124 8562/ 333 59012 70000 82710 83618 88458==
41859,2023,10,24,09,00,AAXX 24094 41859 02450 81303 10298 20230 30065 40102 8562/ 333 59007 70000 83710 84618 88458==
41859,2023,10,24,12,00,AAXX 24124 41859 02430 80000 10270 20220 30070 40107 8562/ 333 10311 59006 70000 82710 83618 88458==
41859,2023,10,24,15,00,AAXX 24154 41859 02430 60000 10253 20220 30083 40121 83520 333 59007 70000 83618 86458==
41859,2023,10,24,18,00,AAXX 24184 41859 02430 40000 10240 20220 30077 40115 82530 333 59015 70000 82618 84362==
41859,2023,10,24,21,00,AAXX 24214 41859 02430 40000 10232 20200 30071 40109 82530 333 59011 70000 82618 84362==
41859,2023,10,25,00,00,AAXX 25004 41859 02930 00000 10223 20190 30080 40118 333 59001 70000==
41859,2023,10,25,03,00,AAXX 25034 41859 02950 00502 10251 20200 30105 40142 333 20218 59003 70000==
41859,2023,10,25,06,00,AAXX 25064 41859 02950 00502 10306 20200 30091 40127 333 58004 70000==
41859,2023,10,25,09,00,AAXX 25094 41859 02950 03602 10320 20180 30069 40106 333 58004 70000==
41859,2023,10,25,12,00,AAXX 25124 41859 02940 00502 10290 20220 30072 40109 333 10324 58002 70000==
41859,2023,10,25,15,00,AAXX 25154 41859 02930 00601 10255 20220 30089 40127 333 58006 70000==
41859,2023,10,25,18,00,AAXX 25184 41859 02930 00000 10238 20230 30088 40126 333 58011 70000==
41859,2023,10,25,21,00,AAXX 25214 41859 02430 40000 10228 20220 30084 40122 82520 333 58013 70000 82618 84458==
41859,2023,10,26,00,00,AAXX 26004 41859 02430 70000 10223 20210 30088 40126 84520 333 58008 70000 84618 87458==
41859,2023,10,26,03,00,AAXX 26034 41859 02450 30502 10279 20220 30112 40150 83500 333 20220 58007 70000 83618==
41859,2023,10,26,06,00,AAXX 26064 41859 02557 23102 10310 20200 30119 40141 82100 333 58009 70000 82825==
41859,2023,10,26,09,00,AAXX 26094 41859 02450 30000 10326 20210 30073 40109 83500 333 58004 70000 83682==
41859,2023,10,26,12,00,AAXX 26124 41859 02940 00000 10285 20220 30076 40113 333 10332 58004 70000==
41859,2023,10,26,15,00,AAXX 26154 41859 02930 00000 10255 20230 30091 40129 333 58002 70000==
41859,2023,10,26,18,00,AAXX 26184 41859 02930 00000 10240 20220 30094 40132 333 58006 70000==
41859,2023,10,26,21,00,AAXX 26214 41859 02930 00000 10228 20220 30083 40121 333 59001 70000==
41863,2023,10,20,00,00,AAXX 20004 41863 01950 00000 10208 20200 30102 40146 70500 333 58006 70000==
41863,2023,10,20,03,00,AAXX 20034 41863 02950 01301 10270 20220 30121 40164 333 20203 58003 70000==
41863,2023,10,20,06,00,AAXX 20064 41863 02557 30901 10310 20210 30108 40150 83400 333 58005 70000 83620==
41863,2023,10,20,09,00,AAXX 20094 41863 02557 32701 10315 20210 30081 40123 83400 333 58006 70000 83620==
41863,2023,10,20,12,00,AAXX 20124 41863 02956 00000 10285 20240 30076 40119 333 10323 58003 70000==
41863,2023,10,20,15,00,AAXX 20154 41863 01950 00000 10240 20220 30098 40141 70500 333 58003 70000==
41863,2023,10,20,18,00,AAXX 20184 41863 01950 00000 10230 20220 30105 40149 70500 333 58004 70000==
41863,2023,10,20,21,00,AAXX 20214 41863 01950 00000 10226 20220 30102 40146 70500 333 58003 70000==
41863,2023,10,21,00,00,AAXX 21004 41863 01950 00000 10211 20200 30101 40145 70500 333 59001 70000==
41863,2023,10,21,03,00,AAXX 21034 41863 02956 00503 10265 20220 30123 40166 333 20208 58002 70000==
41863,2023,10,21,06,00,AAXX 21064 41863 02956 00503 10265 20220 30123 40166 333 20208 58002 70000==
41863,2023,10,21,09,00,AAXX 21094 41863 02557 30903 10315 20220 30083 40125 83400 333 58002 70000 83620==
41863,2023,10,21,12,00,AAXX 21124 41863 02556 20000 10280 20240 30085 40128 82400 333 10316 58009 70000 82620==
41863,2023,10,21,15,00,AAXX 21154 41863 01950 00000 10250 20230 30109 40152 70500 333 58011 70000==
41863,2023,10,21,18,00,AAXX 21184 41863 01950 00000 10230 20210 30104 40148 70500 333 59001 70000==
41863,2023,10,21,21,00,AAXX 21214 41863 01950 00000 10225 20220 30101 40145 70500 333 59001 70000==
41863,2023,10,22,00,00,AAXX 22004 41863 01950 00000 10205 20200 30106 40150 70500 333 58005 70000==
41863,2023,10,22,03,00,AAXX 22034 41863 02957 00905 10272 20210 30125 40168 333 20200 58002 70000==
41863,2023,10,22,06,00,AAXX 22064 41863 02957 00505 10305 20250 30096 40138 333 59018 70000==
41863,2023,10,22,09,00,AAXX 22094 41863 02957 00501 10320 20210 30080 40122 333 59003 70000==
41863,2023,10,22,12,00,AAXX 22124 41863 02956 00000 10265 20240 30081 40124 333 10320 59004 70000==
41863,2023,10,22,15,00,AAXX 22154 41863 02950 00000 10238 20220 30101 40144 333 59008 70000==
41863,2023,10,22,18,00,AAXX 22184 41863 01940 00000 10226 20220 30100 40144 70500 333 59004 70000==
41863,2023,10,22,21,00,AAXX 22214 41863 01940 00000 10220 20210 30097 40141 70500 333 59004 70000==
41863,2023,10,23,00,00,AAXX 23004 41863 01450 40000 10215 20210 30099 40143 70500 82530 333 59007 70000 82618 84362==
41863,2023,10,23,03,00,AAXX 23034 41863 02956 00905 10265 20190 30112 40155 333 20205 59013 70000==
41863,2023,10,23,06,00,AAXX 23064 41863 02456 60904 10290 20200 30093 40136 84520 333 59003 70000 84618 86458==
41863,2023,10,23,09,00,AAXX 23094 41863 02456 60901 10300 20230 30068 40110 83520 333 59012 70000 83618 86458==
41863,2023,10,23,12,00,AAXX 23124 41863 02456 50000 10275 20240 30069 40112 83520 333 10305 59012 70000 83618 85458==
41863,2023,10,23,15,00,AAXX 23154 41863 02450 50901 10253 20230 30085 40128 82520 333 59016 70000 82618 85458==
41863,2023,10,23,18,00,AAXX 23184 41863 01940 00901 10248 20230 30086 40129 70520 333 59014 70000==
41863,2023,10,23,21,00,AAXX 23214 41863 01940 00902 10237 20220 30083 40126 70500 333 59016 70000==
41863,2023,10,24,00,00,AAXX 24004 41863 01450 40502 10220 20200 30076 40120 70500 82530 333 59023 70000 82618 84362==
41863,2023,10,24,03,00,AAXX 24034 41863 02456 53602 10241 20190 30101 40144 83520 333 20215 59011 70000 83618 85458==
41863,2023,10,24,06,00,AAXX 24064 41863 02456 50902 10280 20210 30090 40133 82520 333 59003 70000 82618 85458==
41863,2023,10,24,09,00,AAXX 24094 41863 02457 50503 10310 20230 30059 40101 83520 333 59009 70000 83618 85458==
41863,2023,10,24,12,00,AAXX 24124 41863 02456 60903 10275 20230 30063 40106 84520 333 10313 59006 70000 84618 86458==
41863,2023,10,24,15,00,AAXX 24154 41863 02450 50000 10245 20240 30078 40121 83520 333 59007 70000 83618 85458==
41863,2023,10,24,18,00,AAXX 24184 41863 02450 50000 10236 20230 30076 40119 83520 333 59010 70000 83618 85458==
41863,2023,10,24,21,00,AAXX 24214 41863 01950 00000 10225 20220 30073 40116 70500 333 59010 70000==
41863,2023,10,25,00,00,AAXX 25004 41863 01950 00000 10211 20200 30073 40117 70500 333 59003 70000==
41863,2023,10,25,03,00,AAXX 25034 41863 02956 03602 10250 20190 30102 40145 333 20205 58001 70000==
41863,2023,10,25,09,00,AAXX 25094 41863 02957 02701 10325 20190 30066 40108 333 58007 70000==
41863,2023,10,25,12,00,AAXX 25124 41863 02956 02701 10275 20230 30067 40110 333 10330 58004 70000==
41863,2023,10,25,15,00,AAXX 25154 41863 01950 00000 10335 20220 30084 40127 70500 333 58006 70000==
41863,2023,10,25,18,00,AAXX 25184 41863 01950 00000 10226 20210 30084 40128 70500 333 58008 70000==
41863,2023,10,26,00,00,AAXX 26004 41863 01950 00000 10212 20200 30084 40128 70500 333 58011 70000==
41863,2023,10,26,06,00,AAXX 26064 41863 02957 02704 10312 20190 30099 40141 333 58010 70000==
41863,2023,10,26,12,00,AAXX 26124 41863 02950 00000 10275 20240 30070 40113 333 10310 58003 70000==
41863,2023,10,26,15,00,AAXX 26154 41863 02950 00000 10250 20220 30086 40129 333 58002 70000==
41863,2023,10,26,18,00,AAXX 26184 41863 01940 00000 10231 20210 30089 40133 70500 333 58005 70000==
41863,2023,10,26,21,00,AAXX 26214 41863 01940 00000 10216 20210 30085 40129 70500 333 58004 70000==
41881,2023,10,20,00,00,AAXX 20004 41881 31930 00000 10217 20217 30134 40155 70500 333 58013 70000=
41881,2023,10,20,06,00,AAXX 20064 41881 32457 12601 10300 20220 30125 40145 81500 333 56900 59002 70000 81618=
41881,2023,10,20,12,00,AAXX 20124 41881 32956 00000 10270 20240 30097 40117 333 10315 59002 70000=
41881,2023,10,20,18,00,AAXX 20184 41881 32950 00000 10233 20220 30123 40143 333 59002 70000=
41881,2023,10,21,00,00,AAXX 21004 41881 31935 00000 10215 20215 30122 40142 70500 333 59012 70000=
41881,2023,10,21,06,00,AAXX 21064 41881 32456 43603 10295 20230 30128 40148 84500 333 56900 58003 70000 84617=
41881,2023,10,21,12,00,AAXX 21124 41881 32956 00000 10274 20250 30104 40124 333 10312 58007 70000=
41881,2023,10,21,18,00,AAXX 21184 41881 31940 00000 10229 20220 30124 40144 70500 333 58001 70000=
41881,2023,10,22,00,00,AAXX 22004 41881 31920 00000 10210 20210 30125 40146 71000 333 58003 70000=
41881,2023,10,22,06,00,AAXX 22064 41881 32958 33002 10295 20240 30123 40143 83030 333 56090 58005 70000 83362=
41881,2023,10,22,12,00,AAXX 22124 41881 32456 40000 10260 20240 30100 40120 82530 333 10328 56990 59004 70000 82618 84362=
41881,2023,10,22,18,00,AAXX 22184 41881 32450 43301 10240 20240 30120 40140 84500 333 56900 59002 70000 84618=
41881,2023,10,23,00,00,AAXX 23004 41881 32456 63601 10215 20215 30116 40136 83501 333 56909 59009 70000 83618 85082=
41881,2023,10,23,06,00,AAXX 23064 41881 32457 53602 10292 20230 30114 40133 83520 333 56990 59009 70000 83618 85460=
41881,2023,10,23,12,00,AAXX 23124 41881 32456 50000 10280 20250 30087 40107 83520 333 10320 56990 59013 70000 83618 85460=
41881,2023,10,24,00,00,AAXX 24004 41881 32450 20000 10225 20225 30095 40115 82500 333 56900 59021 70000 82618=
41881,2023,10,24,06,00,AAXX 24064 41881 32456 73601 10290 20240 30105 40125 84520 333 56990 59009 70000 84618 87460=
41881,2023,10,24,12,00,AAXX 24124 41881 11450 43601 10251 20240 30085 40106 60037 70162 84500 333 10294 56900 59002 70030 84618=
41881,2023,10,24,18,00,AAXX 24184 41881 32950 03601 10230 20230 30100 40121 333 58003 70030=
41881,2023,10,25,00,00,AAXX 25004 41881 32450 40000 10221 20220 30096 40117 84500 333 56900 58001 70030 84618=
41881,2023,10,25,06,00,AAXX 25064 41881 32957 03602 10290 20220 30103 40123 333 59002 70030=
41881,2023,10,25,12,00,AAXX 25124 41881 32950 03201 10264 20230 30089 40109 333 10310 58004 70000=
41881,2023,10,25,18,00,AAXX 25184 41881 32450 42701 10232 20220 30106 40126 84500 333 56900 58006 70000=
41881,2023,10,26,00,00,AAXX 26004 41881 32450 60000 10222 20220 30109 40129 83520 333 56990 58013 70000 83618 86460=
41881,2023,10,26,06,00,AAXX 26064 41881 32457 53201 10300 20230 30119 40139 83520 333 56990 58016 70000 83618 85460=
41881,2023,10,26,12,00,AAXX 26124 41881 NIL=
41881,2023,10,26,18,00,AAXX 26184 41881 32950 00000 10224 20210 30112 40132 333 58006 70000=
41883,2023,10,20,00,00,AAXX 20004 41883 02940 00000 10230 20210 30124 40145 333 58008 70000==
41883,2023,10,20,03,00,AAXX 20034 41883 02950 00000 10284 20220 30140 40160 333 20224 58009 70000==
41883,2023,10,20,06,00,AAXX 20064 41883 02456 20000 10316 20220 30124 40144 82500 333 58001 70000 82618==
41883,2023,10,20,09,00,AAXX 20094 41883 02556 22303 10320 20200 30098 40118 82100 333 59001 70000 82828==
41883,2023,10,20,12,00,AAXX 20124 41883 02440 40000 10290 20220 30099 40119 82510 333 10328 58004 70000 82616 84459==
41883,2023,10,20,15,00,AAXX 20154 41883 02930 00000 10264 20220 30119 40139 333 58001 70000==
41883,2023,10,20,18,00,AAXX 20184 41883 02930 00000 10254 20220 30122 40142 333 58001 70000==
41883,2023,10,20,21,00,AAXX 20214 41883 02930 00000 10247 20230 30117 40137 333 58004 70000==
41883,2023,10,21,00,00,AAXX 21004 41883 02940 00000 10235 20220 30118 40139 333 59006 70000==
41883,2023,10,21,03,00,AAXX 21034 41883 02956 03102 10282 20230 30137 40157 333 20230 59003 70000==
41883,2023,10,21,06,00,AAXX 21064 41883 02456 30000 10310 20220 30123 40143 83400 333 59001 70000 81616 83828==
41883,2023,10,21,09,00,AAXX 21094 41883 02456 20000 10322 20180 30100 40120 82500 333 58002 70000 82618==
41883,2023,10,21,12,00,AAXX 21124 41883 02930 00000 10274 20210 30105 40125 333 10325 58006 70000==
41883,2023,10,21,15,00,AAXX 21154 41883 02930 00000 10260 20230 30126 40146 333 58007 70000==
41883,2023,10,21,18,00,AAXX 21184 41883 02930 00000 10252 20220 30125 40145 333 58003 70000==
41883,2023,10,21,21,00,AAXX 21214 41883 02930 00000 10243 20220 30118 40138 333 58001 70000==
41883,2023,10,22,00,00,AAXX 22004 41883 02930 00000 10229 20220 30123 40143 333 58005 70000==
41883,2023,10,22,03,00,AAXX 22034 41883 02/56 20000 10265 20230 30138 40158 82030 333 20220 58001 70000 82362==
41883,2023,10,22,06,00,AAXX 22064 41883 02/56 30000 10320 20200 30118 40138 83031 333 59005 70000 83362==
41883,2023,10,22,09,00,AAXX 22094 41883 02/56 40000 10322 20210 30098 40118 84030 333 59002 70000 84362==
41883,2023,10,22,12,00,AAXX 22124 41883 02/30 30000 10287 20240 30099 40119 83030 333 10335 59006 70000 83362==
41883,2023,10,22,15,00,AAXX 22154 41883 02/30 20000 10266 20230 30120 40140 82030 333 59006 70000 82362==
41883,2023,10,22,18,00,AAXX 22184 41883 02430 40000 10258 20230 30117 40137 82520 333 59008 70000 82618 84458==
41883,2023,10,22,21,00,AAXX 22214 41883 02930 00000 10248 20230 30108 40128 333 59010 70000==
41883,2023,10,23,00,00,AAXX 23004 41883 02940 00000 10240 20220 30113 40134 333 59010 70000==
41883,2023,10,23,03,00,AAXX 23034 41883 02/56 50000 10274 20230 30127 40147 85030 333 20234 59011 70000 85362==
41883,2023,10,23,06,00,AAXX 23064 41883 02556 50000 10314 20220 30110 40130 82110 333 59008 70000 82828 85459==
41883,2023,10,23,09,00,AAXX 23094 41883 02456 60000 10320 20210 30079 40099 82511 333 59019 70000 82616 86459==
41883,2023,10,23,12,00,AAXX 23124 41883 21330 80000 10258 20220 30095 40115 72122 8562/ 333 10327 59004 60005 85709 88458==
41883,2023,10,23,15,00,AAXX 23154 41883 42430 60000 10255 20230 30104 40124 82530 333 59016 82616 86362==
41883,2023,10,23,18,00,AAXX 23184 41883 42430 60000 10250 20220 30102 40122 82530 333 59015 82616 86362==
41883,2023,10,23,21,00,AAXX 23214 41883 42930 00000 10248 20230 30093 40113 333 59015==
41883,2023,10,24,00,00,AAXX 24004 41883 42/30 40000 10244 20220 30093 40114 84030 333 59020 84362==
41883,2023,10,24,03,00,AAXX 24034 41883 42456 80000 10278 20240 30115 40135 8552/ 333 20240 59012 85616 88459==
41883,2023,10,24,06,00,AAXX 24064 41883 42356 80000 10290 20240 30103 40123 8562/ 333 59007 85709 88459==
41883,2023,10,24,09,00,AAXX 24094 41883 42456 50502 10306 20250 30076 40096 83430 333 59003 81616 83828 85362==
41883,2023,10,24,12,00,AAXX 24124 41883 02430 60000 10272 20230 30080 40100 82530 333 10307 59015 70000 82616 86362==
41883,2023,10,24,15,00,AAXX 24154 41883 02/30 50000 10260 20240 30095 40115 85030 333 59009 70000 85362==
41883,2023,10,24,18,00,AAXX 24184 41883 02/30 50000 10252 20230 30093 40113 85030 333 59009 70000 85362==
41883,2023,10,24,21,00,AAXX 24214 41883 02430 60000 10246 20240 30087 40107 83510 333 59006 70000 83615 86459==
41883,2023,10,25,00,00,AAXX 25004 41883 02930 00000 10234 20220 30091 40111 333 59002 70000==
41883,2023,10,25,03,00,AAXX 25034 41883 02956 03104 10276 20220 30116 40136 333 20225 58001 70000==
41883,2023,10,25,06,00,AAXX 25064 41883 02456 13102 10310 20230 30105 40125 81500 333 58002 70000 81616==
41883,2023,10,25,09,00,AAXX 25094 41883 02456 60000 10324 20220 30081 40101 84810 333 58005 70000 83616 86459==
41883,2023,10,25,12,00,AAXX 25124 41883 02940 00000 10298 20240 30086 40106 333 10328 58006 70000==
41883,2023,10,25,15,00,AAXX 25154 41883 02/30 20000 10268 20230 30104 40124 82030 333 58009 70000 82362==
41883,2023,10,25,18,00,AAXX 25184 41883 02930 00000 10256 20230 30104 40123 333 58011 70000==
41883,2023,10,25,21,00,AAXX 25214 41883 02930 00000 10250 20220 30044 40114 333 58012 70000==
41883,2023,10,26,00,00,AAXX 26004 41883 02930 00000 10240 20220 30133 40124 333 58012 70000==
41883,2023,10,26,03,00,AAXX 26034 41883 02456 60000 10258 20240 30131 40151 84510 333 20235 58015 70000 84616 86459==
41883,2023,10,26,06,00,AAXX 26064 41883 02556 23602 10312 20200 30120 40140 82100 333 58015 70000 82828==
41883,2023,10,26,09,00,AAXX 26094 41883 02456 30000 10320 20180 30090 40110 83500 333 58009 70000 83616==
41883,2023,10,26,12,00,AAXX 26124 41883 02930 00000 10280 20220 30093 40113 333 10326 58007 70000==
41883,2023,10,26,15,00,AAXX 26154 41883 02930 00000 10260 20230 30112 40132 333 58008 70000==
41883,2023,10,26,18,00,AAXX 26184 41883 02930 00000 10245 20230 30112 40132 333 58008 70000==
41883,2023,10,26,21,00,AAXX 26214 41883 02930 00000 10240 20220 30103 40124 333 58004 70000==
41886,2023,10,20,00,00,AAXX 20004 41886 01950 00000 10225 20220 30121 40142 70500 333 58008 70000==
41886,2023,10,20,03,00,AAXX 20034 41886 02956 00000 10275 20240 30140 40161 333 20225 58006 70000==
41886,2023,10,20,06,00,AAXX 20064 41886 02557 10000 10310 20220 30126 40146 81200 333 58002 70000 81825==
41886,2023,10,20,09,00,AAXX 20094 41886 02457 20000 10305 20240 30100 40120 82400 333 58002 70000 81618==
41886,2023,10,20,12,00,AAXX 20124 41886 02950 00000 10275 20230 30097 40118 333 10324 58000 70000==
41886,2023,10,20,15,00,AAXX 20154 41886 02950 00000 10245 20230 30119 40140 333 58000 70000==
41886,2023,10,20,18,00,AAXX 20184 41886 02950 00000 10245 20240 30120 40141 333 59003 70000==
41886,2023,10,20,21,00,AAXX 20214 41886 01940 00000 10233 20220 30120 40141 70500 333 59002 70000==
41886,2023,10,21,00,00,AAXX 21004 41886 01920 00000 10222 20220 30119 40140 71040 333 59002 70000==
41886,2023,10,21,03,00,AAXX 21034 41886 01450 10000 10270 20250 30140 40161 70541 81500 333 20220 58000 70000 81618==
41886,2023,10,21,06,00,AAXX 21064 41886 01457 30000 10312 20230 30127 40147 70341 83400 333 58001 70000 83618==
41886,2023,10,21,09,00,AAXX 21094 41886 02457 20000 10323 20240 30100 40120 82400 333 58000 70000 82618==
41886,2023,10,21,12,00,AAXX 21124 41886 02956 00000 10282 20240 30103 40124 333 10330 58006 70000==
41886,2023,10,21,15,00,AAXX 21154 41886 02950 00000 10250 20240 30027 40048 333 58008 70000==
41886,2023,10,21,18,00,AAXX 21184 41886 01950 00000 10240 20230 30123 40144 70500 333 58003 70000==
41886,2023,10,21,21,00,AAXX 21214 41886 01930 00000 10225 20220 30122 40143 71000 333 58002 70000==
41886,2023,10,22,00,00,AAXX 22004 41886 01/06 30000 10218 20210 30125 40146 74241 83030 333 58006 70000 83365==
41886,2023,10,22,03,00,AAXX 22034 41886 01950 00000 10273 20220 30143 40164 70540 333 20215 58003 70000==
41886,2023,10,22,06,00,AAXX 22064 41886 01/57 50000 10305 20240 30123 40143 70342 85030 333 59004 70000 85362==
41886,2023,10,22,09,00,AAXX 22094 41886 02457 60000 10312 20230 30101 40121 82540 333 58001 70000 82618 85365==
41886,2023,10,22,12,00,AAXX 22124 41886 02456 60000 10278 20250 30101 40102 81540 333 10317 59002 70000 81618 86365==
41886,2023,10,22,15,00,AAXX 22154 41886 01950 60000 10264 20240 30124 40145 70522 81540 333 59003 70000 81618 86365==
41886,2023,10,22,21,00,AAXX 22214 41886 01450 60000 10250 20240 30110 40131 70522 81540 333 59012 70000 81618 86365==
41886,2023,10,23,00,00,AAXX 23004 41886 01450 60000 10240 20230 30115 40136 70522 81540 333 59010 70000 81618 86365==
41886,2023,10,23,03,00,AAXX 23034 41886 02/56 60000 10290 20240 30129 40150 86050 333 20238 59014 70000 86365==
41886,2023,10,23,06,00,AAXX 23064 41886 02457 70000 10315 20240 30111 40131 85470 333 59012 70000 82618 83825 85365==
41886,2023,10,23,09,00,AAXX 23094 41886 41456 80000 10310 20230 30086 40106 70362 8432/ 333 59015 83616 88458 81930==
41886,2023,10,23,12,00,AAXX 23124 41886 11450 80000 10268 20240 30094 40115 60006 70262 8331/ 333 10322 59007 83616 88458 81930==
41886,2023,10,23,15,00,AAXX 23154 41886 42450 70000 10250 20230 30111 40132 83510 333 59013 83618 87460==
41886,2023,10,23,18,00,AAXX 23184 41886 42450 60000 10245 20240 30111 40132 82510 333 59009 82618 86460==
41886,2023,10,23,21,00,AAXX 23214 41886 42450 70000 10245 20240 30103 40124 83510 333 59007 83618 87460==
41886,2023,10,24,00,00,AAXX 24004 41886 41450 80000 10247 20240 30099 40120 70522 8351/ 333 59016 83618 88460==
41886,2023,10,24,03,00,AAXX 24034 41886 42456 70000 10263 20220 30118 40139 83510 333 20244 59016 83618 87460==
41886,2023,10,24,06,00,AAXX 24064 41886 42456 80902 10280 20220 30108 40129 8351/ 333 59003 83618 88460==
41886,2023,10,24,09,00,AAXX 24094 41886 02456 80000 10264 20220 30083 40104 8257/ 333 59003 70000 82618 88460==
41886,2023,10,24,12,00,AAXX 24124 41886 02/56 60000 10258 20250 30082 40103 86040 333 10296 59012 70000 86365==
41886,2023,10,24,15,00,AAXX 24154 41886 02/50 60000 10250 20230 30094 40115 86070 333 59017 70000 84460 84365==
41886,2023,10,24,18,00,AAXX 24184 41886 02450 80000 10250 20240 30088 40109 8252/ 333 59023 70000 82616 88458==
41886,2023,10,24,21,00,AAXX 24214 41886 01450 80000 10240 20230 30085 40106 70522 8252/ 333 59018 70000 82616 88458==
41886,2023,10,25,00,00,AAXX 25004 41886 01/50 30000 10228 20228 30095 40116 70521 83040 333 59004 70000 83365==
41886,2023,10,25,03,00,AAXX 25034 41886 02/56 40000 10288 20230 30116 40137 84040 333 20225 59002 70000 84365==
41886,2023,10,25,12,00,AAXX 25124 41886 02456 40000 10280 20240 30088 40109 82430 333 10333 58006 70000 82618 84362==
41886,2023,10,25,15,00,AAXX 25154 41886 02/50 30000 10260 20240 30107 40128 83030 333 58013 70000 83365==
41886,2023,10,25,18,00,AAXX 25184 41886 01/50 30000 10257 20250 30108 40129 70511 83030 333 58020 70000 83365==
41886,2023,10,26,00,00,AAXX 26004 41886 01450 80000 10250 20240 30106 40127 70521 8251/ 333 58011 70000 82618 88460==
41886,2023,10,26,03,00,AAXX 26034 41886 01456 70000 10273 20240 30133 40154 70522 83510 333 20247 58017 70000 83618 87460==
41886,2023,10,26,06,00,AAXX 26064 41886 02457 70000 10287 20250 30120 40140 83570 333 58010 70000 83618 87460==
41886,2023,10,26,09,00,AAXX 26094 41886 02457 60000 10298 20240 30093 40113 83470 333 58008 70000 82618 85460==
41886,2023,10,26,12,00,AAXX 26124 41886 02456 30000 10280 20250 30096 40117 83400 333 10312 58008 70000 82618==
41886,2023,10,26,15,00,AAXX 26154 41886 01935 00000 10259 20250 30115 40136 70541 333 58008 70000==
41886,2023,10,26,18,00,AAXX 26184 41886 01904 00000 10250 20240 30115 40136 74241 333 58007 70000==
41886,2023,10,26,21,00,AAXX 26214 41886 01904 00000 10246 20246 30112 40133 74244 333 58006 70000==
41888,2023,10,20,00,00,AAXX 20004 41888 31925 00000 10229 20229 30130 40140 71040 333 58007 70000=
41888,2023,10,20,12,00,AAXX 20124 41888 31940 00901 10270 20250 30104 40114 70500 333 10325 58001 70000=
41888,2023,10,20,18,00,AAXX 20184 41888 31940 00000 10245 20240 30132 40142 70500 333 58004 70000=
41888,2023,10,21,00,00,AAXX 21004 41888 31925 00000 10226 20226 30126 40136 71040 333 59004 70000=
41888,2023,10,21,06,00,AAXX 21064 41888 32957 00501 10205 20260 30130 40140 333 59003 70000=
41888,2023,10,21,12,00,AAXX 21124 41888 31940 02701 10270 20240 30108 40118 70500 333 10320 58004 70000=
41888,2023,10,22,00,00,AAXX 22004 41888 31925 02701 10225 20210 30132 40142 71040 333 58006 70000=
41888,2023,10,22,06,00,AAXX 22064 41888 32456 50901 10305 20220 30125 40135 82530 333 56990 59005 70000 82618 85365=
41888,2023,10,22,12,00,AAXX 22124 41888 32456 50000 10277 20240 30104 40114 82531 333 10325 56999 59004 70000 82618 85365 82080=
41888,2023,10,23,00,00,AAXX 23004 41888 31425 60901 10245 20240 30125 40135 71040 82510 333 56990 59007 70000 82618 86460=
41888,2023,10,23,06,00,AAXX 23064 41888 32456 60501 10305 20240 30118 40128 82510 333 56990 59007 70000 82618 86460=
41888,2023,10,23,12,00,AAXX 23124 41888 32456 72701 10279 20240 30092 40102 83510 333 10325 56990 59012 70000 83618 87460=
41888,2023,10,23,18,00,AAXX 23184 41888 31430 70501 10257 20250 30118 40128 70522 83510 333 56990 59014 70000 83617 87460=
41888,2023,10,24,00,00,AAXX 24004 41888 31440 80901 10250 20240 30105 40115 70522 8352/ 333 56990 59020 70000 83618 88460=
41888,2023,10,24,06,00,AAXX 24064 41888 11456 80901 10290 20230 30115 40125 60021 70262 8352/ 333 56999 59003 70015 83617 88460=
41888,2023,10,24,12,00,AAXX 24124 41888 11456 63601 10260 20240 30089 40099 60096 70162 82511 333 10292 56999 59003 70105 82617 86460 82080=
41888,2023,10,24,18,00,AAXX 24184 41888 32450 60902 10240 20230 30093 40103 82510 333 56990 59025 70105 82617 88460=
41888,2023,10,25,00,00,AAXX 25004 41888 32450 40000 10230 20220 30095 40105 82531 333 56999 59010 70105 82618 84363 81080=
41888,2023,10,26,06,00,AAXX 26064 41888 NIL=
41888,2023,10,26,12,00,AAXX 26124 41888 NIL=
41888,2023,10,26,18,00,AAXX 26184 41888 31940 00000 10247 20247 30123 40133 70500 333 58009 70000=
41891,2023,10,20,00,00,AAXX 20004 41891 01430 30902 10226 20220 30102 40141 70511 82530 333 58006 70000 82615 84365==
41891,2023,10,20,03,00,AAXX 20034 41891 01440 10902 10280 20210 30119 40157 70511 81500 333 20222 58006 70000 81615==
41891,2023,10,20,06,00,AAXX 20064 41891 01550 10903 10304 20200 30097 40135 70511 81100 333 59001 70000 81825==
41891,2023,10,20,09,00,AAXX 20094 41891 01450 21802 10325 20220 30071 40109 70511 82500 333 58002 70000 82615==
41891,2023,10,20,12,00,AAXX 20124 41891 01935 03102 10279 20240 30074 40110 70510 333 10330 59002 70000==
41891,2023,10,20,15,00,AAXX 20154 41891 01930 03002 10260 20250 30094 40133 70500 333 58002 70000==
41891,2023,10,20,18,00,AAXX 20184 41891 01930 03002 10241 20230 30098 40137 70500 333 58000 70000==
41891,2023,10,20,21,00,AAXX 20214 41891 01930 03002 10235 20220 30098 40137 70500 333 58002 70000==
41891,2023,10,21,00,00,AAXX 21004 41891 01930 03002 10230 20210 30099 40138 70500 333 59003 70000==
41891,2023,10,21,03,00,AAXX 21034 41891 01940 00902 10282 20200 30117 40155 70500 333 20230 59002 70000==
41891,2023,10,21,06,00,AAXX 21064 41891 01550 11302 10320 20200 30099 40137 70500 81100 333 58002 70000 81825==
41891,2023,10,21,09,00,AAXX 21094 41891 01550 13202 10328 20220 30073 40111 70511 81100 333 58002 70000 81825==
41891,2023,10,21,12,00,AAXX 21124 41891 01930 03603 10280 20230 30076 40112 70500 333 10343 58004 70000==
41891,2023,10,21,15,00,AAXX 21154 41891 01930 03603 10243 20240 30102 40141 70500 333 58008 70000==
41891,2023,10,21,18,00,AAXX 21184 41891 01930 03503 10236 20230 30102 40141 70500 333 58004 70000==
41891,2023,10,21,21,00,AAXX 21214 41891 01930 00903 10230 20220 30103 40142 70500 333 58005 70000==
41891,2023,10,22,00,00,AAXX 22004 41891 01930 80903 10228 20220 30105 40144 70521 8537/ 333 58006 70000 84616 86365 81930==
41891,2023,10,22,03,00,AAXX 22034 41891 01940 00904 10284 20210 30117 40158 70500 333 20224 59003 70000==
41891,2023,10,22,06,00,AAXX 22064 41891 01450 33602 10320 20210 30096 40134 70510 81530 333 59003 70000 81615 83365==
41891,2023,10,22,09,00,AAXX 22094 41891 01450 61802 10330 20230 30074 40111 70511 83340 333 58001 70000 83615 85365 81930==
41891,2023,10,22,12,00,AAXX 22124 41891 01430 63404 10290 20260 30076 40114 70521 84330 333 10336 58000 70000 83616 86365 81930==
41891,2023,10,22,15,00,AAXX 22154 41891 01430 83303 10270 20250 30102 40141 70522 8533/ 333 58000 70000 84616 88365 81930==
41891,2023,10,22,18,00,AAXX 22184 41891 01430 80603 10255 20240 30098 40137 70522 8532/ 333 59004 70000 81710 84615 88459 81930==
41891,2023,10,22,21,00,AAXX 22214 41891 01430 80703 10242 20230 30098 40137 70522 8532/ 333 59005 70000 84616 88459 81930==
41891,2023,10,23,00,00,AAXX 23004 41891 01430 80704 10238 20230 30098 40137 70522 8537/ 333 59007 70000 84616 86365 81930==
41891,2023,10,23,03,00,AAXX 23034 41891 01435 80902 10264 20240 30110 40149 70522 8532/ 333 20246 59010 70000 82710 84615 88459 81930==
41891,2023,10,23,06,00,AAXX 23064 41891 01440 61302 10304 20240 30090 40128 70522 83340 333 59006 70000 83615 85365 81930==
41891,2023,10,23,09,00,AAXX 23094 41891 01450 61802 10298 20240 30069 40107 70522 83340 333 59005 70000 83615 85365 81930==
41891,2023,10,23,12,00,AAXX 23124 41891 01435 80502 10272 20240 30071 40109 70522 8532/ 333 10314 59005 70000 81710 84615 88459 81930==
41891,2023,10,23,15,00,AAXX 23154 41891 01430 80000 10250 20220 30092 40131 70522 8532/ 333 59010 70000 84615 88460 81930==
41891,2023,10,23,18,00,AAXX 23184 41891 01430 80000 10246 20220 30096 40135 70522 8532/ 333 59002 70000 81710 84615 88460 81930==
41891,2023,10,23,21,00,AAXX 23214 41891 01430 80000 10246 20220 30096 40086 70522 8532/ 333 59002 70000 81710 84615 88460 81930==
41891,2023,10,24,00,00,AAXX 24004 41891 01430 80902 10242 20230 30079 40118 70522 8532/ 333 59019 70000 81710 84615 88460 81930==
41891,2023,10,24,03,00,AAXX 24034 41891 01320 80903 10250 20230 30106 40145 76166 8632/ 333 20240 59004 70010 86708 88458 81925==
41891,2023,10,24,06,00,AAXX 24064 41891 21438 80504 10258 20230 30088 40127 72166 8532/ 333 59002 60019 70014 82710 84615 88459 81930==
41891,2023,10,24,09,00,AAXX 24094 41891 01445 71302 10279 20220 30066 40104 70522 84370 333 59003 70014 84615 86460 81930==
41891,2023,10,24,12,00,AAXX 24124 41891 01435 60902 10260 20230 30059 40098 70522 83340 333 10285 59012 70014 83615 85365 81930==
41891,2023,10,24,15,00,AAXX 24154 41891 01430 60000 10241 20230 30063 40102 70522 83340 333 59029 70014 83615 85365 81930==
41891,2023,10,24,18,00,AAXX 24184 41891 01430 80000 10240 20230 30064 40103 70522 8532/ 333 59032 70014 82710 84615 88459 81930==
41891,2023,10,24,21,00,AAXX 24214 41891 01430 80902 10245 20230 30062 40101 70522 8532/ 333 59024 70014 82710 84615 88459 81930==
41891,2023,10,25,00,00,AAXX 25004 41891 01430 80902 10250 20210 30060 40099 70522 8532/ 333 59019 70014 82710 84615 88459 81930==
41891,2023,10,25,03,00,AAXX 25034 41891 01440 70902 10274 20220 30093 40132 70522 84370 333 20240 59013 70004 84615 86460 81930==
41891,2023,10,25,06,00,AAXX 25064 41891 01440 70502 10294 20210 30083 40121 70522 84370 333 59005 70000 84615 86460 81930==
41891,2023,10,25,09,00,AAXX 25094 41891 01445 61802 10300 20220 30068 40106 70522 83340 333 58002 70000 83615 85365 81930==
41891,2023,10,25,12,00,AAXX 25124 41891 01435 61803 10262 20220 30072 40111 70522 83340 333 10307 58013 70000 83615 85365 81930==
41891,2023,10,25,15,00,AAXX 25154 41891 01930 01503 10243 20220 30092 40131 70500 333 58029 70000==
41891,2023,10,25,18,00,AAXX 25184 41891 01430 80602 10230 20220 30092 40131 70520 8532/ 333 58028 70000 81710 84615 88459 81930==
41891,2023,10,25,21,00,AAXX 25214 41891 01430 80903 10230 20220 30096 40135 70522 8532/ 333 58034 70000 82710 84615 88459 81930==
41891,2023,10,26,00,00,AAXX 26004 41891 01430 81203 10230 20220 30096 40135 70522 8532/ 333 58036 70000 82710 84615 88459 81930==
41891,2023,10,26,03,00,AAXX 26034 41891 01440 70902 10252 20220 30118 40157 70522 84370 333 20230 58025 70000 84615 86460 81930==
41891,2023,10,26,06,00,AAXX 26064 41891 01440 61802 10286 20230 30099 40137 70522 83340 333 58016 70000 83615 85365 81930==
41891,2023,10,26,09,00,AAXX 26094 41891 01440 60502 10298 20230 30071 40109 70522 83340 333 58003 70000 83615 85365 81930==
41891,2023,10,26,12,00,AAXX 26124 41891 NIL=
41891,2023,10,26,15,00,AAXX 26154 41891 01430 51603 10253 20230 30093 40131 70522 83310 333 58001 70000 82616 85459 81930==
41891,2023,10,26,18,00,AAXX 26184 41891 01930 00804 10245 20230 30092 40130 70521 333 58000 70000==
41891,2023,10,26,21,00,AAXX 26214 41891 01930 00903 10240 20220 30094 40133 70500 333 59002 70000==
41895,2023,10,20,00,00,AAXX 20004 41895 01950 00000 10215 20215 30121 40144 70500 333 58011 70000==
41895,2023,10,20,03,00,AAXX 20034 41895 01956 03102 10270 20230 30142 40164 70500 333 20210 58003 70000==
41895,2023,10,20,06,00,AAXX 20064 41895 02557 13103 10310 20200 30128 40150 81100 333 58003 70000 81825==
41895,2023,10,20,09,00,AAXX 20094 41895 02957 00502 10310 20200 30102 40125 333 58003 70000==
41895,2023,10,20,12,00,AAXX 20124 41895 02950 00000 10274 20220 30099 40121 333 10320 58001 70000==
41895,2023,10,20,15,00,AAXX 20154 41895 02950 00000 10245 20240 30123 40145 333 58004 70000==
41895,2023,10,20,18,00,AAXX 20184 41895 02950 00000 10236 20230 30125 40147 333 58002 70000==
41895,2023,10,20,21,00,AAXX 20214 41895 02950 00000 10220 20220 30119 40142 333 59001 70000==
41895,2023,10,21,00,00,AAXX 21004 41895 01950 00000 10220 20220 30120 40143 70500 333 59001 70000==
41895,2023,10,21,03,00,AAXX 21034 41895 01956 03603 10270 20220 30142 40164 70500 333 20217 58000 70000==
41895,2023,10,21,06,00,AAXX 21064 41895 02456 43602 10303 20210 30132 40154 84500 333 70000 84616==
41895,2023,10,21,09,00,AAXX 21094 41895 02457 32304 10319 20230 30102 40124 83500 333 58000 70000 83616==
41895,2023,10,21,12,00,AAXX 21124 41895 02950 00000 10275 20240 30105 40128 333 10321 58006 70000==
41895,2023,10,21,15,00,AAXX 21154 41895 02950 00000 10250 20230 30126 40149 333 58003 70000==
41895,2023,10,21,18,00,AAXX 21184 41895 02950 00000 10235 20230 30126 40148 333 58001 70000==
41895,2023,10,21,21,00,AAXX 21214 41895 02950 00000 10230 20230 30116 40139 333 59003 70000==
41895,2023,10,22,00,00,AAXX 22004 41895 01950 00000 10225 20225 30124 40147 70500 333 58004 70000==
41895,2023,10,22,03,00,AAXX 22034 41895 01456 30502 10266 20230 30142 40164 70510 81501 333 20223 58000 70000 81618 83074==
41895,2023,10,22,06,00,AAXX 22064 41895 02957 33603 10306 20210 30122 40144 80001 333 59010 70000 83074==
41895,2023,10,22,09,00,AAXX 22094 41895 02956 33601 10320 20210 30100 40122 80001 333 59004 70000 83074==
41895,2023,10,22,12,00,AAXX 22124 41895 01950 00000 10265 20250 30099 40121 70510 333 10327 59006 70000==
41895,2023,10,22,18,00,AAXX 22184 41895 02950 00000 10238 20240 30119 40141 333 59007 70000==
41895,2023,10,22,21,00,AAXX 22214 41895 02950 00000 10232 20220 30116 40138 333 58007 70000==
41895,2023,10,23,00,00,AAXX 23004 41895 01950 00000 10240 20230 30113 40136 70500 333 59011 70000==
41895,2023,10,23,03,00,AAXX 23034 41895 01/56 63602 10260 20230 30126 40148 70520 84031 333 20234 59016 70000 84362==
41895,2023,10,23,06,00,AAXX 23064 41895 02/57 43103 10304 20220 30112 40134 82031 333 59010 70000 82362 83074==
41895,2023,10,23,09,00,AAXX 23094 41895 02457 50000 10319 20230 30080 40102 83510 333 59020 70000 83616 85458==
41895,2023,10,23,12,00,AAXX 23124 41895 02450 60901 10275 20250 30091 40113 83520 333 10322 59008 70000 83616 86458==
41895,2023,10,23,15,00,AAXX 23154 41895 02450 30000 10245 20240 30099 40122 83500 333 59023 70000 83616==
41895,2023,10,23,18,00,AAXX 23184 41895 02450 30000 10245 20240 30101 40124 83500 333 59018 70000 83616==
41895,2023,10,23,21,00,AAXX 23214 41895 01450 50000 10240 20240 30089 40112 70521 83520 333 59027 70000 83616 85458==
41895,2023,10,24,00,00,AAXX 24004 41895 01450 80000 10240 20240 30091 40114 70522 8352/ 333 59022 70000 83616 88458==
41895,2023,10,24,03,00,AAXX 24034 41895 01450 83602 10270 20240 30112 40134 70522 8452/ 333 20237 59014 70000 84615 88458==
41895,2023,10,24,06,00,AAXX 24064 41895 01450 80503 10284 20230 30102 40125 70522 8452/ 333 59010 70000 84615 88458==
41895,2023,10,24,09,00,AAXX 24094 41895 01450 80503 10295 20250 30076 40098 70522 8452/ 333 59004 70000 84615 88458==
41895,2023,10,24,12,00,AAXX 24124 41895 02450 60502 10262 20230 30078 40100 84520 333 10300 59013 70000 84616 86458==
41895,2023,10,24,15,00,AAXX 24154 41895 02450 60000 10250 20240 30095 40117 84520 333 59004 70000 84616 86458==
41895,2023,10,24,18,00,AAXX 24184 41895 01950 00000 10246 20240 30091 40114 70510 333 59010 70000==
41895,2023,10,24,21,00,AAXX 24214 41895 01950 00000 10243 20240 30089 40112 70500 333 58000 70000==
41895,2023,10,25,00,00,AAXX 25004 41895 01950 00000 10233 20230 30094 40117 70500 333 58004 70000==
41895,2023,10,25,09,00,AAXX 25094 41895 02457 30501 10315 20220 30085 40107 83400 333 58009 70000 81617 83825==
41895,2023,10,25,12,00,AAXX 25124 41895 02950 00000 10280 20240 30087 40109 333 10324 58009 70000==
41895,2023,10,25,15,00,AAXX 25154 41895 02950 00000 10250 20230 30106 40128 333 58011 70000==
41895,2023,10,25,18,00,AAXX 25184 41895 01950 03101 10240 20240 30108 40131 70500 333 58017 70000==
41895,2023,10,26,00,00,AAXX 26004 41895 01950 30000 10235 20230 30103 40126 70510 80001 333 58009 70000 83074==
41895,2023,10,26,06,00,AAXX 26064 41895 NIL=
41895,2023,10,26,09,00,AAXX 26094 41895 02557 23202 10320 20200 30093 40115 82100 333 58008 70000 82825==
41895,2023,10,26,12,00,AAXX 26124 41895 01950 02703 10270 20240 30095 40118 70500 333 10327 58008 70000==
41895,2023,10,26,15,00,AAXX 26154 41895 01950 00000 10255 20230 30111 40133 70500 333 58005 70000==
41895,2023,10,26,18,00,AAXX 26184 41895 01950 00000 10232 20220 30112 40135 70500 333 58004 70000==
41895,2023,10,26,21,00,AAXX 26214 41895 01950 00000 10231 20220 30095 40118 70500 333 59003 70000==
41897,2023,10,20,00,00,AAXX 20004 41897 31950 00000 10221 20210 30129 40142 70500 333 58008 70000=
41897,2023,10,20,06,00,AAXX 20064 41897 31950 03601 10305 20210 30129 40142 70500 82030 333 56090 59002 70000 82361=
41897,2023,10,20,12,00,AAXX 20124 41897 31950 00000 10280 20220 30102 40116 70500 333 10315 59000 70000=
41897,2023,10,20,18,00,AAXX 20184 41897 31950 03601 10249 20220 30127 40141 70500 333 58001 70000=
41897,2023,10,21,00,00,AAXX 21004 41897 31950 00000 10235 20220 30130 40144 70500 333 58001 70000=
41897,2023,10,21,06,00,AAXX 21064 41897 31950 23602 10305 20220 30130 40143 70500 82030 333 56090 58001 70000 82361=
41897,2023,10,21,12,00,AAXX 21124 41897 31950 00000 10265 20230 30109 40123 70500 333 10320 58007 70000=
41897,2023,10,21,18,00,AAXX 21184 41897 31950 03601 10242 20220 30126 40140 70500 333 59001 70000=
41897,2023,10,22,00,00,AAXX 22004 41897 31950 00000 10230 20220 30132 40146 70500 333 58002 70000=
41897,2023,10,22,06,00,AAXX 22064 41897 31950 03601 10300 20230 30132 40145 70510 84030 333 56090 58002 70000 84361=
41897,2023,10,22,12,00,AAXX 22124 41897 31450 60000 10280 20250 30103 40116 84610 333 10320 56990 59006 70000 82618 86460=
41897,2023,10,23,00,00,AAXX 23004 41897 31440 60000 10230 20220 30119 40132 70542 84609 333 56909 59010 70000 82618 84180=
41897,2023,10,23,06,00,AAXX 23064 41897 31450 60000 10315 20240 30116 40129 70542 84610 333 56990 59016 70000 82618 86460=
41897,2023,10,23,12,00,AAXX 23124 41897 11440 81403 10270 20240 30099 40112 60034 76162 8461/ 333 10330 56999 59004 70030 81710 83618 88460=
41897,2023,10,23,18,00,AAXX 23184 41897 31440 80000 10245 20230 30107 40120 70542 84610 333 56990 59020 70030 83618 88460=
41897,2023,10,24,00,00,AAXX 24004 41897 31440 80000 10235 20230 30101 40114 70542 84610 333 56990 59018 70030 81710 83618 88460=
41897,2023,10,24,06,00,AAXX 24064 41897 11440 81403 10280 20240 30109 40122 60024 76122 8462/ 333 56999 59010 70050 81710 83618 88460=
41897,2023,10,24,12,00,AAXX 24124 41897 11440 80000 10280 20250 30082 40095 60106 70262 84610 333 10295 56990 59005 70120 83618 88460=
41897,2023,10,24,18,00,AAXX 24184 41897 NIL=
41897,2023,10,25,00,00,AAXX 25004 41897 31440 00000 10235 20230 30101 40114 70540 333 58000 70120=
41897,2023,10,26,06,00,AAXX 26064 41897 NIL=
41897,2023,10,26,12,00,AAXX 26124 41897 31940 00000 10270 20250 30100 40113 70500 333 10315 58008 70000=
41902,2023,10,20,00,00,AAXX 20004 41902 31940 03101 10245 20230 30121 40130 70500 333 58010 70000=
41902,2023,10,20,06,00,AAXX 20064 41902 31450 11801 10317 20240 30121 40129 70344 81500 333 56900 58001 70000 81616=
41902,2023,10,20,12,00,AAXX 20124 41902 31950 02701 10266 20250 30101 40109 70500 333 10322 59003 70000=
41902,2023,10,20,18,00,AAXX 20184 41902 31940 02701 10252 20240 30117 40125 70544 333 59006 70000=
41902,2023,10,21,00,00,AAXX 21004 41902 31915 03101 10245 20240 30119 40128 70544 333 59002 70000=
41902,2023,10,21,06,00,AAXX 21064 41902 31950 03101 10315 20240 30125 40133 70544 333 58004 70000=
41902,2023,10,21,12,00,AAXX 21124 41902 31940 03601 10266 20240 30106 40114 70500 333 10320 58005 70000=
41902,2023,10,21,18,00,AAXX 21184 41902 31940 02701 10255 20240 30121 40129 70544 333 58004 70000=
41902,2023,10,22,00,00,AAXX 22004 41902 31420 52701 10238 20238 30125 40134 71044 82530 333 56990 58006 70000 82616 85362=
41902,2023,10,22,06,00,AAXX 22064 41902 31450 73101 10305 20260 30119 40127 70344 83510 333 56990 59006 70000 83615 87459=
41902,2023,10,22,12,00,AAXX 22124 41902 31440 63101 10276 20260 30099 40107 70522 83410 333 10315 56990 59007 70000 82614 86459=
41902,2023,10,23,00,00,AAXX 23004 41902 31430 60000 10256 20250 30114 40122 70544 83410 333 56990 59011 70000 82614 86459=
41902,2023,10,23,06,00,AAXX 23064 41902 31440 70000 10308 20260 30108 40117 70544 83410 333 56990 59011 70000 82614 87459=
41902,2023,10,23,12,00,AAXX 23124 41902 32340 80000 10275 20260 30093 40101 8462/ 333 10320 56999 59006 70000 82710 83614 88459=
41902,2023,10,23,18,00,AAXX 23184 41902 31430 80000 10254 20230 30114 40122 70542 8342/ 333 56999 59005 70000 82614 88459=
41902,2023,10,24,00,00,AAXX 24004 41902 31430 80000 10250 20240 30101 40109 70544 8342/ 333 56999 59013 70000 82614 88459=
41902,2023,10,24,06,00,AAXX 24064 41902 11440 80902 10297 20250 30105 40113 60028 70262 8342/ 333 56299 58003 70020 82614 88459=
41902,2023,10,24,12,00,AAXX 24124 41902 31430 50000 10255 20240 30082 40090 70522 82530 333 10301 56990 59011 70020 82614 85362=
41902,2023,10,24,18,00,AAXX 24184 41902 NIL=
41902,2023,10,25,00,00,AAXX 25004 41902 31430 83301 10246 20240 30089 40098 70544 8352/ 333 56999 59012 70020 83614 88459=
41902,2023,10,25,12,00,AAXX 25124 41902 31430 50000 10272 20250 30088 40096 70522 82530 333 10317 56990 58006 70000 82614 84362=
41902,2023,10,26,06,00,AAXX 26064 41902 NIL=
41902,2023,10,26,12,00,AAXX 26124 41902 31430 10000 10262 20240 30096 40104 70500 81500 333 10315 56900 58008 70000 81614=
41907,2023,10,20,00,00,AAXX 20004 41907 01940 00000 10215 20210 30126 40141 70500 333 58007 70000==
41907,2023,10,20,03,00,AAXX 20034 41907 01945 03602 10275 20230 30143 40157 70500 333 20215 58005 70000==
41907,2023,10,20,06,00,AAXX 20064 41907 01950 03101 10310 20190 30127 40142 70500 333 58000 70000==
41907,2023,10,20,09,00,AAXX 20094 41907 01450 23603 10318 20200 30104 40118 70500 82800 333 58004 70000 81616==
41907,2023,10,20,12,00,AAXX 20124 41907 01940 00000 10260 20220 30103 40117 70500 333 10322 58001 70000==
41907,2023,10,20,15,00,AAXX 20154 41907 01940 00000 10223 20210 30125 40140 70500 333 58004 70000==
41907,2023,10,20,18,00,AAXX 20184 41907 01940 00000 10215 20210 30128 40143 70500 333 59001 70000==
41907,2023,10,20,21,00,AAXX 20214 41907 01940 00000 10212 20200 30120 40135 70500 333 59002 70000==
41907,2023,10,21,00,00,AAXX 21004 41907 01940 00000 10212 20200 30123 40138 70500 333 59003 70000==
41907,2023,10,21,03,00,AAXX 21034 41907 01945 03602 10272 20230 30142 40157 70500 333 20212 59001 70000==
41907,2023,10,21,06,00,AAXX 21064 41907 01450 43103 10305 20210 30128 40143 70500 84800 333 58001 70000 81615 83825==
41907,2023,10,21,09,00,AAXX 21094 41907 02450 43602 10316 20220 30105 40119 84800 333 58001 70000 81615 83825==
41907,2023,10,21,12,00,AAXX 21124 41907 02940 00000 10265 20240 30108 40123 333 10319 58005 70000==
41907,2023,10,21,15,00,AAXX 21154 41907 02940 00000 10240 20230 30130 40145 333 58005 70000==
41907,2023,10,21,18,00,AAXX 21184 41907 02940 00000 10232 20220 30131 40147 333 58003 70000==
41907,2023,10,21,21,00,AAXX 21214 41907 02940 00000 10225 20220 30125 40140 333 58005 70000==
41907,2023,10,22,00,00,AAXX 22004 41907 02940 00000 10217 20217 30127 40142 333 58001 70000==
41907,2023,10,22,03,00,AAXX 22034 41907 02/40 33102 10262 20230 30142 40157 83030 333 20215 58000 70000 83362==
41907,2023,10,22,06,00,AAXX 22064 41907 02450 53102 10306 20220 30121 40135 82530 333 59007 70000 82615 84362==
41907,2023,10,22,09,00,AAXX 22094 41907 02450 60000 10305 20220 30104 40118 83530 333 59001 70000 83615 85362==
41907,2023,10,22,12,00,AAXX 22124 41907 02/40 70000 10265 20250 30101 40115 84031 333 10317 59007 70000 84362 85080==
41907,2023,10,22,15,00,AAXX 22154 41907 02440 50000 10242 20220 30123 40138 82530 333 59007 70000 82615 83362==
41907,2023,10,22,18,00,AAXX 22184 41907 02940 00000 10235 20220 30123 40138 333 59008 70000==
41907,2023,10,22,21,00,AAXX 22214 41907 02940 00000 10230 20220 30118 40133 333 59007 70000==
41907,2023,10,23,00,00,AAXX 23004 41907 01940 00000 10227 20227 30113 40128 70500 333 59004 70000==
41907,2023,10,23,03,00,AAXX 23034 41907 01440 60502 10265 20250 30127 40142 70500 84530 333 20225 59015 70000 84615 83362==
41907,2023,10,23,06,00,AAXX 23064 41907 01440 80901 10305 20240 30113 40127 70520 8552/ 333 59008 70000 85615 88458==
41907,2023,10,23,09,00,AAXX 23094 41907 01450 73602 10315 20230 30083 40097 70522 84570 333 59021 70000 84615 86458==
41907,2023,10,23,12,00,AAXX 23124 41907 01440 80000 10250 20230 30094 40109 70522 8452/ 333 10324 59007 70000 84615 88458==
41907,2023,10,23,15,00,AAXX 23154 41907 01440 80000 10242 20230 30107 40122 70522 8452/ 333 59016 70000 84615 88458==
41907,2023,10,23,18,00,AAXX 23184 41907 01440 80000 10238 20230 30102 40117 70522 8552/ 333 59021 70000 85615 88458==
41907,2023,10,23,21,00,AAXX 23214 41907 01440 80000 10240 20230 30097 40112 70522 8552/ 333 59021 70000 85615 88458==
41907,2023,10,24,00,00,AAXX 24004 41907 01340 80000 10242 20230 30094 40109 70522 8662/ 333 59019 70000 82709 85615 88458==
41907,2023,10,24,03,00,AAXX 24034 41907 01440 63102 10270 20250 30114 40129 70522 84510 333 20235 59013 70000 84615 85458==
41907,2023,10,24,06,00,AAXX 24064 41907 01440 71302 10300 20230 30098 40113 70522 85810 333 59015 70000 82615 83825 85458==
41907,2023,10,24,09,00,AAXX 24094 41907 01450 70502 10265 20250 30078 40093 72122 84570 333 59005 70022 84615 86458==
41907,2023,10,24,12,00,AAXX 24124 41907 21440 70000 10266 20250 30081 40095 70261 85872 333 10302 59013 60025 70022 84615 85458==
41907,2023,10,24,15,00,AAXX 24154 41907 02440 40000 10247 20240 30095 40110 84500 333 59012 70022 84615==
41907,2023,10,24,18,00,AAXX 24184 41907 02940 00000 10243 20240 30092 40107 333 59010 70000==
41907,2023,10,24,21,00,AAXX 24214 41907 02940 00000 10234 20230 30086 40101 333 59011 70022==
41907,2023,10,25,00,00,AAXX 25004 41907 01940 00000 10226 20226 30097 40112 70500 333 58003 70022==
41907,2023,10,25,03,00,AAXX 25034 41907 01950 03103 10271 20230 30123 40138 70500 333 20225 58009 70022==
41907,2023,10,25,06,00,AAXX 25064 41907 01950 02702 10310 20200 30112 40127 70500 333 58014 70000==
41907,2023,10,25,09,00,AAXX 25094 41907 02950 03302 10318 20210 30088 40102 333 58101 70000==
41907,2023,10,25,12,00,AAXX 25124 41907 02940 00000 10265 20250 30089 40103 333 10320 58008 70000==
41907,2023,10,25,15,00,AAXX 25154 41907 02440 20000 10245 20240 30110 40125 82500 333 58015 70000 82615==
41907,2023,10,25,18,00,AAXX 25184 41907 02940 00000 10240 20230 30112 40127 333 58020 70000==
41907,2023,10,25,21,00,AAXX 25214 41907 02940 00000 10230 20230 30098 40113 333 58012 70000==
41907,2023,10,26,00,00,AAXX 26004 41907 02940 00000 10227 20220 30103 40118 333 58006 70000==
41907,2023,10,26,03,00,AAXX 26034 41907 02950 03602 10278 20230 30132 40147 333 20225 58009 70000==
41907,2023,10,26,06,00,AAXX 26064 41907 02450 51302 10310 20210 30119 40134 85800 333 58007 70000 82615 83825==
41907,2023,10,26,09,00,AAXX 26094 41907 02550 23602 10315 20220 30094 40108 82100 333 58006 70000 82825 85460==
41907,2023,10,26,12,00,AAXX 26124 41907 02940 00000 10265 20240 30098 40113 333 10320 58009 70000==
41907,2023,10,26,15,00,AAXX 26154 41907 02940 00000 10240 20230 30114 40129 333 58004 70000==
41907,2023,10,26,18,00,AAXX 26184 41907 02940 00000 10230 20220 30118 40133 333 58006 70000==
41907,2023,10,26,21,00,AAXX 26214 41907 02940 00000 10225 20220 30112 40127 333 58014 70000==
41909,2023,10,20,00,00,AAXX 20004 41909 01950 00000 10233 20220 30124 40136 70500 333 58014 70000==
41909,2023,10,20,03,00,AAXX 20034 41909 02956 00000 10277 20220 30144 40155 333 20208 58007 70000==
41909,2023,10,20,06,00,AAXX 20064 41909 02956 00000 10319 20180 30127 40138 333 59001 70000==
41909,2023,10,20,09,00,AAXX 20094 41909 02456 10000 10320 20190 30103 40114 81500 333 58002 70000 81615==
41909,2023,10,20,12,00,AAXX 20124 41909 02950 00000 10280 20220 30102 40113 333 10332 59001 70000==
41909,2023,10,20,15,00,AAXX 20154 41909 01940 00000 10255 20230 30124 40136 70500 333 58002 70000==
41909,2023,10,20,18,00,AAXX 20184 41909 01940 00000 10253 20220 30126 40138 70500 333 59001 70000==
41909,2023,10,20,21,00,AAXX 20214 41909 01940 00000 10240 20220 30118 40130 70500 333 59006 70000==
41909,2023,10,21,00,00,AAXX 21004 41909 01950 00000 10230 20220 30121 40133 70500 333 59003 70000==
41909,2023,10,21,03,00,AAXX 21034 41909 01950 00000 10272 20230 30142 40154 70500 333 20205 59002 70000==
41909,2023,10,21,06,00,AAXX 21064 41909 02956 00000 10320 20210 30127 40138 333 58000 70000==
41909,2023,10,21,09,00,AAXX 21094 41909 02/56 20000 10330 20200 30106 40117 82030 333 58003 70000 82365==
41909,2023,10,21,12,00,AAXX 21124 41909 02940 00000 10288 20230 30106 40117 333 10332 58004 70000==
41909,2023,10,21,15,00,AAXX 21154 41909 02940 00000 10249 20230 30130 40142 333 58006 70000==
41909,2023,10,21,18,00,AAXX 21184 41909 02940 00000 10245 20230 30132 40144 333 58006 70000==
41909,2023,10,21,21,00,AAXX 21214 41909 01940 00000 10240 20220 30128 40140 70500 333 58010 70000==
41909,2023,10,22,00,00,AAXX 22004 41909 01940 50000 10228 20220 30126 40138 70500 82530 333 58005 70000 82615 85360==
41909,2023,10,22,03,00,AAXX 22034 41909 01450 52701 10274 20230 30142 40153 70522 81530 333 20205 58000 70000 81618 85360==
41909,2023,10,22,06,00,AAXX 22064 41909 02456 52702 10304 20200 30128 40139 82530 333 58001 70000 82615 85360==
41909,2023,10,22,09,00,AAXX 22094 41909 02456 60000 10319 20190 30104 40116 82530 333 59002 70000 82615 85360==
41909,2023,10,22,12,00,AAXX 22124 41909 02440 40000 10274 20240 30102 40113 82530 333 10332 59004 70000 82615 83360==
41909,2023,10,22,15,00,AAXX 22154 41909 02940 00000 10259 20240 30129 40141 333 59001 70000==
41909,2023,10,22,18,00,AAXX 22184 41909 02940 00000 10252 20230 30122 40134 333 59010 70000==
41909,2023,10,22,21,00,AAXX 22214 41909 01940 00000 10242 20230 30116 40128 70500 333 59012 70000==
41909,2023,10,23,00,00,AAXX 23004 41909 01940 00000 10229 20220 30117 40129 70500 333 59011 70000==
41909,2023,10,23,06,00,AAXX 23064 41909 02456 51801 10319 20240 30116 40127 82530 333 59012 70000 82615 85360==
41909,2023,10,23,09,00,AAXX 23094 41909 01350 81302 10244 20230 30094 40105 79522 8692/ 333 59010 70050 84708 88458 81930==
41909,2023,10,23,12,00,AAXX 23124 41909 21440 60000 10246 20230 30094 40105 70196 82530 333 10336 59008 60087 70080 82615 86362==
41909,2023,10,23,15,00,AAXX 23154 41909 02440 50000 10247 20230 30112 40124 82530 333 59017 70080 82615 85362==
41909,2023,10,23,18,00,AAXX 23184 41909 02440 80000 10246 20230 30107 40119 8552/ 333 59015 70080 84614 88458==
41909,2023,10,23,21,00,AAXX 23214 41909 01440 80000 10248 20230 30101 40113 70522 8552/ 333 59015 70080 84615 88458==
41909,2023,10,24,00,00,AAXX 24004 41909 01450 80000 10250 20240 30098 40110 70522 8552/ 333 59019 70080 85615 88458==
41909,2023,10,24,03,00,AAXX 24034 41909 01450 61302 10264 20230 30120 40132 70522 82510 333 20219 59008 70080 82615 86458==
41909,2023,10,24,09,00,AAXX 24094 41909 02456 51402 10298 20220 30106 40117 82530 333 59010 70080 82615 85360==
41909,2023,10,24,12,00,AAXX 24124 41909 02450 50000 10275 20240 30082 40093 82530 333 10312 59012 70000 82615 84365==
41909,2023,10,24,15,00,AAXX 24154 41909 02440 40000 10250 20220 30097 40109 82530 333 59015 70000 82615 83362==
41909,2023,10,24,18,00,AAXX 24184 41909 02440 80000 10246 20230 30093 40105 8552/ 333 59014 70000 85614 88460==
41909,2023,10,24,21,00,AAXX 24214 41909 02/40 30000 10243 20220 30089 40101 83030 333 59012 70000 83365==
41909,2023,10,25,00,00,AAXX 25004 41909 02950 00000 10242 20220 30091 40103 333 59007 70000==
41909,2023,10,25,03,00,AAXX 25034 41909 02456 52702 10279 20230 30120 40131 81530 333 20215 58001 70000 81618 85362==
41909,2023,10,25,09,00,AAXX 25094 41909 02/56 30000 10328 20210 30091 40102 83030 333 58010 70000 83365==
41909,2023,10,25,12,00,AAXX 25124 41909 02950 00000 10290 20230 30087 40098 333 10332 58005 70000==
41909,2023,10,25,15,00,AAXX 25154 41909 02940 00000 10260 20240 30112 40124 333 58015 70000==
41909,2023,10,25,18,00,AAXX 25184 41909 02940 00000 10250 20230 30111 40123 333 58018 70000==
41909,2023,10,26,00,00,AAXX 26004 41909 01940 00000 10238 20230 30106 40118 70500 333 58015 70000==
41909,2023,10,26,03,00,AAXX 26034 41909 01450 62301 10274 20240 30130 40141 70500 82510 333 20216 58010 70000 82615 86458==
41909,2023,10,26,06,00,AAXX 26064 41909 02456 52301 10304 20230 30122 40133 81530 333 58010 70000 81618 85360==
41909,2023,10,26,09,00,AAXX 26094 41909 02456 20000 10324 20190 30097 40108 82500 333 58006 70000 82615==
41909,2023,10,26,12,00,AAXX 26124 41909 02940 00000 10280 20230 30097 40108 333 10325 58010 70000==
41909,2023,10,26,15,00,AAXX 26154 41909 02940 00000 10257 20230 30116 40128 333 58004 70000==
41909,2023,10,26,18,00,AAXX 26184 41909 01940 00000 10250 20230 30118 40130 70500 333 58007 70000==
41909,2023,10,26,21,00,AAXX 26214 41909 01940 00000 10238 20230 30113 40125 70500 333 58007 70000==
41915,2023,10,20,00,00,AAXX 20004 41915 01940 00000 10210 20200 30116 40142 70500 333 58006 70000==
41915,2023,10,20,03,00,AAXX 20034 41915 02956 00000 10286 20250 30127 40153 333 20207 58003 70000==
41915,2023,10,20,06,00,AAXX 20064 41915 02556 13601 10318 20220 30109 40134 81100 333 58002 70000 81822==
41915,2023,10,20,09,00,AAXX 20094 41915 02956 00000 10320 20220 30089 40114 333 58001 70000==
41915,2023,10,20,12,00,AAXX 20124 41915 02950 00000 10274 20240 30087 40113 333 10330 59001 70000==
41915,2023,10,20,15,00,AAXX 20154 41915 02950 00000 10240 20230 30112 40137 333 58008 70000==
41915,2023,10,20,18,00,AAXX 20184 41915 01940 00000 10226 20226 30117 40142 70500 333 58002 70000==
41915,2023,10,20,21,00,AAXX 20214 41915 01940 00000 10215 20215 30112 40138 70500 333 58002 70000==
41915,2023,10,21,00,00,AAXX 21004 41915 01940 00000 10205 20205 30116 40142 70500 333 58000 70000==
41915,2023,10,21,03,00,AAXX 21034 41915 02956 03402 10284 20240 30130 40156 333 20204 58003 70000==
41915,2023,10,21,06,00,AAXX 21064 41915 02956 00000 10320 20240 30110 40136 333 58002 70000==
41915,2023,10,21,09,00,AAXX 21094 41915 02956 00402 10327 20240 30088 40113 333 59001 70000==
41915,2023,10,21,12,00,AAXX 21124 41915 02956 00000 10281 20260 30092 40117 333 10337 58005 70000==
41915,2023,10,21,15,00,AAXX 21154 41915 02950 00000 10248 20240 30119 40145 333 58007 70000==
41915,2023,10,21,18,00,AAXX 21184 41915 02950 00000 10230 20230 30114 40139 333 59003 70000==
41915,2023,10,21,21,00,AAXX 21214 41915 01950 00000 10225 20225 30111 40136 70500 333 59001 70000==
41915,2023,10,22,00,00,AAXX 22004 41915 01/40 20000 10220 20220 30121 40147 70510 81031 333 58005 70000 81362==
41915,2023,10,22,03,00,AAXX 22034 41915 02456 33402 10305 20230 30129 40155 84430 333 20219 59001 70000 81616 83362==
41915,2023,10,22,06,00,AAXX 22064 41915 02456 53002 10310 20240 30109 40134 83530 333 59002 70000 82616 84362==
41915,2023,10,22,09,00,AAXX 22094 41915 02456 60000 10315 20260 30090 40115 84540 333 58002 70000 83616 85362==
41915,2023,10,22,12,00,AAXX 22124 41915 02450 60000 10280 20260 30088 40113 83432 333 10327 59004 70000 83616 83362==
41915,2023,10,22,15,00,AAXX 22154 41915 02450 60000 10257 20250 30122 40147 83430 333 58003 70000 83616 83362==
41915,2023,10,22,18,00,AAXX 22184 41915 02450 40000 10247 20240 30113 40138 82430 333 59001 70000 82616 83362==
41915,2023,10,22,21,00,AAXX 22214 41915 02450 30000 10242 20240 30109 40135 81430 333 59002 70000 83616==
41915,2023,10,23,00,00,AAXX 23004 41915 01/40 20000 10236 20240 30119 40144 70510 81031 333 59002 70000 81362==
41915,2023,10,23,06,00,AAXX 23064 41915 02456 70000 10285 20250 30104 40129 86470 333 59005 70000 85616 86458==
41915,2023,10,23,09,00,AAXX 23094 41915 02456 80000 10285 20240 30084 40109 8642/ 333 59006 70000 85616 88458==
41915,2023,10,23,12,00,AAXX 23124 41915 02450 80000 10265 20250 30086 40111 8642/ 333 10297 59002 70000 85616 88458==
41915,2023,10,23,15,00,AAXX 23154 41915 02440 81301 10252 20240 30108 40133 8642/ 333 59014 70000 85615 88458==
41915,2023,10,23,18,00,AAXX 23184 41915 21440 82301 10246 20240 30108 40133 70262 8542/ 333 59005 60005 84615 88458==
41915,2023,10,23,21,00,AAXX 23214 41915 42440 80000 10237 20230 30098 40123 8542/ 333 59011 84615 88458==
41915,2023,10,24,00,00,AAXX 24004 41915 42450 80000 10240 20230 30094 40119 8642/ 333 59025 85615 88458==
41915,2023,10,24,03,00,AAXX 24034 41915 42456 80000 10258 20240 30114 40139 8351/ 333 20236 59006 83616 88458==
41915,2023,10,24,06,00,AAXX 24064 41915 42456 80202 10260 20230 30099 40125 8642/ 333 59005 85616 88458==
41915,2023,10,24,09,00,AAXX 24094 41915 42456 80502 10278 20240 30073 40098 8541/ 333 59011 84615 88458==
41915,2023,10,24,12,00,AAXX 24124 41915 42450 70000 10260 20240 30070 40095 85470 333 10285 59016 84615 86458==
41915,2023,10,24,15,00,AAXX 24154 41915 42456 70000 10238 20230 30077 40102 85410 333 59031 84616 87458==
41915,2023,10,24,18,00,AAXX 24184 41915 02450 80601 10242 20230 30076 40101 8662/ 333 59032 70000 82712 85616 88458==
41915,2023,10,24,21,00,AAXX 24214 41915 02450 80000 10240 20230 30075 40100 8642/ 333 59023 70000 85616 88458==
41915,2023,10,25,00,00,AAXX 25004 41915 02456 80000 10240 20230 30079 40104 8642/ 333 59015 70000 85616 88458==
41915,2023,10,25,03,00,AAXX 25034 41915 02456 71802 10268 20230 30112 40137 85610 333 20235 59002 70000 81712 84615 87458==
41915,2023,10,25,12,00,AAXX 25124 41915 02450 21302 10260 20230 30085 40111 82430 333 10301 58011 70000 81616==
41915,2023,10,26,00,00,AAXX 26004 41915 01430 81801 10229 20229 30114 40140 76562 8672/ 333 58035 70190 83710 85615 88458==
41915,2023,10,26,03,00,AAXX 26034 41915 01456 70000 10250 20230 30134 40160 70166 85470 333 20229 58022 70275 84616 85458==
41915,2023,10,26,06,00,AAXX 26064 41915 NIL=
41915,2023,10,26,09,00,AAXX 26094 41915 02456 40000 10304 20230 30087 40112 84400 333 58003 70275 83616==
41915,2023,10,26,12,00,AAXX 26124 41915 NIL=
41915,2023,10,26,15,00,AAXX 26154 41915 02950 00000 10245 20240 30105 40130 333 58005 70275==
41915,2023,10,26,18,00,AAXX 26184 41915 02950 00000 10235 20230 30107 40132 333 58002 70275==
41915,2023,10,26,21,00,AAXX 26214 41915 01940 00000 10228 20228 30102 40127 70500 333 58005 70275==
41923,2023,10,20,00,00,AAXX 20004 41923 01935 00000 10252 20210 30134 40143 70500 333 58010 70000==
41923,2023,10,20,03,00,AAXX 20034 41923 02950 00000 10292 20200 30148 40158 333 20249 58008 70000==
41923,2023,10,20,06,00,AAXX 20064 41923 02456 10000 10326 20170 30126 40136 81500 333 58001 70000 81616==
41923,2023,10,20,09,00,AAXX 20094 41923 02456 13002 10332 20180 30103 40113 81500 333 58000 70000 81616==
41923,2023,10,20,12,00,AAXX 20124 41923 02/50 20000 10298 20180 30105 40115 82030 333 10336 58000 70000 82360==
41923,2023,10,20,15,00,AAXX 20154 41923 02/45 20000 10278 20210 30126 40136 82030 333 59001 70000 82360==
41923,2023,10,20,18,00,AAXX 20184 41923 02/45 20000 10268 20210 30131 40140 82030 333 58002 70000 82360==
41923,2023,10,20,21,00,AAXX 20214 41923 01940 00000 10252 20210 30122 40131 70500 333 59008 70000==
41923,2023,10,21,00,00,AAXX 21004 41923 01935 00000 10242 20220 30128 40138 70500 333 59006 70000==
41923,2023,10,21,03,00,AAXX 21034 41923 02950 00000 10296 20220 30146 40156 333 20240 59002 70000==
41923,2023,10,21,06,00,AAXX 21064 41923 02956 00000 10328 20180 30130 40140 333 58004 70000==
41923,2023,10,21,09,00,AAXX 21094 41923 02956 00000 10340 20160 30105 40115 333 58002 70000==
41923,2023,10,21,12,00,AAXX 21124 41923 02950 00000 10301 20210 30110 40120 333 10346 58005 70000==
41923,2023,10,21,15,00,AAXX 21154 41923 02945 00000 10280 20200 30135 40145 333 58009 70000==
41923,2023,10,21,18,00,AAXX 21184 41923 01940 00000 10269 20210 30129 40138 70500 333 59002 70000==
41923,2023,10,21,21,00,AAXX 21214 41923 01440 40000 10262 20210 30122 40131 70510 82530 333 58000 70000 82616 83360==
41923,2023,10,22,00,00,AAXX 22004 41923 01435 50000 10255 20230 30132 40141 70521 83530 333 58004 70000 83615 84360==
41923,2023,10,22,03,00,AAXX 22034 41923 02450 50000 10302 20210 30145 40155 82530 333 20244 59001 70000 82616 85360==
41923,2023,10,22,06,00,AAXX 22064 41923 02450 60000 10318 20210 30126 40136 84430 333 59004 70000 83615 85360==
41923,2023,10,22,09,00,AAXX 22094 41923 01350 60000 10301 20250 30107 40117 72162 83630 333 58002 70017 81709 83615 85362==
41923,2023,10,22,12,00,AAXX 22124 41923 21350 60000 10293 20230 30107 40117 70262 83630 333 10324 59003 60028 70017 81709 83615 85362==
41923,2023,10,22,15,00,AAXX 22154 41923 02345 60000 10272 20230 30134 40143 83630 333 59001 70017 81709 83615 85362==
41923,2023,10,22,18,00,AAXX 22184 41923 01340 60000 10266 20230 30128 40137 70522 85630 333 59001 70017 82709 84615 85362==
41923,2023,10,22,21,00,AAXX 22214 41923 01335 70000 10265 20240 30126 40135 70522 86670 333 58004 70017 83708 85614 85459==
41923,2023,10,23,00,00,AAXX 23004 41923 01335 80000 10265 20250 30123 40132 70522 8662/ 333 59009 70017 83708 85614 88458==
41923,2023,10,23,03,00,AAXX 23034 41923 02350 70000 10295 20240 30131 40141 85670 333 20255 59014 70017 82709 84615 85459==
41923,2023,10,23,06,00,AAXX 23064 41923 02350 70502 10300 20230 30120 40130 85670 333 59006 70017 82709 84615 85459==
41923,2023,10,23,09,00,AAXX 23094 41923 01320 80403 10233 20230 30105 40115 79566 8692/ 333 59002 70520 83708 84614 88458 81930==
41923,2023,10,23,12,00,AAXX 23124 41923 21340 80000 10236 20230 30101 40110 70296 8532/ 333 10310 59006 60599 70590 83709 84614 88458 81930==
41923,2023,10,23,15,00,AAXX 23154 41923 02440 70000 10246 20240 30120 40129 82570 333 59014 70590 82615 85458==
41923,2023,10,23,18,00,AAXX 23184 41923 02340 70000 10246 20240 30110 40119 84670 333 59018 70590 82709 83615 85458==
41923,2023,10,23,21,00,AAXX 23214 41923 01335 80000 10247 20240 30104 40113 70522 8462/ 333 59022 70590 82709 83615 88458==
41923,2023,10,24,00,00,AAXX 24004 41923 01335 80000 10247 20240 30107 40116 70522 8532/ 333 59016 70590 82709 84614 88458 81930==
41923,2023,10,24,03,00,AAXX 24034 41923 01340 70000 10262 20240 30125 40134 70522 84670 333 20227 59006 70590 82709 83614 85458==
41923,2023,10,24,06,00,AAXX 24064 41923 02350 70903 10290 20220 30108 40118 84670 333 59012 70590 82709 83614 88458==
41923,2023,10,24,09,00,AAXX 24094 41923 02350 70902 10291 20220 30084 40094 85670 333 59021 70070 82709 84614 86458==
41923,2023,10,24,12,00,AAXX 24124 41923 01340 60602 10271 20230 30086 40096 70522 84630 333 10299 59015 70000 81709 83615 85360==
41923,2023,10,24,15,00,AAXX 24154 41923 01340 60802 10262 20220 30095 40104 70522 84630 333 59025 70000 82709 83615 85360==
41923,2023,10,24,18,00,AAXX 24184 41923 01340 70303 10260 20230 30095 40104 70522 85670 333 59015 70000 82709 84615 86458==
41923,2023,10,24,21,00,AAXX 24214 41923 01335 70000 10258 20230 30088 40097 70522 85670 333 59016 70000 82709 84615 86458==
41923,2023,10,25,00,00,AAXX 25004 41923 01335 70000 10254 20220 30097 40106 70522 85670 333 59010 70000 82709 84615 86458==
41923,2023,10,25,03,00,AAXX 25034 41923 01340 60000 10278 20240 30127 40137 70522 84630 333 20250 58002 70000 82709 83615 85360==
41923,2023,10,25,06,00,AAXX 25064 41923 02350 70000 10306 20210 30112 40122 85670 333 58004 70000 82709 84615 86458==
41923,2023,10,25,09,00,AAXX 25094 41923 02456 52103 10322 20200 30093 40103 82530 333 58009 70000 82615 83360==
41923,2023,10,25,12,00,AAXX 25124 41923 02445 50000 10287 20220 30095 40105 82520 333 10330 58009 70000 82615 83360==
41923,2023,10,25,15,00,AAXX 25154 41923 02940 00000 10275 20230 30117 40127 333 58022 70000==
41923,2023,10,25,18,00,AAXX 25184 41923 01940 00000 10258 20230 30116 40125 70500 333 58021 70000==
41923,2023,10,25,21,00,AAXX 25214 41923 01935 00000 10254 20230 30106 40115 70500 333 58018 70000==
41923,2023,10,26,00,00,AAXX 26004 41923 01935 00000 10250 20240 30116 40125 70500 333 58019 70000==
41923,2023,10,26,03,00,AAXX 26034 41923 02/40 22402 10294 20220 30139 40149 82030 333 20245 58012 70000 82360==
41923,2023,10,26,06,00,AAXX 26064 41923 02450 52702 10317 20210 30124 40134 83430 333 58012 70000 82616 83360==
41923,2023,10,26,09,00,AAXX 26094 41923 02450 32703 10319 20220 30097 40107 83430 333 58004 70000 83616==
41923,2023,10,26,12,00,AAXX 26124 41923 01450 20000 10292 20210 30101 40111 70500 81530 333 10328 58006 70000 81616==
41923,2023,10,26,15,00,AAXX 26154 41923 01945 00000 10272 20230 30122 40132 70500 333 58005 70000==
41923,2023,10,26,18,00,AAXX 26184 41923 01940 00000 10262 20240 30126 40136 70500 333 58010 70000==
41923,2023,10,26,21,00,AAXX 26214 41923 42940 00000 10250 20230 30112 40121 58006==
41926,2023,10,20,00,00,AAXX 20004 41926 01940 00000 10210 20200 30129 40143 70500 333 58017 70000==
41926,2023,10,20,03,00,AAXX 20034 41926 01950 00000 10280 20210 30147 40161 70500 333 20210 58008 70000==
41926,2023,10,20,06,00,AAXX 20064 41926 02956 03103 10320 20170 30126 40139 333 59002 70000==
41926,2023,10,20,09,00,AAXX 20094 41926 02456 33602 10322 20160 30103 40116 83500 333 58002 70000 83618==
41926,2023,10,20,12,00,AAXX 20124 41926 01950 00000 10270 20220 30104 40118 70500 333 10332 58001 70000==
41926,2023,10,20,15,00,AAXX 20154 41926 01950 00000 10235 20220 30129 40143 70500 333 58003 70000==
41926,2023,10,20,18,00,AAXX 20184 41926 01950 00000 10220 20210 30127 40141 70500 333 58002 70000==
41926,2023,10,20,21,00,AAXX 20214 41926 01950 00000 10212 20200 30124 40138 70500 333 59003 70000==
41926,2023,10,21,00,00,AAXX 21004 41926 01940 00000 10205 20200 30128 40142 70500 333 59001 70000==
41926,2023,10,21,03,00,AAXX 21034 41926 01950 03601 10267 20230 30143 40157 70500 333 20205 59004 70000==
41926,2023,10,21,06,00,AAXX 21064 41926 02456 43601 10302 20210 30134 40148 84400 333 58004 70000 81618 83820==
41926,2023,10,21,09,00,AAXX 21094 41926 02457 23601 10322 20190 30106 40119 82400 333 58003 70000 81618==
41926,2023,10,21,12,00,AAXX 21124 41926 01950 00000 10258 20220 30111 40125 70500 333 10327 58007 70000==
41926,2023,10,21,15,00,AAXX 21154 41926 01950 00000 10240 20230 30133 40147 70500 333 58004 70000==
41926,2023,10,21,18,00,AAXX 21184 41926 01950 00000 10225 20220 30126 40140 70500 333 59001 70000==
41926,2023,10,21,21,00,AAXX 21214 41926 01950 00000 10220 20210 30128 40142 70500 333 58004 70000==
41926,2023,10,22,00,00,AAXX 22004 41926 01950 00000 10212 20200 30130 40144 70500 333 58002 70000==
41926,2023,10,22,03,00,AAXX 22034 41926 02/56 53602 10278 20240 30142 40156 85030 333 20210 59001 70000 85362==
41926,2023,10,22,06,00,AAXX 22064 41926 02456 60000 10295 20230 30122 40135 82510 333 59012 70000 82618 86459==
41926,2023,10,22,09,00,AAXX 22094 41926 02450 50000 10318 20210 30104 40117 82510 333 59002 70000 82618 85459==
41926,2023,10,22,12,00,AAXX 22124 41926 02450 10000 10267 20240 30103 40117 81500 333 10322 59008 70000 81618==
41926,2023,10,22,15,00,AAXX 22154 41926 01940 00000 10245 20240 30128 40141 70500 333 59005 70000==
41926,2023,10,22,18,00,AAXX 22184 41926 01940 00000 10235 20230 30121 40135 70500 333 59005 70000==
41926,2023,10,22,21,00,AAXX 22214 41926 01940 00000 10225 20220 30117 40131 70500 333 59011 70000==
41926,2023,10,23,00,00,AAXX 23004 41926 01440 20000 10224 20210 30115 40129 70500 82500 333 59015 70000 82618==
41926,2023,10,23,06,00,AAXX 23064 41926 02456 60000 10313 20220 30114 40127 83510 333 59008 70000 83618 84459==
41926,2023,10,23,09,00,AAXX 23094 41926 02450 71802 10273 20210 30091 40105 84310 333 59013 70000 83618 85459 81930==
41926,2023,10,23,12,00,AAXX 23124 41926 02450 70000 10264 20220 30097 40111 84310 333 10327 59006 70000 83618 85459 81930==
41926,2023,10,23,15,00,AAXX 23154 41926 02440 50000 10245 20230 30108 40128 82510 333 59020 70000 82618 85459==
41926,2023,10,23,18,00,AAXX 23184 41926 02440 50000 10238 20230 30097 40111 82510 333 59024 70000 82618 85459==
41926,2023,10,23,21,00,AAXX 23214 41926 01440 50000 10240 20230 30095 40109 70522 82510 333 59022 70000 82618 85459==
41926,2023,10,24,00,00,AAXX 24004 41926 01440 50000 10241 20230 30091 40105 70522 82510 333 59024 70000 82618 85459==
41926,2023,10,24,03,00,AAXX 24034 41926 01450 70000 10268 20250 30116 40130 70522 84510 333 20237 59010 70000 84618 87459==
41926,2023,10,24,06,00,AAXX 24064 41926 21450 70000 10303 20230 30098 40111 70162 84510 333 59016 60005 84618 87459==
41926,2023,10,24,09,00,AAXX 24094 41926 02456 70000 10300 20230 30074 40087 84510 333 59017 70000 84618 87459==
41926,2023,10,24,12,00,AAXX 24124 41926 42450 60000 10270 20250 30082 40096 84410 333 10318 59015 83618 86459==
41926,2023,10,24,15,00,AAXX 24154 41926 42450 40000 10252 20240 30098 40112 82530 333 59010 82618 83362==
41926,2023,10,24,18,00,AAXX 24184 41926 41950 00000 10235 20230 30096 40110 70500 333 59025==
41926,2023,10,24,21,00,AAXX 24214 41926 01950 00000 10230 20220 30098 40112 70500 333 58003 70000==
41926,2023,10,25,00,00,AAXX 25004 41926 01940 00000 10226 20226 30104 40118 70500 333 58013 70000==
41926,2023,10,25,03,00,AAXX 25034 41926 41425 73101 10255 20250 30127 40141 71042 83510 333 20226 58011 82618 86458==
41926,2023,10,25,09,00,AAXX 25094 41926 02456 40000 10305 20210 30091 40104 84400 333 58017 70000 81616 83820==
41926,2023,10,25,12,00,AAXX 25124 41926 02450 20000 10277 20240 30090 40104 82500 333 10323 58008 70000 82618==
41926,2023,10,25,15,00,AAXX 25154 41926 01950 00000 10248 20240 30113 40127 70500 333 58015 70000==
41926,2023,10,25,18,00,AAXX 25184 41926 01950 00000 10245 20240 30112 40126 70500 333 58016 70000==
41926,2023,10,26,00,00,AAXX 26004 41926 01940 00000 10222 20220 30115 40120 70500 333 58011 70000==
41926,2023,10,26,03,00,AAXX 26034 41926 01950 03110 10272 20220 30136 40150 70500 333 20222 58009 70000==
41926,2023,10,26,06,00,AAXX 26064 41926 NIL=
41926,2023,10,26,12,00,AAXX 26124 41926 01950 00000 10270 20240 30098 40112 70520 333 10330 58008 70000==
41926,2023,10,26,15,00,AAXX 26154 41926 01950 00000 10245 20230 30118 40132 70500 333 58005 70000==
41926,2023,10,26,18,00,AAXX 26184 41926 01950 00000 10235 20230 30116 40130 70500 333 58004 70000==
41926,2023,10,26,21,00,AAXX 26214 41926 01950 00000 10222 20210 30112 40126 70500 333 59002 70000==
41927,2023,10,20,00,00,AAXX 20004 41927 31950 00000 10228 20228 30128 40143 70500 333 58006 70000=
41927,2023,10,20,06,00,AAXX 20064 41927 32958 03601 10305 20200 30127 40141 333 58002 70000=
41927,2023,10,20,12,00,AAXX 20124 41927 32956 00000 10275 20220 30102 40116 333 10330 58002 70000=
41927,2023,10,20,18,00,AAXX 20184 41927 31950 00000 10230 20220 30122 40136 70500 333 59002 70000=
41927,2023,10,21,00,00,AAXX 21004 41927 31950 00000 10225 20220 30125 40139 70500 333 59003 70000=
41927,2023,10,21,06,00,AAXX 21064 41927 32457 23602 10315 20220 30129 40143 82500 333 56800 58002 70000 82618=
41927,2023,10,21,12,00,AAXX 21124 41927 32956 00000 10273 20230 30108 40122 333 10328 58006 70000=
41927,2023,10,21,18,00,AAXX 21184 41927 31950 00000 10238 20230 30120 40134 70500 333 59002 70000=
41927,2023,10,22,00,00,AAXX 22004 41927 31940 30000 10232 20230 30126 40140 70500 80001 333 56009 58001 70000 83080=
41927,2023,10,22,06,00,AAXX 22064 41927 32457 53502 10310 20180 30120 40135 82530 333 56890 59009 70000 82618 85362=
41927,2023,10,22,12,00,AAXX 22124 41927 32956 43401 10275 20250 30101 40115 80001 333 10325 56009 59007 70000 84080=
41927,2023,10,22,18,00,AAXX 22184 41927 31950 00000 10247 20240 30122 40136 70500 333 58002 70000=
41927,2023,10,23,00,00,AAXX 23004 41927 31440 20000 10235 20230 30114 40128 70500 82500 333 56900 59012 70000 82618=
41927,2023,10,23,06,00,AAXX 23064 41927 32457 62901 10308 20220 30108 40122 83510 333 56690 59012 70000 83617 86459=
41927,2023,10,23,12,00,AAXX 23124 41927 11456 70000 10250 20230 30096 40111 60055 70196 83510 333 10317 56490 59005 70048 83617 87459=
41927,2023,10,23,18,00,AAXX 23184 41927 31450 50000 10240 20230 30103 40117 70522 82510 333 56990 59019 70048 82618 85459=
41927,2023,10,24,00,00,AAXX 24004 41927 31450 73601 10245 20240 30093 40107 70521 83510 333 56890 59021 70048 83617 87459=
41927,2023,10,24,06,00,AAXX 24064 41927 32457 61703 10295 20240 30097 40111 84410 333 56490 59011 70048 83617 86459=
41927,2023,10,24,12,00,AAXX 24124 41927 32956 40000 10275 20250 30079 40093 80001 333 10307 56009 59017 70000 84080=
41927,2023,10,24,18,00,AAXX 24184 41927 32456 50000 10250 20240 30092 40106 82510 333 56490 59011 70000 82618 85459=
41927,2023,10,25,00,00,AAXX 25004 41927 31950 00000 10235 20235 30095 40110 70500 333 58002 70000=
41927,2023,10,26,06,00,AAXX 26064 41927 NIL=
41927,2023,10,26,12,00,AAXX 26124 41927 NIL=
41929,2023,10,20,00,00,AAXX 20004 41929 01950 00000 10234 20220 30126 40136 70500 333 58001 70000==
41929,2023,10,20,03,00,AAXX 20034 41929 02956 00000 10295 20220 30051 40060 333 20228 58007 70000==
41929,2023,10,20,06,00,AAXX 20064 41929 02957 00503 10320 20200 30131 40140 333 58000 70000==
41929,2023,10,20,09,00,AAXX 20094 41929 02957 03103 10330 20190 30107 40116 333 58000 70000==
41929,2023,10,20,12,00,AAXX 20124 41929 01950 00000 10287 20220 30107 40116 70500 333 10333 58002 70000==
41929,2023,10,20,15,00,AAXX 20154 41929 01950 00000 10252 20210 30130 40139 70500 333 58004 70000==
41929,2023,10,20,18,00,AAXX 20184 41929 01950 00000 10243 20210 30131 40141 70500 333 59001 70000==
41929,2023,10,20,21,00,AAXX 20214 41929 01950 00000 10235 20220 30128 40138 70500 333 59001 70000==
41929,2023,10,21,00,00,AAXX 21004 41929 01950 00000 10227 20220 30124 40134 70500 333 59002 70000==
41929,2023,10,21,03,00,AAXX 21034 41929 02956 02702 10300 20220 30148 40157 333 20223 59003 70000==
41929,2023,10,21,06,00,AAXX 21064 41929 02957 03602 10325 20190 30136 40145 333 58005 70000==
41929,2023,10,21,09,00,AAXX 21094 41929 02957 03103 10340 20200 30109 40118 333 58002 70000==
41929,2023,10,21,12,00,AAXX 21124 41929 01950 00000 10287 20220 30111 40120 70500 333 10342 58004 70000==
41929,2023,10,21,15,00,AAXX 21154 41929 01950 00000 10257 20220 30135 40144 70500 333 58005 70000==
41929,2023,10,21,18,00,AAXX 21184 41929 01950 00000 10247 20230 30129 40138 70500 333 59002 70000==
41929,2023,10,21,21,00,AAXX 21214 41929 01/50 40000 10245 20230 30128 40137 70520 84030 333 58000 70000 84365==
41929,2023,10,22,00,00,AAXX 22004 41929 01/50 50000 10242 20230 30127 40137 70522 85030 333 58003 70000 85365==
41929,2023,10,22,03,00,AAXX 22034 41929 02/56 73202 10286 20240 30143 40152 87030 333 20235 59005 70000 87365==
41929,2023,10,22,06,00,AAXX 22064 41929 02457 70000 10318 20220 30130 40139 83530 333 59006 70000 83618 86365==
41929,2023,10,22,09,00,AAXX 22094 41929 02457 60102 10318 20210 30109 40119 84430 333 58000 70000 83616 86362==
41929,2023,10,22,12,00,AAXX 22124 41929 02/56 30000 10280 20250 30109 40119 83030 333 10328 59002 70000 83362==
41929,2023,10,22,15,00,AAXX 22154 41929 01450 50000 10262 20250 30133 40143 70522 82530 333 59002 70000 82616 84362==
41929,2023,10,22,18,00,AAXX 22184 41929 01450 60000 10260 20240 30122 40132 70522 82530 333 59007 70000 82616 85362==
41929,2023,10,22,21,00,AAXX 22214 41929 01440 60000 10253 20240 30114 40124 70522 82520 333 59014 70000 82616 85458==
41929,2023,10,23,00,00,AAXX 23004 41929 01440 80000 10251 20240 30120 40130 70522 8352/ 333 59007 70000 83616 88458==
41929,2023,10,23,03,00,AAXX 23034 41929 02456 61402 10300 20250 30132 40141 82540 333 20250 59013 70000 82618 85365==
41929,2023,10,23,06,00,AAXX 23064 41929 02456 70000 10310 20250 30120 40129 83510 333 59010 70000 83618 86462==
41929,2023,10,23,09,00,AAXX 23094 41929 01456 61303 10305 20250 30092 40101 70162 82530 333 59017 70016 82618 84365==
41929,2023,10,23,12,00,AAXX 23124 41929 11456 70000 10265 20240 30102 40111 60026 70362 83570 333 10312 59007 70016 83618 85462==
41929,2023,10,23,15,00,AAXX 23154 41929 02/56 50000 10256 20240 30117 40126 85030 333 59016 70016 85365==
41929,2023,10,23,18,00,AAXX 23184 41929 01450 80000 10255 20250 30108 40117 70522 8451/ 333 59014 70016 84618 88462==
41929,2023,10,23,21,00,AAXX 23214 41929 01450 80000 10256 20250 30102 40111 70522 8451/ 333 59012 70016 84618 88462==
41929,2023,10,24,00,00,AAXX 24004 41929 01450 80000 10257 20250 30096 40105 70522 8451/ 333 59024 70016 84618 88462==
41929,2023,10,24,03,00,AAXX 24034 41929 02456 80902 10272 20240 30120 40129 8451/ 333 20250 59012 70000 84618 88462==
41929,2023,10,24,06,00,AAXX 24064 41929 02456 71403 10290 20220 30108 40117 84510 333 59012 70000 84618 86462==
41929,2023,10,24,09,00,AAXX 24094 41929 02456 50903 10302 20220 30079 40089 84510 333 59013 70000 83618 85462==
41929,2023,10,24,12,00,AAXX 24124 41929 02456 81003 10270 20230 30082 40092 8551/ 333 10310 59020 70000 85618 88462==
41929,2023,10,24,15,00,AAXX 24154 41929 02456 60102 10256 20250 30097 40107 84510 333 59020 70000 84618 86462==
41929,2023,10,24,18,00,AAXX 24184 41929 02456 61001 10250 20240 30095 40105 83570 333 59013 70000 83618 83462==
41929,2023,10,24,21,00,AAXX 24214 41929 02456 61001 10250 20240 30091 40101 83570 333 59011 70000 83618 83462==
41929,2023,10,25,00,00,AAXX 25004 41929 02/56 33001 10244 20230 30099 40108 83030 333 58003 70000 83365==
41929,2023,10,25,15,00,AAXX 25154 41929 02956 00000 10260 20240 30117 40127 333 58020 70000==
41929,2023,10,26,00,00,AAXX 26004 41929 01950 00000 10240 20220 30116 40125 70500 333 58017 70000==
41929,2023,10,26,06,00,AAXX 26064 41929 02456 20000 10322 20200 30127 40136 82400 333 58013 70000 81618==
41929,2023,10,26,12,00,AAXX 26124 41929 02956 00000 10280 20220 30103 40113 333 10335 58006 70000==
41929,2023,10,26,15,00,AAXX 26154 41929 02956 00000 10260 20240 30124 40134 333 58007 70000==
41929,2023,10,26,18,00,AAXX 26184 41929 02956 00000 10248 20240 30122 40132 333 58007 70000==
41929,2023,10,26,21,00,AAXX 26214 41929 02956 00000 10244 20230 30113 40123 333 58007 70000==
41933,2023,10,20,00,00,AAXX 20004 41933 01908 00000 10233 20220 30126 40135 74640 333 58011 70000==
41933,2023,10,20,03,00,AAXX 20034 41933 01950 00000 10290 20230 30141 40150 70540 333 20232 58006 70000==
41933,2023,10,20,06,00,AAXX 20064 41933 41450 20000 10318 20210 30118 40126 70540 82500 333 59003 82618==
41933,2023,10,20,09,00,AAXX 20094 41933 01450 12802 10325 20230 30094 40102 70500 81500 333 59004 70000 81618==
41933,2023,10,20,12,00,AAXX 20124 41933 01950 03002 10280 20200 30096 40104 70500 333 10338 59002 70000==
41933,2023,10,20,15,00,AAXX 20154 41933 01940 00000 10250 20240 30114 40122 70500 333 59005 70000==
41933,2023,10,20,18,00,AAXX 20184 41933 01940 00000 10246 20246 30116 40124 70500 333 59004 70000==
41933,2023,10,20,21,00,AAXX 20214 41933 01940 00000 10240 20230 30115 40123 70500 333 59008 70000==
41933,2023,10,21,00,00,AAXX 21004 41933 01940 00000 10235 20220 30114 40122 70500 333 59012 70000==
41933,2023,10,21,03,00,AAXX 21034 41933 01940 00000 10290 20220 30139 40147 70500 333 20222 59002 70000==
41933,2023,10,21,06,00,AAXX 21064 41933 01940 00903 10325 20230 30123 40131 70500 333 58005 70000==
41933,2023,10,21,09,00,AAXX 21094 41933 01950 00702 10325 20230 30096 40104 70500 333 58002 70000==
41933,2023,10,21,12,00,AAXX 21124 41933 01940 00000 10282 20230 30101 40109 70500 333 10338 58005 70000==
41933,2023,10,21,15,00,AAXX 21154 41933 01940 00000 10266 20240 30126 40135 70500 333 58012 70000==
41933,2023,10,21,18,00,AAXX 21184 41933 01940 00000 10255 20250 30121 40129 70500 333 58005 70000==
41933,2023,10,21,21,00,AAXX 21214 41933 01440 40000 10254 20250 30116 40124 70500 82530 333 58001 70000 82618 85362==
41933,2023,10,22,00,00,AAXX 22004 41933 01456 60000 10254 20230 30124 40132 70520 83530 333 58010 70000 83618 85362==
41933,2023,10,22,03,00,AAXX 22034 41933 01456 61302 10290 20250 30138 40146 70522 83530 333 20250 59001 70000 83618 85362==
41933,2023,10,22,06,00,AAXX 22064 41933 02456 60802 10332 20220 30126 40134 84330 333 58003 70000 84618 86362==
41933,2023,10,22,09,00,AAXX 22094 41933 02456 53002 10330 20230 30098 40106 84430 333 58002 70000 82618 85362==
41933,2023,10,22,12,00,AAXX 22124 41933 02456 50000 10305 20250 30097 40105 84430 333 10340 59004 70000 82618 85362==
41933,2023,10,22,15,00,AAXX 22154 41933 01450 60000 10260 20240 30126 40134 70522 83530 333 58000 70000 83618 86362==
41933,2023,10,22,18,00,AAXX 22184 41933 01450 40000 10254 20230 30121 40129 70522 82530 333 58000 70000 82618 84362==
41933,2023,10,22,21,00,AAXX 22214 41933 01450 70000 10252 20230 30114 40122 70522 84520 333 59002 70000 84616 87458==
41933,2023,10,23,00,00,AAXX 23004 41933 01450 80000 10250 20230 30117 40125 76122 8452/ 333 59007 70000 84616 88458==
41933,2023,10,23,03,00,AAXX 23034 41933 41456 60000 10261 20240 30128 40137 76162 84520 333 20248 59010 84616 86458==
41933,2023,10,23,06,00,AAXX 23064 41933 11456 71802 10287 20240 30119 40128 60001 70362 85520 333 59007 85616 87458==
41933,2023,10,23,09,00,AAXX 23094 41933 42356 81802 10286 20260 30096 40105 8662/ 333 59002 82708 84615 88457==
41933,2023,10,23,12,00,AAXX 23124 41933 42450 80000 10275 20260 30094 40103 8662/ 333 10295 59003 82708 84616 88457==
41933,2023,10,23,15,00,AAXX 23154 41933 42350 80000 10265 20250 30113 40122 8662/ 333 59013 82708 84615 88457==
41933,2023,10,23,18,00,AAXX 23184 41933 42450 80000 10255 20250 30107 40116 8452/ 333 59014 84616 88458==
41933,2023,10,23,21,00,AAXX 23214 41933 42450 80000 10250 20240 30106 40115 8452/ 333 59008 84616 88458==
41933,2023,10,24,00,00,AAXX 24004 41933 01340 80903 10245 20240 30105 40114 76162 8572/ 333 59012 70020 82708 83615 88457==
41933,2023,10,24,03,00,AAXX 24034 41933 01350 83302 10246 20240 30113 40122 76166 8572/ 333 20243 59015 70038 83708 83614 88457==
41933,2023,10,24,06,00,AAXX 24064 41933 21456 80504 10262 20220 30102 40111 70262 8582/ 333 59017 60028 70040 83616 83825 88458==
41933,2023,10,24,09,00,AAXX 24094 41933 02456 81202 10270 20230 30076 40084 8452/ 333 59020 70040 84616 88458==
41933,2023,10,24,12,00,AAXX 24124 41933 02456 60000 10260 20240 30076 40084 83550 333 10276 59018 70040 83618 86362==
41933,2023,10,24,15,00,AAXX 24154 41933 02450 60000 10255 20240 30079 40087 84520 333 59034 70040 84618 86458==
41933,2023,10,24,18,00,AAXX 24184 41933 02440 83502 10252 20230 30081 40089 8662/ 333 59026 70040 82708 84615 88457==
41933,2023,10,24,21,00,AAXX 24214 41933 02440 63503 10246 20230 30090 40099 84520 333 59016 70040 84615 86458==
41933,2023,10,25,00,00,AAXX 25004 41933 02450 63502 10245 20230 30096 40105 84520 333 59009 70020 84615 86458==
41933,2023,10,25,03,00,AAXX 25034 41933 02450 70000 10260 20230 30123 40131 83520 333 20240 58010 70002 83616 86458==
41933,2023,10,25,09,00,AAXX 25094 41933 02910 00000 10300 20230 30087 40096 85400 333 58011 70000 83618 83826==
41933,2023,10,26,06,00,AAXX 26064 41933 NIL=
41933,2023,10,26,09,00,AAXX 26094 41933 01450 30000 10314 20220 30091 40099 70510 83400 333 58004 70000 82618==
41933,2023,10,26,12,00,AAXX 26124 41933 01440 20000 10280 20250 30093 40102 70500 82500 333 10324 58002 70000 82618==
41933,2023,10,26,15,00,AAXX 26154 41933 01940 00000 10259 20250 30113 40121 70500 333 58000 70000==
41933,2023,10,26,18,00,AAXX 26184 41933 01940 00000 10246 20240 30113 40122 70500 333 59003 70000==
41933,2023,10,26,21,00,AAXX 26214 41933 01930 00000 10235 20230 30104 40113 71000 333 59006 70000==
41936,2023,10,20,00,00,AAXX 20004 41936 01905 00000 10218 20210 30127 40134 74240 333 58007 70000==
41936,2023,10,20,03,00,AAXX 20034 41936 01916 00606 10280 20220 30146 40153 70544 333 20216 58007 70000==
41936,2023,10,20,06,00,AAXX 20064 41936 01950 00604 10324 20200 30143 40150 70540 333 58015 70000==
41936,2023,10,20,09,00,AAXX 20094 41936 01950 00103 10330 20200 30111 40118 70500 333 58005 70000==
41936,2023,10,20,12,00,AAXX 20124 41936 01950 00000 10274 20220 30107 40115 70500 333 10334 58007 70000==
41936,2023,10,20,15,00,AAXX 20154 41936 01950 00000 10250 20230 30127 40134 70500 333 58008 70000==
41936,2023,10,20,18,00,AAXX 20184 41936 01930 00000 10240 20230 30127 40134 70500 333 59001 70000==
41936,2023,10,20,21,00,AAXX 20214 41936 01930 00000 10238 20230 30112 40119 70500 333 59009 70000==
41936,2023,10,21,00,00,AAXX 21004 41936 01912 00000 10208 20200 30122 40129 71000 333 59005 70000==
41936,2023,10,21,03,00,AAXX 21034 41936 01920 04003 10270 20230 30141 40148 70500 333 20204 59005 70000==
41936,2023,10,21,06,00,AAXX 21064 41936 01930 23003 10314 20220 30139 40146 70500 333 59004 70000 82500==
41936,2023,10,21,09,00,AAXX 21094 41936 01940 03003 10330 20210 30109 40116 70500 333 59002 70000==
41936,2023,10,21,12,00,AAXX 21124 41936 01940 00000 10274 20230 30110 40117 70500 333 10334 58002 70000==
41936,2023,10,21,15,00,AAXX 21154 41936 01940 00000 10244 20220 30132 40139 70500 333 58005 70000==
41936,2023,10,21,18,00,AAXX 21184 41936 01925 00000 10234 20220 30123 40130 70500 333 59005 70000==
41936,2023,10,21,21,00,AAXX 21214 41936 01918 00000 10230 20220 30112 40119 70500 333 58000 70000==
41936,2023,10,22,00,00,AAXX 22004 41936 01410 50000 10226 20220 30127 40134 71010 82530 333 58005 70000 82615 84362==
41936,2023,10,22,03,00,AAXX 22034 41936 01410 50703 10266 20240 30141 40148 72844 82530 333 20202 58000 70000 82615 85362==
41936,2023,10,22,06,00,AAXX 22064 41936 01425 50604 10300 20240 30129 40136 70542 83530 333 59010 70000 83615 85362==
41936,2023,10,22,09,00,AAXX 22094 41936 01425 30303 10318 20240 30109 40116 70522 81530 333 58000 70000 81615 83362==
41936,2023,10,22,12,00,AAXX 22124 41936 01/20 40000 10274 20250 30110 40117 70522 84030 333 10320 58000 70000 84362==
41936,2023,10,22,15,00,AAXX 22154 41936 01420 40000 10260 20240 30127 40134 70522 81530 333 59005 70000 81615==
41936,2023,10,22,18,00,AAXX 22184 41936 01420 40000 10254 20230 30120 40127 70522 81530 333 59003 70000 81615 83362==
41936,2023,10,22,21,00,AAXX 22214 41936 01416 40000 10248 20230 30111 40118 70522 81530 333 59001 70000 81615 83362==
41936,2023,10,23,00,00,AAXX 23004 41936 01409 40000 10234 20220 30116 40123 74022 81530 333 59011 70000 81615 83362==
41936,2023,10,23,03,00,AAXX 23034 41936 01/14 20803 10276 20240 30130 40137 70541 82030 333 20232 59011 70000 82362==
41936,2023,10,23,06,00,AAXX 23064 41936 01418 71206 10318 20250 30113 40120 70542 84630 333 59016 70000 82710 83615 85362==
41936,2023,10,23,09,00,AAXX 23094 41936 41435 70303 10262 20240 30095 40102 59014 70140 85362==
41936,2023,10,23,12,00,AAXX 23124 41936 01430 70603 10320 20240 30103 40110 59007 70140 85362 333 70140==
41936,2023,10,23,15,00,AAXX 23154 41936 01430 50000 10256 20240 30109 40116 70522 82830 333 59018 70140 82615 84362==
41936,2023,10,23,18,00,AAXX 23184 41936 01420 60000 10248 20240 30099 40106 70522 83830 333 59021 70140 83615 85362==
41936,2023,10,23,21,00,AAXX 23214 41936 01420 60000 10244 20230 30091 40098 70522 83830 333 59020 70140 83615 85362==
41936,2023,10,24,00,00,AAXX 24004 41936 01416 60000 10240 20230 30094 40102 70522 83830 333 59021 70140 83615 85362==
41936,2023,10,24,03,00,AAXX 24034 41936 41420 60403 10263 20236 30113 40120 59017 70522 85362==
41936,2023,10,24,06,00,AAXX 24064 41936 41425 70403 10296 20240 30109 40116 59004 70522 85362==
41936,2023,10,24,09,00,AAXX 24094 41936 01435 61106 10308 20230 30077 40084 70522 83830 333 59018 70000 83615 85362==
41936,2023,10,24,12,00,AAXX 24124 41936 01/30 50000 10272 20250 30082 40089 70522 85030 333 10320 59021 70000 85362==
41936,2023,10,24,15,00,AAXX 24154 41936 01/30 50000 10256 20240 30094 40101 70522 85030 333 59015 70000 85362==
41936,2023,10,24,18,00,AAXX 24184 41936 01/25 40000 10250 20240 30091 40098 70522 84030 333 59008 70000 84362==
41936,2023,10,24,21,00,AAXX 24214 41936 01/18 20000 10246 20240 30082 40089 70521 82030 333 59009 70000 82362==
41936,2023,10,25,00,00,AAXX 25004 41936 01/12 20000 10242 20230 30097 40104 71021 82030 333 59002 70000 82362==
41936,2023,10,25,03,00,AAXX 25034 41936 01/40 21904 10270 20250 30128 40135 70542 82030 333 20234 58015 70000 82362==
41936,2023,10,25,06,00,AAXX 25064 41936 01450 43205 10320 20240 30119 40126 70542 82530 333 58010 70000 82615 84362==
41936,2023,10,25,09,00,AAXX 25094 41936 01450 30303 10326 20230 30097 40104 70511 82830 333 58021 70000 82615==
41936,2023,10,25,12,00,AAXX 25124 41936 01950 00000 10280 20250 30093 40100 70501 333 10330 58010 70000==
41936,2023,10,25,15,00,AAXX 25154 41936 01950 00000 10266 20250 30113 40120 70500 333 58015 70000==
41936,2023,10,25,18,00,AAXX 25184 41936 01950 00000 10260 20240 30108 40115 70500 333 58017 70000==
41936,2023,10,25,21,00,AAXX 25214 41936 01930 00000 10256 20250 30095 40102 70500 333 58013 70000==
41936,2023,10,26,00,00,AAXX 26004 41936 01916 00000 10236 20230 30113 40120 70500 333 58016 70000==
41936,2023,10,26,03,00,AAXX 26034 41936 01918 00000 10276 20240 30131 40138 70500 333 20234 58003 70000==
41936,2023,10,26,06,00,AAXX 26064 41936 01940 03303 10322 20210 30123 40130 70500 333 58004 70000==
41936,2023,10,26,12,00,AAXX 26124 41936 01950 00000 10280 20250 30103 40110 70511 333 10340 58010 70000==
41936,2023,10,26,15,00,AAXX 26154 41936 01950 00000 10258 20240 30117 40125 70500 333 58005 70000==
41936,2023,10,26,18,00,AAXX 26184 41936 01930 00000 10250 20240 30117 40125 70500 333 58010 70000==
41936,2023,10,26,21,00,AAXX 26214 41936 01930 00000 10242 20230 30113 40120 70500 333 58018 70000==
41938,2023,10,20,00,00,AAXX 20004 41938 31925 00000 10222 20210 30129 40133 71000 333 58005 70000=
41938,2023,10,20,06,00,AAXX 20064 41938 32956 00303 10307 20210 30133 40137 333 58006 70000=
41938,2023,10,20,12,00,AAXX 20124 41938 31950 00000 10278 20230 30117 40121 333 10320 58010 70000=
41938,2023,10,20,18,00,AAXX 20184 41938 31950 02701 10227 20220 30127 40131 70500 333 58004 70000=
41938,2023,10,21,00,00,AAXX 21004 41938 31925 02701 10212 20200 30125 40129 71000 333 59004 70000=
41938,2023,10,21,06,00,AAXX 21064 41938 32956 03602 10312 20260 30132 40136 333 58000 70000=
41938,2023,10,21,12,00,AAXX 21124 41938 31950 00000 10275 20230 30109 40113 70500 333 10325 59008 70000=
41938,2023,10,21,18,00,AAXX 21184 41938 31950 00000 10234 20210 30123 40127 70500 333 59004 70000=
41938,2023,10,22,00,00,AAXX 22004 41938 31925 40000 10228 20220 30129 40133 71010 84070 333 56090 58004 70000 83362=
41938,2023,10,22,06,00,AAXX 22064 41938 32956 42001 10320 20220 30125 40129 84070 333 56090 59007 70000 83460=
41938,2023,10,22,12,00,AAXX 22124 41938 31950 50000 10280 20260 30110 40114 70522 83012 333 10327 56099 58001 70000 83460 84079=
41938,2023,10,22,18,00,AAXX 22184 41938 31435 40000 10257 20250 30124 40128 70521 82510 333 56390 58001 70000 82618 83460=
41938,2023,10,23,00,00,AAXX 23004 41938 31420 70000 10248 20240 30121 40125 71022 81571 333 56399 59008 70000 81618 85460=
41938,2023,10,23,06,00,AAXX 23064 41938 32456 81501 10276 20230 30123 40127 8352/ 333 56399 59002 70000 83618 88459=
41938,2023,10,23,12,00,AAXX 23124 41938 32456 82001 10270 20230 30104 40108 8352/ 333 10302 56499 59006 70000 83618 88459=
41938,2023,10,23,18,00,AAXX 23184 41938 31445 81701 10252 20230 30104 40108 70522 8152/ 333 56499 59020 70000 81618 88459=
41938,2023,10,24,00,00,AAXX 24004 41938 31450 80702 10251 20230 30095 40099 70522 8432/ 333 56299 59026 70000 83618 81930 88459=
41938,2023,10,24,06,00,AAXX 24064 41938 31450 80703 10276 20240 30103 40107 70522 8541/ 333 56299 59020 70000 83618 83825 88459=
41938,2023,10,24,12,00,AAXX 24124 41938 32450 50000 10260 20230 30083 40087 70522 82510 333 20290 56990 59021 70000 82618 84460=
41938,2023,10,24,18,00,AAXX 24184 41938 31440 73601 10252 20230 30093 40097 70522 82510 333 56290 59011 70000 82617 86460=
41938,2023,10,25,00,00,AAXX 25004 41938 31450 83201 10246 20240 30093 40097 70522 8352/ 333 56999 59002 70000 83617 88458=
41938,2023,10,25,12,00,AAXX 25124 41938 31550 10000 10272 20240 30100 40104 70511 81101 333 10325 56909 58017 70000 81825=
41938,2023,10,25,18,00,AAXX 25184 41938 31925 00000 10248 20240 30112 40116 71000 333 58019 70000=
41938,2023,10,26,00,00,AAXX 26004 41938 31912 00000 10235 20235 30114 40118 71000 333 58021 70000=
41938,2023,10,26,06,00,AAXX 26064 41938 32456 23602 10312 20210 30128 40132 82400 333 56800 58009 70000=
41938,2023,10,26,12,00,AAXX 26124 41938 31450 20000 10280 20260 30105 40109 70511 82500 333 10322 56900 58005 70000 82618=
41938,2023,10,26,18,00,AAXX 26184 41938 31450 00000 10248 20240 30114 40118 70500 333 59002 70000=
41939,2023,10,20,00,00,AAXX 20004 41939 01956 00000 10230 20220 30140 40148 70500 333 58011 70000==
41939,2023,10,20,03,00,AAXX 20034 41939 02958 00000 10278 20230 30150 40158 333 20225 58003 70000==
41939,2023,10,20,09,00,AAXX 20094 41939 02958 00000 10318 20190 30110 40118 333 58006 70000==
41939,2023,10,20,18,00,AAXX 20184 41939 01950 00000 10240 20220 30137 40145 70500 333 58001 70000==
41939,2023,10,20,21,00,AAXX 20214 41939 02950 00000 10230 20220 30135 40143 333 59003 70000==
41939,2023,10,21,00,00,AAXX 21004 41939 02956 00000 10225 20220 30133 40141 333 59007 70000==
41939,2023,10,21,03,00,AAXX 21034 41939 02958 00000 10285 20240 30151 40159 333 20221 58001 70000==
41939,2023,10,21,06,00,AAXX 21064 41939 02958 00000 10320 20200 30130 40138 333 58002 70000==
41939,2023,10,21,09,00,AAXX 21094 41939 02957 00000 10315 20190 30112 40120 333 58002 70000==
41939,2023,10,21,12,00,AAXX 21124 41939 02956 00000 10285 20240 30114 40122 333 10322 59011 70000==
41939,2023,10,21,15,00,AAXX 21154 41939 02956 00000 10252 20220 30138 40146 333 58003 70000==
41939,2023,10,21,18,00,AAXX 21184 41939 02950 00000 10250 20230 30141 40149 333 58004 70000==
41939,2023,10,21,21,00,AAXX 21214 41939 01950 00000 10240 20230 30143 40151 70500 333 58008 70000==
41939,2023,10,22,00,00,AAXX 22004 41939 01950 00000 10235 20230 30138 40146 70500 333 58005 70000==
41939,2023,10,22,03,00,AAXX 22034 41939 02957 00000 10286 20240 30155 40163 333 20230 58004 70000==
41939,2023,10,22,06,00,AAXX 22064 41939 02458 40000 10322 20230 30126 40134 82530 333 59004 70000 82618 83362==
41939,2023,10,22,09,00,AAXX 22094 41939 02457 40000 10317 20240 30108 40116 82530 333 59004 70000 82618 83360==
41939,2023,10,22,12,00,AAXX 22124 41939 02450 50000 10280 20260 30116 40124 83530 333 10325 58002 70000 83617 83364==
41939,2023,10,22,15,00,AAXX 22154 41939 02450 50000 10248 20230 30145 40153 83530 333 58007 70000 83617 83364==
41939,2023,10,23,00,00,AAXX 23004 41939 02450 70000 10257 20250 30131 40139 82510 333 59007 70000 82618 87459==
41939,2023,10,23,03,00,AAXX 23034 41939 01457 80000 10251 20230 30138 40146 76322 8352/ 333 20250 59017 70006 83616 88459==
41939,2023,10,23,06,00,AAXX 23064 41939 21456 80000 10290 20250 30123 40131 70262 8352/ 333 59003 69965 70006 83617 88459==
41939,2023,10,23,09,00,AAXX 23094 41939 02457 60000 10295 20240 30100 40108 82510 333 59008 70006 82618 86459==
41939,2023,10,23,12,00,AAXX 23124 41939 02456 80000 10275 20260 30108 40116 8352/ 333 10300 59008 70006 83617 88459==
41939,2023,10,23,15,00,AAXX 23154 41939 02456 50000 10262 20240 30122 40130 83530 333 59023 70006 83617 83364==
41939,2023,10,23,18,00,AAXX 23184 41939 02450 50000 10258 20250 30135 40143 83530 333 59006 70006 83617 83364==
41939,2023,10,23,21,00,AAXX 23214 41939 01450 50000 10256 20250 30130 40138 70500 83530 333 59010 70006 83617 83364==
41939,2023,10,24,00,00,AAXX 24004 41939 01450 80000 10255 20250 30115 40123 70522 8352/ 333 59016 70006 83617 88459==
41939,2023,10,24,03,00,AAXX 24034 41939 02457 70000 10260 20240 30122 40130 83510 333 10245 59016 70000 83617 86459==
41939,2023,10,24,06,00,AAXX 24064 41939 02457 71303 10274 20230 30103 40111 84510 333 59020 70000 84616 87459==
41939,2023,10,24,09,00,AAXX 24094 41939 02457 60000 10280 20230 30082 40090 82510 333 59018 70000 82617 86460==
41939,2023,10,24,12,00,AAXX 24124 41939 02456 60000 10264 20230 30087 40095 82510 333 10282 59021 70000 82617 85459==
41939,2023,10,24,15,00,AAXX 24154 41939 02456 60000 10258 20240 30094 40102 83510 333 59028 70000 83617 86459==
41939,2023,10,24,18,00,AAXX 24184 41939 NIL=
41939,2023,10,24,21,00,AAXX 24214 41939 02450 60000 10250 20240 30102 40110 83510 333 59028 70000 83617 86459==
41939,2023,10,25,00,00,AAXX 25004 41939 02956 50000 10247 20240 30105 40114 83530 333 59010 70000 83617 83363==
41939,2023,10,25,03,00,AAXX 25034 41939 02457 60000 10270 20240 30132 40140 82510 333 20243 58010 70000 82618 86459==
41939,2023,10,25,09,00,AAXX 25094 41939 02458 20000 10318 20230 30099 40107 82430 333 58017 70000 81618==
41939,2023,10,25,12,00,AAXX 25124 41939 02456 60000 10282 20250 30103 40111 83510 333 10323 58016 70000 83617 86459==
41939,2023,10,25,15,00,AAXX 25154 41939 02956 00000 10265 20250 30119 40127 333 58025 70000==
41939,2023,10,25,18,00,AAXX 25184 41939 02956 00000 10260 20250 30125 40133 333 58023 70000==
41939,2023,10,26,00,00,AAXX 26004 41939 02956 00000 10238 20230 30128 40136 333 58023 70000==
41939,2023,10,26,03,00,AAXX 26034 41939 02958 00000 10281 20240 30142 40150 333 20235 58010 70000==
41939,2023,10,26,06,00,AAXX 26064 41939 NIL=
41939,2023,10,26,12,00,AAXX 26124 41939 NIL=
41939,2023,10,26,15,00,AAXX 26154 41939 02956 00000 10266 20250 30123 40131 333 58004 70000==
41939,2023,10,26,21,00,AAXX 26214 41939 01940 00000 10240 20230 30132 40140 70500 333 59003 70000==
41941,2023,10,20,00,00,AAXX 20004 41941 02950 03604 10245 20240 30130 40136 333 58011 70000==
41941,2023,10,20,03,00,AAXX 20034 41941 02456 63604 10280 20230 30135 40141 85420 333 20245 59005 70000 84616 86458==
41941,2023,10,20,06,00,AAXX 20064 41941 02456 52703 10320 20240 30130 40135 84420 333 58003 70000 83616 85458==
41941,2023,10,20,09,00,AAXX 20094 41941 02956 03604 10322 20210 30104 40109 333 59002 70000==
41941,2023,10,20,12,00,AAXX 20124 41941 02950 00000 10290 20240 30098 40103 333 10330 59006 70000==
41941,2023,10,20,15,00,AAXX 20154 41941 02940 00000 10280 20240 30103 40108 333 59021 70000==
41941,2023,10,20,18,00,AAXX 20184 41941 02940 00000 10270 20240 30109 40114 333 59010 70000==
41941,2023,10,20,21,00,AAXX 20214 41941 02940 00000 10264 20240 30103 40109 333 59015 70000==
41941,2023,10,21,00,00,AAXX 21004 41941 02950 03604 10244 20240 30128 40134 333 59002 70000==
41941,2023,10,21,03,00,AAXX 21034 41941 02956 03604 10290 20240 30140 40146 333 20243 58005 70000==
41941,2023,10,21,06,00,AAXX 21064 41941 02956 00305 10318 20240 30135 40140 333 58005 70000==
41941,2023,10,21,09,00,AAXX 21094 41941 02956 03603 10325 20230 30107 40112 333 58003 70000==
41941,2023,10,21,12,00,AAXX 21124 41941 02950 02703 10290 20240 30109 40114 333 10332 58011 70000==
41941,2023,10,21,15,00,AAXX 21154 41941 02940 03602 10275 20240 30125 40130 333 58022 70000==
41941,2023,10,21,18,00,AAXX 21184 41941 02940 00000 10265 20250 30132 40138 333 58023 70000==
41941,2023,10,21,21,00,AAXX 21214 41941 02940 00000 10258 20240 30131 40137 333 58028 70000==
41941,2023,10,22,00,00,AAXX 22004 41941 02450 40000 10251 20240 30131 40137 84400 333 58003 70000 82616==
41941,2023,10,22,03,00,AAXX 22034 41941 02456 40000 10287 20250 30138 40144 83530 333 20244 59002 70000 83618 84362==
41941,2023,10,22,06,00,AAXX 22064 41941 02456 63604 10332 20250 30124 40129 85420 333 59011 70000 84616 86458==
41941,2023,10,22,09,00,AAXX 22094 41941 02450 63602 10325 20250 30103 40108 85420 333 59004 70000 84616 86458==
41941,2023,10,22,12,00,AAXX 22124 41941 02440 43602 10290 20240 30106 40111 83530 333 10338 59003 70000 83618 84362==
41941,2023,10,22,15,00,AAXX 22154 41941 02440 60000 10275 20260 30135 40140 85420 333 58010 70000 84616 86458==
41941,2023,10,22,18,00,AAXX 22184 41941 02440 60000 10272 20260 30138 40144 85420 333 58006 70000 84616 86458==
41941,2023,10,22,21,00,AAXX 22214 41941 02440 60000 10265 20260 30128 40134 85420 333 59003 70000 84616 86458==
41941,2023,10,23,00,00,AAXX 23004 41941 02450 60803 10259 20250 30121 40127 85420 333 59010 70000 84616 86458==
41941,2023,10,23,03,00,AAXX 23034 41941 02450 82603 10268 20240 30136 40142 8632/ 333 20251 59002 70000 85616 88458 81930==
41941,2023,10,23,06,00,AAXX 23064 41941 02450 81802 10285 20260 30125 40131 8632/ 333 58001 70000 85618 88458 81930==
41941,2023,10,23,09,00,AAXX 23094 41941 02450 80000 10280 20230 30098 40104 8632/ 333 59005 70000 85616 88458 81930==
41941,2023,10,23,12,00,AAXX 23124 41941 02440 80000 10272 20250 30101 40107 8632/ 333 10305 59005 70000 84616 88458 81930==
41941,2023,10,23,15,00,AAXX 23154 41941 02440 81803 10265 20250 30121 40127 8632/ 333 59014 70000 85616 88458 81930==
41941,2023,10,23,18,00,AAXX 23184 41941 02440 80000 10260 20250 30114 40120 8632/ 333 59024 70000 85616 88458 81930==
41941,2023,10,23,21,00,AAXX 23214 41941 02440 83503 10255 20250 30112 40118 8632/ 333 59016 70000 85616 88458 81930==
41941,2023,10,24,00,00,AAXX 24004 41941 21450 83504 10248 20240 30107 40113 72162 8632/ 333 59014 60047 70040 85614 88456 81925==
41941,2023,10,24,03,00,AAXX 24034 41941 02450 83604 10255 20240 30121 40127 8632/ 333 10246 59015 70040 85614 88456 81925==
41941,2023,10,24,06,00,AAXX 24064 41941 02450 80804 10275 20240 30107 40113 8632/ 333 59018 70040 85614 88456 81925==
41941,2023,10,24,09,00,AAXX 24094 41941 02450 80803 10275 20240 30084 40090 8632/ 333 59014 70040 85614 88456 81925==
41941,2023,10,24,12,00,AAXX 24124 41941 02450 80000 10260 20240 30083 40089 8632/ 333 10281 59018 70040 85614 88456 81925==
41941,2023,10,24,15,00,AAXX 24154 41941 02440 83604 10260 20250 30086 40092 8632/ 333 59035 70040 85614 88456 81925==
41941,2023,10,24,18,00,AAXX 24184 41941 NIL=
41941,2023,10,24,21,00,AAXX 24214 41941 02440 83602 10255 20255 30091 40097 8632/ 333 59021 70040 85614 88458 81930==
41941,2023,10,25,00,00,AAXX 25004 41941 02450 80000 10248 20240 30100 40106 8632/ 333 59007 70000 85616 88458 81930==
41941,2023,10,25,03,00,AAXX 25034 41941 02456 81802 10275 20240 30126 40132 8632/ 333 20247 58005 70000 85616 88458 81930==
41941,2023,10,25,12,00,AAXX 25124 41941 02950 00000 10276 20250 30103 40109 333 10326 58020 70000==
41941,2023,10,25,15,00,AAXX 25154 41941 02940 00000 10265 20250 30116 40122 333 58030 70000==
41941,2023,10,26,00,00,AAXX 26004 41941 01950 00000 10252 20250 30120 40126 70500 333 58020 70000==
41941,2023,10,26,03,00,AAXX 26034 41941 02456 40000 10295 20250 30136 40142 83530 333 20252 58010 70000 83618 84362==
41941,2023,10,26,06,00,AAXX 26064 41941 02457 43604 10316 20200 30131 40137 83400 333 58016 70000 84616==
41941,2023,10,26,09,00,AAXX 26094 41941 02957 03601 10323 20220 30098 40103 333 59005 70000==
41941,2023,10,26,12,00,AAXX 26124 41941 02450 60000 10285 20250 30096 40101 85420 333 10335 59007 70000 84616 86458==
41941,2023,10,26,15,00,AAXX 26154 41941 02940 00000 10270 20250 30121 40126 333 58005 70000==
41941,2023,10,26,18,00,AAXX 26184 41941 02940 00000 10260 20250 30127 40132 333 58010 70000==
41941,2023,10,26,21,00,AAXX 26214 41941 02940 00000 10256 20250 30113 40119 333 58003 70000==
41943,2023,10,20,00,00,AAXX 20004 41943 01930 00000 10227 20220 30131 40138 70500 333 58012 70000==
41943,2023,10,20,03,00,AAXX 20034 41943 01940 00000 10285 20220 30145 40152 70500 333 20223 58007 70000==
41943,2023,10,20,06,00,AAXX 20064 41943 01940 03105 10315 20220 30127 40134 70500 333 58005 70000==
41943,2023,10,20,09,00,AAXX 20094 41943 01950 03602 10328 20200 30099 40106 70500 333 59005 70000==
41943,2023,10,20,12,00,AAXX 20124 41943 01930 00000 10280 20230 30099 40106 70500 333 10335 59001 70000==
41943,2023,10,20,15,00,AAXX 20154 41943 01930 00000 10242 20220 30125 40132 70500 333 58003 70000==
41943,2023,10,20,18,00,AAXX 20184 41943 01930 00000 10236 20220 30127 40134 70500 333 58002 70000==
41943,2023,10,20,21,00,AAXX 20214 41943 01930 00000 10234 20220 30123 40130 70500 333 59002 70000==
41943,2023,10,21,00,00,AAXX 21004 41943 01930 00000 10222 20210 30126 40133 70500 333 59005 70000==
41943,2023,10,21,03,00,AAXX 21034 41943 01940 03602 10290 20220 30142 40149 70500 333 20220 59003 70000==
41943,2023,10,21,06,00,AAXX 21064 41943 01935 02903 10325 20230 30126 40133 70500 333 59001 70000==
41943,2023,10,21,09,00,AAXX 21094 41943 01940 03102 10330 20200 30102 40109 70500 333 58003 70000==
41943,2023,10,21,12,00,AAXX 21124 41943 01930 00000 10290 20240 30107 40114 70500 333 10340 58008 70000==
41943,2023,10,21,15,00,AAXX 21154 41943 01930 00000 10260 20240 30134 40141 70500 333 58009 70000==
41943,2023,10,21,18,00,AAXX 21184 41943 01930 00000 10240 20220 30127 40134 70500 333 58000 70000==
41943,2023,10,21,21,00,AAXX 21214 41943 01430 50000 10235 20230 30126 40133 70522 82530 333 58003 70000 82618 84362==
41943,2023,10,22,00,00,AAXX 22004 41943 02430 50000 10233 20220 30129 40136 82530 333 58003 70000 82618 84362==
41943,2023,10,22,03,00,AAXX 22034 41943 01435 40000 10300 20220 30141 40148 70522 83430 333 20230 59001 70000 82618 83362==
41943,2023,10,22,06,00,AAXX 22064 41943 01435 52102 10325 20230 30126 40133 70522 83430 333 58000 70000 82618 84362==
41943,2023,10,22,09,00,AAXX 22094 41943 01440 52102 10330 20230 30102 40109 70522 83430 333 58000 70000 82618 84362==
41943,2023,10,22,12,00,AAXX 22124 41943 11330 83102 10298 20290 30111 40118 60046 76162 8772/ 333 10350 58004 70040 83709 84614 88458==
41943,2023,10,22,15,00,AAXX 22154 41943 01330 83102 10244 20220 30135 40142 70262 8662/ 333 58001 70200 83710 84614 88458==
41943,2023,10,22,18,00,AAXX 22184 41943 11330 83102 10240 20230 30128 40135 60166 70262 8662/ 333 58001 70200 84614 88458==
41943,2023,10,22,21,00,AAXX 22214 41943 02330 80000 10242 20230 30126 40133 8662/ 333 58000 70000 83710 84615 88458==
41943,2023,10,23,00,00,AAXX 23004 41943 11330 80000 10244 20230 30122 40129 60026 76162 8772/ 333 59007 70220 83709 84614 88458==
41943,2023,10,23,03,00,AAXX 23034 41943 01330 80000 10260 20240 30137 40139 70262 8772/ 333 20238 59010 70230 83709 84614 88458==
41943,2023,10,23,06,00,AAXX 23064 41943 11330 80000 10283 20240 30126 40133 60016 70262 8662/ 333 58000 70230 83710 88460 88458==
41943,2023,10,23,09,00,AAXX 23094 41943 02430 80000 10280 20240 30100 40108 8662/ 333 59002 70230 83710 84614 88458==
41943,2023,10,23,12,00,AAXX 23124 41943 02330 80000 10264 20240 30101 40108 8662/ 333 10315 59010 70190 83710 84614 88458==
41943,2023,10,23,15,00,AAXX 23154 41943 02330 80000 10254 20230 30119 40126 8662/ 333 59016 74614 83710 88458==
41943,2023,10,23,18,00,AAXX 23184 41943 02330 80000 10250 20240 30125 40132 8662/ 333 59003 70030 83710 84614 88458==
41943,2023,10,23,21,00,AAXX 23214 41943 02330 80000 10247 20240 30120 40127 8662/ 333 59006 70030 83710 84614 88458==
41943,2023,10,24,00,00,AAXX 24004 41943 01330 80000 10242 20230 30107 40114 76162 8772/ 333 59015 70010 83709 84614 88458==
41943,2023,10,24,03,00,AAXX 24034 41943 01330 82302 10240 20230 30116 40123 76166 8772/ 333 20240 59015 70020 83709 84614 88458==
41943,2023,10,24,06,00,AAXX 24064 41943 21330 80502 10245 20230 30100 40107 76166 8772/ 333 59026 60029 70030 83709 84614 88458==
41943,2023,10,24,09,00,AAXX 24094 41943 01330 80502 10250 20230 30078 40086 76166 8772/ 333 59022 70040 83709 84614 88458==
41943,2023,10,24,12,00,AAXX 24124 41943 21330 80000 10244 20220 30080 40087 70262 8662/ 333 10280 59021 60028 70050 83710 84614 88458==
41943,2023,10,24,15,00,AAXX 24154 41943 02330 82302 10243 20230 30080 40087 8662/ 333 59039 70050 83710 84614 88458==
41943,2023,10,24,18,00,AAXX 24184 41943 02330 82302 10242 20220 30086 40093 8662/ 333 59039 70050 83710 84614 88458==
41943,2023,10,24,21,00,AAXX 24214 41943 02330 80000 10238 20230 30092 40099 8662/ 333 59028 70050 83710 84614 88458==
41943,2023,10,25,00,00,AAXX 25004 41943 11330 80000 10232 20220 30098 40105 60016 76162 8772/ 333 59009 70050 83709 84614 88458==
41943,2023,10,25,03,00,AAXX 25034 41943 01330 80000 10240 20230 30123 40131 70262 8662/ 333 20230 58007 70070 83710 84614 88458==
41943,2023,10,25,06,00,AAXX 25064 41943 NIL=
41943,2023,10,25,09,00,AAXX 25094 41943 02440 71302 10287 20220 30099 40107 84520 333 58021 70050 84615 85458==
41943,2023,10,25,12,00,AAXX 25124 41943 02435 51302 10266 20240 30099 40106 83520 333 10305 58019 70040 83616 84458==
41943,2023,10,25,15,00,AAXX 25154 41943 02430 51302 10254 20230 30121 40128 83530 333 58004 70040 83616 83362==
41943,2023,10,25,18,00,AAXX 25184 41943 02430 51302 10248 20200 30123 40130 83530 333 58037 70040 83616 83362==
41943,2023,10,25,21,00,AAXX 25214 41943 01430 60000 10244 20230 30114 40126 70522 83520 333 58027 70040 83616 85458==
41943,2023,10,26,00,00,AAXX 26004 41943 01435 60000 10240 20230 30116 40123 70522 83510 333 58018 70030 83616 85458==
41943,2023,10,26,03,00,AAXX 26034 41943 02440 40000 10285 20240 30142 40149 83430 333 20230 58019 70000 82618 83362==
41943,2023,10,26,06,00,AAXX 26064 41943 02440 61302 10308 20260 30124 40131 83530 333 58009 70000 83616 84362==
41943,2023,10,26,09,00,AAXX 26094 41943 02440 61302 10305 20240 30111 40118 83530 333 58012 70000 83616 84362==
41943,2023,10,26,12,00,AAXX 26124 41943 NIL=
41943,2023,10,26,15,00,AAXX 26154 41943 01935 01801 10260 20240 30123 40130 70500 333 58002 70000==
41943,2023,10,26,18,00,AAXX 26184 41943 01935 00000 10248 20240 30121 40128 70500 333 59002 70000==
41943,2023,10,26,21,00,AAXX 26214 41943 01430 70000 10245 20240 30119 40126 70522 84520 333 58000 70000 84615 86457==
41944,2023,10,20,00,00,AAXX 20004 41944 NIL=
41944,2023,10,20,18,00,AAXX 20184 41944 NIL=
41944,2023,10,21,00,00,AAXX 21004 41944 NIL=
41944,2023,10,21,06,00,AAXX 21064 41944 NIL=
41944,2023,10,22,00,00,AAXX 22004 41944 NIL=
41944,2023,10,22,06,00,AAXX 22064 41944 NIL=
41944,2023,10,22,12,00,AAXX 22124 41944 NIL=
41944,2023,10,23,00,00,AAXX 23004 41944 NIL=
41944,2023,10,23,06,00,AAXX 23064 41944 NIL=
41944,2023,10,23,12,00,AAXX 23124 41944 NIL=
41944,2023,10,24,12,00,AAXX 24124 41944 NIL=
41944,2023,10,24,18,00,AAXX 24184 41944 NIL=
41944,2023,10,25,00,00,AAXX 25004 41944 NIL=
41944,2023,10,26,06,00,AAXX 26064 41944 NIL=
41944,2023,10,26,12,00,AAXX 26124 41944 NIL=
41946,2023,10,20,00,00,AAXX 20004 41946 01950 01602 10240 20230 30137 40141 70500 333 58001 70000==
41946,2023,10,20,03,00,AAXX 20034 41946 02956 00203 10280 20220 30155 40160 333 20234 58003 70000==
41946,2023,10,20,06,00,AAXX 20064 41946 02956 03602 10309 20210 30135 40140 333 59007 70000==
41946,2023,10,20,09,00,AAXX 20094 41946 02956 00000 10324 20190 30114 40119 333 59001 70000==
41946,2023,10,20,12,00,AAXX 20124 41946 02956 00000 10284 20230 30114 40119 333 10325 59019 70000==
41946,2023,10,20,15,00,AAXX 20154 41946 02956 00000 10252 20220 30139 40144 333 58006 70000==
41946,2023,10,20,18,00,AAXX 20184 41946 02956 00000 10240 20220 30138 40143 333 58003 70000==
41946,2023,10,20,21,00,AAXX 20214 41946 02956 00000 10234 20220 30130 40135 333 58005 70000==
41946,2023,10,21,00,00,AAXX 21004 41946 01950 00000 10230 20220 30140 40145 70500 333 58003 70000==
41946,2023,10,21,03,00,AAXX 21034 41946 02956 03602 10280 20220 30160 40165 333 20225 58005 70000==
41946,2023,10,21,06,00,AAXX 21064 41946 02957 03604 10315 20210 30142 40147 333 58007 70000==
41946,2023,10,21,09,00,AAXX 21094 41946 02956 00000 10322 20190 30115 40120 333 58001 70000==
41946,2023,10,21,12,00,AAXX 21124 41946 02956 03201 10273 20230 30120 40124 333 10324 58006 70000==
41946,2023,10,21,15,00,AAXX 21154 41946 02956 00000 10254 20230 30142 40147 333 58003 70000==
41946,2023,10,21,18,00,AAXX 21184 41946 02956 00000 10248 20230 30140 40145 333 58002 70000==
41946,2023,10,21,21,00,AAXX 21214 41946 02/56 50000 10246 20230 30134 40139 85070 333 58004 70000 84459==
41946,2023,10,22,00,00,AAXX 22004 41946 01/50 50000 10244 20230 30143 40148 70522 85070 333 58003 70000 84459==
41946,2023,10,22,03,00,AAXX 22034 41946 02/56 70000 10285 20240 30154 40159 87070 333 20235 59006 70000 84460 83462==
41946,2023,10,22,06,00,AAXX 22064 41946 02456 73603 10310 20240 30138 40143 82570 333 59004 70000 82618 85460==
41946,2023,10,22,09,00,AAXX 22094 41946 02/56 73602 10316 20240 30116 40121 87070 333 58001 70000 84460 84362==
41946,2023,10,22,12,00,AAXX 22124 41946 02456 50000 10283 20240 30117 40122 82530 333 10325 59003 70000 82618 83362==
41946,2023,10,22,15,00,AAXX 22154 41946 02/56 50000 10266 20250 30137 40142 85070 333 59005 70000 84459==
41946,2023,10,22,18,00,AAXX 22184 41946 02/56 30000 10261 20250 30135 40140 83030 333 59005 70000 83362==
41946,2023,10,22,21,00,AAXX 22214 41946 02556 50000 10257 20240 30119 40123 82530 333 59015 70000 82620 84360==
41946,2023,10,23,00,00,AAXX 23004 41946 01/50 60000 10252 20230 30122 40126 70520 86070 333 59021 70000 83459 84360==
41946,2023,10,23,06,00,AAXX 23064 41946 01350 80000 10270 20240 30126 40131 76121 8472/ 333 59012 70006 81710 84617 88459==
41946,2023,10,23,09,00,AAXX 23094 41946 02456 70000 10285 20240 30100 40105 82520 333 59016 70006 82618 86460==
41946,2023,10,23,12,00,AAXX 23124 41946 02456 70000 10268 20240 30112 40117 82520 333 10310 59005 70006 82618 86460==
41946,2023,10,23,15,00,AAXX 23154 41946 02456 81402 10268 20230 30121 40126 8252/ 333 59016 70006 82618 88460==
41946,2023,10,23,18,00,AAXX 23184 41946 02456 81401 10264 20230 30107 40112 8352/ 333 59028 70006 83618 88460==
41946,2023,10,23,21,00,AAXX 23214 41946 02456 80902 10257 20240 30096 40101 8252/ 333 59023 70006 82618 88460==
41946,2023,10,24,00,00,AAXX 24004 41946 02456 80503 10250 20240 30100 40105 8352/ 333 59022 70006 83618 88460==
41946,2023,10,24,03,00,AAXX 24034 41946 02456 80000 10270 20230 30123 40128 8252/ 333 20247 59016 70006 82618 88460==
41946,2023,10,24,06,00,AAXX 24064 41946 02456 83603 10300 20230 30103 40108 8432/ 333 59023 70000 83618 88460 81928==
41946,2023,10,24,09,00,AAXX 24094 41946 02/56 60402 10297 20220 30082 40087 84032 333 59018 70000 84362 84080==
41946,2023,10,24,12,00,AAXX 24124 41946 02456 60503 10273 20230 30088 40092 86300 333 10304 59024 70000 84618 83820 81928==
41946,2023,10,24,15,00,AAXX 24154 41946 02/56 60000 10258 20240 30108 40113 84032 333 59013 70000 84362 84080==
41946,2023,10,24,18,00,AAXX 24184 41946 NIL=
41946,2023,10,24,21,00,AAXX 24214 41946 02/56 30000 10246 20240 30101 40106 83080 333 58005 70000 83362==
41946,2023,10,25,00,00,AAXX 25004 41946 01950 20000 10245 20240 30115 40120 70500 80001 333 58015 70000 82080==
41946,2023,10,25,03,00,AAXX 25034 41946 02456 23603 10295 20240 30137 40142 82500 333 20240 58014 70000 82618==
41946,2023,10,26,06,00,AAXX 26064 41946 02457 33603 10320 20210 30134 40139 83400 333 58010 70000 82618==
41946,2023,10,26,12,00,AAXX 26124 41946 02456 30000 10278 20250 30113 40118 83400 333 10325 58006 70000 82618==
41946,2023,10,26,15,00,AAXX 26154 41946 02956 00000 10259 20240 30132 40137 333 58008 70000==
41946,2023,10,26,18,00,AAXX 26184 41946 02956 00000 10250 20230 30128 40133 333 58008 70000==
41946,2023,10,26,21,00,AAXX 26214 41946 02956 00000 10243 20230 30115 40120 333 58000 70000==
41947,2023,10,20,00,00,AAXX 20004 41947 02956 00000 10235 20235 30132 40134 333 58009 70000==
41947,2023,10,20,03,00,AAXX 20034 41947 02956 00000 10292 20220 30150 40152 333 20230 58016 70000==
41947,2023,10,20,06,00,AAXX 20064 41947 02956 03601 10320 20180 30132 40134 333 58006 70000==
41947,2023,10,20,09,00,AAXX 20094 41947 02956 00000 10330 20200 30109 40112 333 59001 70000==
41947,2023,10,20,12,00,AAXX 20124 41947 02956 00000 10290 20220 30109 40111 333 10335 59001 70000==
41947,2023,10,20,15,00,AAXX 20154 41947 02950 00000 10250 20230 30127 40130 333 59002 70000==
41947,2023,10,20,18,00,AAXX 20184 41947 02950 00000 10245 20240 30131 40133 333 58001 70000==
41947,2023,10,20,21,00,AAXX 20214 41947 02950 00000 10235 20230 30129 40131 333 58003 70000==
41947,2023,10,21,00,00,AAXX 21004 41947 02950 00000 10225 20220 30125 40127 333 59007 70000==
41947,2023,10,21,03,00,AAXX 21034 41947 02956 00000 10285 20230 30150 40152 333 20222 58000 70000==
41947,2023,10,21,06,00,AAXX 21064 41947 02956 00000 10320 20210 30141 40144 333 58010 70000==
41947,2023,10,21,09,00,AAXX 21094 41947 02956 00000 10335 20210 30109 40112 333 58000 70000==
41947,2023,10,21,12,00,AAXX 21124 41947 02950 00000 10285 20220 30106 40109 333 10335 59002 70000==
41947,2023,10,21,15,00,AAXX 21154 41947 02950 00000 10255 20240 30136 40138 333 58008 70000==
41947,2023,10,21,18,00,AAXX 21184 41947 02950 00000 10245 20240 30137 40141 333 58008 70000==
41947,2023,10,21,21,00,AAXX 21214 41947 02450 40000 10242 20230 30124 40127 84500 333 59004 70000 84618==
41947,2023,10,22,00,00,AAXX 22004 41947 02450 80000 10242 20230 30130 40132 8452/ 333 58005 70000 84618 88459==
41947,2023,10,22,03,00,AAXX 22034 41947 02456 40000 10295 20230 30134 40137 84400 333 20235 59015 70000 81618 83820==
41947,2023,10,22,06,00,AAXX 22064 41947 02456 70000 10320 20240 30121 40124 83570 333 59019 70000 83618 86458==
41947,2023,10,22,09,00,AAXX 22094 41947 02456 70000 10328 20230 30098 40100 83510 333 59012 70000 83618 87458==
41947,2023,10,22,12,00,AAXX 22124 41947 02450 80000 10300 20250 30112 40114 8452/ 333 10340 58005 70000 84616 88458==
41947,2023,10,22,15,00,AAXX 22154 41947 02450 60000 10274 20250 30132 40134 82530 333 59002 70000 82618 84362==
41947,2023,10,22,18,00,AAXX 22184 41947 02450 60000 10270 20250 30138 40140 82530 333 59001 70000 82618 84362==
41947,2023,10,22,21,00,AAXX 22214 41947 02450 60000 10264 20250 30125 40127 82530 333 58000 70000 82618 84362==
41947,2023,10,23,00,00,AAXX 23004 41947 02450 50000 10260 20250 30115 40117 82530 333 59015 70000 82618 84362==
41947,2023,10,23,03,00,AAXX 23034 41947 02456 70000 10295 20250 30121 40124 83570 333 20255 59012 70000 83618 86458==
41947,2023,10,23,06,00,AAXX 23064 41947 02456 80000 10293 20220 30113 40116 8352/ 333 59008 70000 83618 88458==
41947,2023,10,23,09,00,AAXX 23094 41947 02456 81802 10295 20240 30094 40097 8352/ 333 59003 70000 83618 88458==
41947,2023,10,23,12,00,AAXX 23124 41947 02456 81502 10276 20240 30108 40110 8352/ 333 10305 59004 70000 83618 88458==
41947,2023,10,23,15,00,AAXX 23154 41947 02456 80000 10266 20250 30116 40118 8352/ 333 59016 70000 83618 88458==
41947,2023,10,23,18,00,AAXX 23184 41947 02456 80000 10260 20240 30105 40107 8352/ 333 59033 70000 83618 88458==
41947,2023,10,23,21,00,AAXX 23214 41947 02456 80000 10256 20230 30092 40094 8352/ 333 59033 70000 83618 88458==
41947,2023,10,24,00,00,AAXX 24004 41947 02456 80502 10255 20250 30094 40096 8352/ 333 59021 70000 83618 88458==
41947,2023,10,24,03,00,AAXX 24034 41947 02456 80000 10268 20240 30112 40114 8352/ 333 20250 59010 70000 83618 88459==
41947,2023,10,24,06,00,AAXX 24064 41947 02456 80000 10280 20230 30106 40108 8352/ 333 59008 70000 83618 88459==
41947,2023,10,24,09,00,AAXX 24094 41947 02456 80402 10288 20230 30084 40086 8352/ 333 59011 70000 83618 88459==
41947,2023,10,24,12,00,AAXX 24124 41947 02450 30000 10268 20230 30086 40088 83500 333 10290 59022 70000 83618==
41947,2023,10,24,15,00,AAXX 24154 41947 02450 30000 10255 20240 30101 40103 83500 333 59015 70000 83618==
41947,2023,10,24,18,00,AAXX 24184 41947 02450 30000 10250 20230 30099 40101 83500 333 59006 70000 83618==
41947,2023,10,24,21,00,AAXX 24214 41947 02450 50000 10250 20230 30103 40105 83570 333 58011 70000 83618 84458==
41947,2023,10,25,00,00,AAXX 25004 41947 02450 60000 10250 20240 30106 40108 83570 333 58012 70000 83618 85458==
41947,2023,10,25,03,00,AAXX 25034 41947 02456 70000 10274 20240 30130 40133 83570 333 20245 58019 70000 83618 85459==
41947,2023,10,26,00,00,AAXX 26004 41947 02956 00000 10248 20248 30113 40115 333 58007 70000==
41947,2023,10,26,06,00,AAXX 26064 41947 NIL=
41947,2023,10,26,09,00,AAXX 26094 41947 02456 40000 10325 20220 30100 40102 84400 333 58002 70000 82618 82820==
41947,2023,10,26,12,00,AAXX 26124 41947 02450 40000 10300 20230 30102 40104 82530 333 10335 58001 70000 82618 83362==
41947,2023,10,26,15,00,AAXX 26154 41947 02950 00000 10268 20250 30122 40124 333 58000 70000==
41947,2023,10,26,18,00,AAXX 26184 41947 02950 00000 10262 20230 30125 40127 333 58008 70000==
41947,2023,10,26,21,00,AAXX 26214 41947 02950 00000 10250 20240 30114 40116 333 58006 70000==
41950,2023,10,20,00,00,AAXX 20004 41950 02950 00000 10225 20225 30134 40137 333 58013 70000==
41950,2023,10,20,03,00,AAXX 20034 41950 02950 00000 10284 20230 30152 40155 333 20223 58013 70000==
41950,2023,10,20,06,00,AAXX 20064 41950 02450 33202 10317 20240 30130 40132 83400 333 58005 70000 83617==
41950,2023,10,20,09,00,AAXX 20094 41950 02950 00000 10324 20200 30108 40110 333 58000 70000==
41950,2023,10,20,12,00,AAXX 20124 41950 02950 00000 10265 20250 30108 40110 333 10331 58000 70000==
41950,2023,10,20,15,00,AAXX 20154 41950 01950 00000 10240 20240 30131 40133 70500 333 58002 70000==
41950,2023,10,20,18,00,AAXX 20184 41950 01950 00000 10230 20230 30131 40134 70500 333 58002 70000==
41950,2023,10,20,21,00,AAXX 20214 41950 01945 00000 10220 20220 30128 40131 70500 333 58003 70000==
41950,2023,10,21,00,00,AAXX 21004 41950 01945 00000 10218 20218 30130 40133 70500 333 59004 70000==
41950,2023,10,21,03,00,AAXX 21034 41950 02950 00000 10282 20230 30148 40151 333 20215 59004 70000==
41950,2023,10,21,06,00,AAXX 21064 41950 02450 30000 10320 20230 30135 40137 83500 333 58005 70000 83617==
41950,2023,10,21,09,00,AAXX 21094 41950 02956 03602 10330 20210 30109 40111 333 58001 70000==
41950,2023,10,21,12,00,AAXX 21124 41950 02950 00000 10266 20250 30114 40116 333 10334 58006 70000==
41950,2023,10,21,15,00,AAXX 21154 41950 02950 00000 10245 20240 30141 40143 333 58010 70000==
41950,2023,10,21,18,00,AAXX 21184 41950 02950 00000 10235 20350 30133 40135 333 58001 70000==
41950,2023,10,21,21,00,AAXX 21214 41950 02450 30000 10234 20230 30129 40131 83500 333 58001 70000 83617==
41950,2023,10,22,00,00,AAXX 22004 41950 02450 50000 10235 20235 30134 41037 83530 333 58004 70000 83617 83362==
41950,2023,10,22,03,00,AAXX 22034 41950 02/50 10302 10295 20250 30146 40148 81031 333 20230 59002 70000 81362==
41950,2023,10,22,06,00,AAXX 22064 41950 02450 60000 10326 20230 30127 40129 83431 333 59008 70000 83617 83362==
41950,2023,10,22,09,00,AAXX 22094 41950 02450 60000 10320 20240 30107 40109 83431 333 59002 70000 83617 83362==
41950,2023,10,22,12,00,AAXX 22124 41950 02450 70000 10285 20270 30112 40114 84371 333 10341 59002 70000 84617 86459 81928==
41950,2023,10,22,15,00,AAXX 22154 41950 02450 40000 10267 20260 30135 40137 83530 333 59006 70000 83617==
41950,2023,10,22,18,00,AAXX 22184 41950 02450 40000 10260 20250 30137 40139 83530 333 58005 70000 83617==
41950,2023,10,22,21,00,AAXX 22214 41950 02450 70000 10257 20257 30118 40121 83510 333 59011 70000 83617 85459==
41950,2023,10,23,00,00,AAXX 23004 41950 01340 80000 10260 20250 30118 40121 70522 8562/ 333 59016 70000 82708 84616 88458==
41950,2023,10,23,03,00,AAXX 23034 41950 01350 80000 10262 20220 30137 40139 70262 8462/ 333 20245 59009 70001 81708 84616 88458==
41950,2023,10,23,06,00,AAXX 23064 41950 11350 80000 10282 20230 30129 40131 69916 70262 8562/ 333 58002 70001 82708 84616 88458==
41950,2023,10,23,09,00,AAXX 23094 41950 02350 80000 10287 20250 30100 40102 8562/ 333 59007 70001 82708 84616 88458==
41950,2023,10,23,12,00,AAXX 23124 41950 02350 80000 10265 20250 30113 40115 8562/ 333 10290 58001 70001 82708 84616 88458==
41950,2023,10,23,15,00,AAXX 23154 41950 02350 80000 10254 20230 30121 40123 8562/ 333 59014 70001 82708 84616 88458==
41950,2023,10,23,18,00,AAXX 23184 41950 02350 80000 10250 20240 30107 40110 8562/ 333 59030 70001 82708 84616 88458==
41950,2023,10,23,21,00,AAXX 23214 41950 01340 80000 10247 20247 30100 40103 76162 8572/ 333 59018 70018 82708 84616 88458==
41950,2023,10,24,00,00,AAXX 24004 41950 21335 80000 10245 20245 30101 40104 76162 8572/ 333 59017 60099 70086 82707 84615 88458==
41950,2023,10,24,03,00,AAXX 24034 41950 01335 80000 10245 20245 30120 40123 76166 8572/ 333 20237 59017 70123 82707 84616 88458==
41950,2023,10,24,06,00,AAXX 24064 41950 21350 80902 10264 20240 30100 40103 70262 8562/ 333 59029 60048 70126 82708 84616 88458==
41950,2023,10,24,09,00,AAXX 24094 41950 02350 80000 10264 20230 30078 40081 8562/ 333 59022 70126 82708 84616 88458==
41950,2023,10,24,12,00,AAXX 24124 41950 02450 60000 10250 20230 30084 40087 83570 333 10266 59029 70126 83617 85459==
41950,2023,10,24,15,00,AAXX 24154 41950 02350 80000 10245 20240 30089 40092 8562/ 333 59032 70126 82708 84616 88458==
41950,2023,10,24,18,00,AAXX 24184 41950 02350 80000 10250 20240 30091 40094 8562/ 333 59016 70126 82708 84616 88458==
41950,2023,10,24,21,00,AAXX 24214 41950 02350 80000 10249 20240 30092 40095 8562/ 333 59008 70109 82708 84616 88458==
41950,2023,10,25,00,00,AAXX 25004 41950 02350 80000 10248 20240 30104 40107 8562/ 333 58003 70041 82708 84616 88458==
41950,2023,10,25,03,00,AAXX 25034 41950 02350 70000 10287 20240 30130 40133 84610 333 20240 58010 70003 81708 83617 85459==
41950,2023,10,25,06,00,AAXX 25064 41950 02450 50000 10317 20264 30120 40123 84430 333 58020 70000 83617==
41950,2023,10,25,09,00,AAXX 25094 41950 02456 33202 10326 20230 30098 40100 83400 333 58019 70000 83617==
41950,2023,10,25,12,00,AAXX 25124 41950 02950 00000 10264 20240 30104 40106 333 10330 58019 70000==
41950,2023,10,25,15,00,AAXX 25154 41950 01950 00000 10260 20250 30122 40124 70500 333 58033 70000==
41950,2023,10,25,18,00,AAXX 25184 41950 02950 00000 10250 20250 30121 40124 333 58030 70000==
41950,2023,10,25,21,00,AAXX 25214 41950 02350 80000 10245 20245 30115 40118 8562/ 333 58023 70000 82708 84616 88458==
41950,2023,10,26,00,00,AAXX 26004 41950 21435 50000 10242 20240 30118 40121 70562 82510 333 58014 60085 70083 82617 85459==
41950,2023,10,26,03,00,AAXX 26034 41950 02950 00000 10295 20260 30143 40145 333 20238 58013 70083==
41950,2023,10,26,06,00,AAXX 26064 41950 02450 30000 10320 20220 30126 40128 83400 333 58006 70083 83617==
41950,2023,10,26,09,00,AAXX 26094 41950 02450 30000 10330 20220 30102 40104 83400 333 58004 70089 82617==
41950,2023,10,26,12,00,AAXX 26124 41950 02950 10000 10270 20250 30105 40107 80001 333 10335 58001 70083 81080==
41950,2023,10,26,15,00,AAXX 26154 41950 02/50 20000 10250 20240 30128 40131 82030 333 58006 70083 82362==
41950,2023,10,26,18,00,AAXX 26184 41950 01940 00000 10245 20245 30130 40133 70510 333 58009 70083==
41950,2023,10,26,21,00,AAXX 26214 41950 01940 00000 10222 20222 30115 40118 70500 333 58000 70000==
41951,2023,10,20,00,00,AAXX 20004 41951 01440 30000 10236 20236 30122 40127 70500 83500 333 58004 70000 83618==
41951,2023,10,20,03,00,AAXX 20034 41951 02956 03502 10296 20260 30141 40146 333 20230 58008 70000==
41951,2023,10,20,06,00,AAXX 20064 41951 02956 00502 10322 20240 30126 40131 333 58002 70000==
41951,2023,10,20,09,00,AAXX 20094 41951 02956 03002 10332 20210 30105 40110 333 58001 70000==
41951,2023,10,20,12,00,AAXX 20124 41951 02956 00000 10268 20250 30097 40102 333 10334 59001 70000==
41951,2023,10,20,15,00,AAXX 20154 41951 01940 00000 10248 20240 30130 40135 70500 333 58000 70000==
41951,2023,10,20,18,00,AAXX 20184 41951 01940 00000 10238 20238 30128 40133 70500 333 58005 70000==
41951,2023,10,20,21,00,AAXX 20214 41951 01935 00000 10232 20230 30126 40131 71000 333 58005 70000==
41951,2023,10,21,00,00,AAXX 21004 41951 01940 00000 10225 20225 30124 40129 70500 333 58002 70000==
41951,2023,10,21,03,00,AAXX 21034 41951 02956 00502 10288 20260 30141 40146 333 20220 58000 70000==
41951,2023,10,21,06,00,AAXX 21064 41951 02956 01003 10330 20240 30128 40133 333 58002 70000==
41951,2023,10,21,09,00,AAXX 21094 41951 02956 03002 10334 20220 30108 40113 333 58003 70000==
41951,2023,10,21,12,00,AAXX 21124 41951 01940 00000 10270 20250 30105 40110 70500 333 10336 58008 70000==
41951,2023,10,21,15,00,AAXX 21154 41951 01940 00000 10252 20250 30136 40141 70500 333 58006 70000==
41951,2023,10,21,18,00,AAXX 21184 41951 01940 00000 10242 20240 30130 40135 70500 333 58002 70000==
41951,2023,10,21,21,00,AAXX 21214 41951 01440 30000 10238 20238 30128 40133 70500 83500 333 58002 70000 83618==
41951,2023,10,22,00,00,AAXX 22004 41951 01440 60000 10240 20240 30126 40131 70520 83510 333 58002 70000 83618 85459==
41951,2023,10,22,03,00,AAXX 22034 41951 02456 60502 10296 20260 30144 40149 83510 333 20235 58003 70000 83618 85459==
41951,2023,10,22,06,00,AAXX 22064 41951 02456 60502 10332 20250 30122 40127 83510 333 59006 70000 83618 85459==
41951,2023,10,22,09,00,AAXX 22094 41951 02456 60702 10330 20250 30106 40111 83510 333 59002 70000 83618 85459==
41951,2023,10,22,12,00,AAXX 22124 41951 02450 60000 10286 20270 30101 40106 83510 333 10342 59004 70000 83618 85459==
41951,2023,10,22,15,00,AAXX 22154 41951 02440 70000 10272 20260 30133 40138 83510 333 59003 70000 83618 86459==
41951,2023,10,22,18,00,AAXX 22184 41951 02340 82202 10270 20250 30124 40129 8562/ 333 59006 70000 81708 84618 88458==
41951,2023,10,23,00,00,AAXX 23004 41951 02430 80000 10119 20256 30114 8562/ 333 59012 70000 81708 84618 88458==
41951,2023,10,23,06,00,AAXX 23064 41951 02340 81302 10298 20250 30124 40129 8562/ 333 58002 70000 81708 84618 88458==
41951,2023,10,23,09,00,AAXX 23094 41951 02340 81302 10286 20250 30095 40100 8562/ 333 59011 70000 81708 84618 88458==
41951,2023,10,23,12,00,AAXX 23124 41951 02340 81302 10270 20250 30104 40109 8562/ 333 10300 58003 70000 81708 84618 88458==
41951,2023,10,23,15,00,AAXX 23154 41951 02340 81202 10262 20240 30117 40122 8562/ 333 59016 70000 81708 84618 88458==
41951,2023,10,23,18,00,AAXX 23184 41951 02340 80000 10256 20250 30106 40111 8562/ 333 59018 70000 81708 84618 88458==
41951,2023,10,23,21,00,AAXX 23214 41951 01330 81302 10250 20250 30099 40104 76162 8672/ 333 59019 70007 82706 84616 88458==
41951,2023,10,24,00,00,AAXX 24004 41951 21330 81302 10250 20250 30094 40099 76166 8672/ 333 59020 60029 70017 82706 84616 88458==
41951,2023,10,24,03,00,AAXX 24034 41951 01330 81003 10253 20250 30106 40111 76166 8672/ 333 20245 59021 70030 82706 84616 88458==
41951,2023,10,24,06,00,AAXX 24064 41951 21340 80602 10262 20240 30097 40102 70262 8562/ 333 59027 60028 70035 81708 84618 88458==
41951,2023,10,24,09,00,AAXX 24094 41951 02340 80503 10262 20240 30079 40084 8662/ 333 59016 70035 82708 84618 88458==
41951,2023,10,24,12,00,AAXX 24124 41951 02340 80503 10255 20240 30072 40077 8662/ 333 10265 59032 70035 82708 84618 88458==
41951,2023,10,24,15,00,AAXX 24154 41951 02340 80302 10267 20250 30087 40092 8662/ 333 59030 70035 82708 84618 88458==
41951,2023,10,24,18,00,AAXX 24184 41951 02340 83502 10262 20250 30095 40100 8562/ 333 59011 70035 81708 84618 88458==
41951,2023,10,24,21,00,AAXX 24214 41951 02450 33202 10256 20250 30085 40090 83500 333 59014 70028 83618==
41951,2023,10,25,00,00,AAXX 25004 41951 01440 60000 10250 20240 30105 40110 70520 83510 333 58011 70018 83618 85459==
41951,2023,10,25,15,00,AAXX 25154 41951 01450 31302 10257 20250 30115 40120 70500 333 58028 70000 83618==
41951,2023,10,25,18,00,AAXX 25184 41951 02440 30000 10252 20240 30105 40110 83500 333 58010 70000 83618==
41951,2023,10,26,06,00,AAXX 26064 41951 NIL=
41951,2023,10,26,09,00,AAXX 26094 41951 02456 60502 10320 20250 30099 40104 83510 333 58001 70000 83618 85458==
41951,2023,10,26,12,00,AAXX 26124 41951 02956 00000 10272 20250 30102 40107 333 10325 58006 70000==
41951,2023,10,26,15,00,AAXX 26154 41951 01940 00000 10258 20250 30123 40128 70500 333 58008 70000==
41951,2023,10,26,18,00,AAXX 26184 41951 01935 00000 10250 20250 30119 40124 70500 333 58003 70000==
41951,2023,10,26,21,00,AAXX 26214 41951 01935 00000 10238 20238 30117 40122 71000 333 58002 70000==
41953,2023,10,20,00,00,AAXX 20004 41953 01930 00000 10246 20240 30133 40138 71044 333 58011 70000==
41953,2023,10,20,03,00,AAXX 20034 41953 01940 00000 10285 20240 30149 40154 70544 333 20245 58007 70000==
41953,2023,10,20,06,00,AAXX 20064 41953 01950 00000 10312 20200 30130 40135 70540 333 58002 70000==
41953,2023,10,20,09,00,AAXX 20094 41953 01950 03603 10320 20190 30105 40110 70500 333 59003 70000==
41953,2023,10,20,12,00,AAXX 20124 41953 01940 00000 10290 20220 30105 40110 70500 333 10325 59001 70000==
41953,2023,10,20,15,00,AAXX 20154 41953 01930 00000 10270 20230 30128 40133 71044 333 58002 70000==
41953,2023,10,20,18,00,AAXX 20184 41953 01930 00000 10260 20240 30130 40135 71044 333 58002 70000==
41953,2023,10,20,21,00,AAXX 20214 41953 01930 00000 10256 20240 30125 40130 71044 333 58002 70000==
41953,2023,10,21,00,00,AAXX 21004 41953 01930 00000 10245 20240 30127 40132 71044 333 59006 70000==
41953,2023,10,21,03,00,AAXX 21034 41953 01940 03603 10295 20230 30147 40152 70540 333 20245 59002 70000==
41953,2023,10,21,06,00,AAXX 21064 41953 01950 00000 10317 20210 30132 40137 70540 333 58002 70000==
41953,2023,10,21,09,00,AAXX 21094 41953 01950 00000 10327 20200 30108 40113 70500 333 58003 70000==
41953,2023,10,21,12,00,AAXX 21124 41953 01940 00000 10290 20240 30111 40116 70500 333 10330 58006 70000==
41953,2023,10,21,15,00,AAXX 21154 41953 01930 00000 10270 20250 30136 40141 71040 333 58008 70000==
41953,2023,10,21,18,00,AAXX 21184 41953 01930 00000 10266 20250 30131 40136 71040 333 58001 70000==
41953,2023,10,21,21,00,AAXX 21214 41953 01930 00000 10260 20240 30125 40130 71044 333 58000 70000==
41953,2023,10,22,00,00,AAXX 22004 41953 01/30 40000 10256 20250 30131 40136 71044 84030 333 58004 70000 84362==
41953,2023,10,22,03,00,AAXX 22034 41953 01940 00000 10305 20250 30144 40149 70540 333 20255 59003 70000==
41953,2023,10,22,06,00,AAXX 22064 41953 02450 40000 10330 20210 30124 40129 84400 333 59008 70000 83616==
41953,2023,10,22,09,00,AAXX 22094 41953 02450 60000 10332 20250 30106 40111 82510 333 59002 70000 82618 85458==
41953,2023,10,22,12,00,AAXX 22124 41953 01430 80000 10298 20260 30113 40118 70522 8352/ 333 10335 58002 70000 83616 88458==
41953,2023,10,22,15,00,AAXX 22154 41953 01930 80000 10268 20240 30139 40144 70522 8352/ 333 58003 70000 83616 88458==
41953,2023,10,22,18,00,AAXX 22184 41953 01420 80000 10265 20250 30134 40139 70522 8352/ 333 58003 70000 83616 88458==
41953,2023,10,23,00,00,AAXX 23004 41953 01440 80000 10240 20240 30129 40134 70262 8452/ 333 59002 70370 84616 88458==
41953,2023,10,23,06,00,AAXX 23064 41953 02440 80000 10286 20260 30130 40135 8352/ 333 58006 70370 83616 88458==
41953,2023,10,23,09,00,AAXX 23094 41953 02440 80000 10280 20240 30102 40107 8352/ 333 59004 70370 83616 88458==
41953,2023,10,23,12,00,AAXX 23124 41953 01428 80000 10268 20250 30110 40115 71022 8352/ 333 10288 59003 70370 83616 88458==
41953,2023,10,23,15,00,AAXX 23154 41953 01420 80000 10256 20240 30123 40128 71022 8352/ 333 59016 70370 83616 88458==
41953,2023,10,23,18,00,AAXX 23184 41953 01420 80000 10252 20240 30117 40122 72122 8352/ 333 59017 70020 83616 88458==
41953,2023,10,23,21,00,AAXX 23214 41953 01420 80901 10250 20240 30114 40119 71022 8352/ 333 59016 70390 83616 88458==
41953,2023,10,24,00,00,AAXX 24004 41953 01408 80902 10250 20240 30112 40117 74222 8352/ 333 59002 70020 83616 88458==
41953,2023,10,24,03,00,AAXX 24034 41953 01435 80902 10246 20246 30121 40126 76166 8452/ 333 20245 59009 70040 84616 88458==
41953,2023,10,24,06,00,AAXX 24064 41953 21440 80000 10242 20230 30101 40106 70050 8452/ 333 59029 60037 70050 84615 88458==
41953,2023,10,24,09,00,AAXX 24094 41953 02440 80000 10250 20230 30083 40088 8452/ 333 59019 70050 84616 88458==
41953,2023,10,24,12,00,AAXX 24124 41953 02440 80000 10250 20230 30081 40086 8352/ 333 10253 59029 70050 83616 88458==
41953,2023,10,24,15,00,AAXX 24154 41953 02420 80504 10255 20240 30083 40088 8352/ 333 59040 70050 83616 88458==
41953,2023,10,24,18,00,AAXX 24184 41953 02420 80000 10255 20240 30093 40098 8352/ 333 59024 70050 83616 88458==
41953,2023,10,24,21,00,AAXX 24214 41953 02420 80506 10250 20230 30101 40106 8352/ 333 59013 70030 83616 88458==
41953,2023,10,25,00,00,AAXX 25004 41953 02440 80405 10246 20230 30105 40110 8352/ 333 59007 70030 83616 88458==
41953,2023,10,25,03,00,AAXX 25034 41953 02450 60504 10280 20280 30129 40134 83510 333 20236 58005 70010 83616 85458==
41953,2023,10,25,12,00,AAXX 25124 41953 02930 00000 10274 20240 30104 40109 333 10312 58023 70000==
41953,2023,10,26,00,00,AAXX 26004 41953 01908 00000 10248 20240 30126 40131 74244 333 58021 70000==
41953,2023,10,26,03,00,AAXX 26034 41953 01940 00000 10296 20250 30144 40149 70540 333 20247 58015 70000==
41953,2023,10,26,06,00,AAXX 26064 41953 02450 40000 10310 20240 30127 40132 84400 333 58008 70000 83618==
41953,2023,10,26,09,00,AAXX 26094 41953 02450 40000 10312 20240 30103 40108 84400 333 58002 70000 83618==
41953,2023,10,26,12,00,AAXX 26124 41953 02940 00000 10280 20250 30105 40110 333 10314 58001 70000==
41953,2023,10,26,15,00,AAXX 26154 41953 01430 30000 10268 20250 30128 40133 70520 83500 333 58003 70000 83618==
41953,2023,10,26,18,00,AAXX 26184 41953 01930 00000 10264 20250 30127 40132 70520 333 58000 70000==
41953,2023,10,26,21,00,AAXX 26214 41953 01930 00000 10250 20240 30123 40128 70500 333 59004 70000==
41955,2023,10,20,00,00,AAXX 20004 41955 NIL=
41955,2023,10,20,18,00,AAXX 20184 41955 NIL=
41955,2023,10,21,00,00,AAXX 21004 41955 NIL=
41955,2023,10,21,06,00,AAXX 21064 41955 NIL=
41955,2023,10,22,00,00,AAXX 22004 41955 NIL=
41955,2023,10,22,06,00,AAXX 22064 41955 NIL=
41955,2023,10,22,12,00,AAXX 22124 41955 NIL=
41955,2023,10,23,00,00,AAXX 23004 41955 NIL=
41955,2023,10,23,06,00,AAXX 23064 41955 NIL=
41955,2023,10,23,12,00,AAXX 23124 41955 NIL=
41955,2023,10,24,12,00,AAXX 24124 41955 NIL=
41955,2023,10,24,18,00,AAXX 24184 41955 NIL=
41955,2023,10,25,00,00,AAXX 25004 41955 NIL=
41955,2023,10,26,06,00,AAXX 26064 41955 NIL=
41955,2023,10,26,12,00,AAXX 26124 41955 NIL=
41958,2023,10,20,00,00,AAXX 20004 41958 31940 03501 10245 20230 30120 40122 70500 333 58010 70000=
41958,2023,10,20,03,00,AAXX 20034 41958 32956 03502 10292 20220 30142 40144 333 20240 58007 70000=
41958,2023,10,20,06,00,AAXX 20064 41958 32957 03501 10315 20230 30128 40130 333 59003 70000=
41958,2023,10,20,09,00,AAXX 20094 41958 32957 03501 10333 20240 30101 40103 333 59007 70000=
41958,2023,10,20,12,00,AAXX 20124 41958 32950 00000 10277 20250 30096 40098 333 10334 59006 70000=
41958,2023,10,20,15,00,AAXX 20154 41958 32950 00000 10247 20240 30120 40122 333 59001 70000=
41958,2023,10,20,18,00,AAXX 20184 41958 32940 00000 10243 20240 30127 40129 333 58009 70000=
41958,2023,10,20,21,00,AAXX 20214 41958 31940 00000 10240 20230 30114 40116 70500 333 59002 70000=
41958,2023,10,21,00,00,AAXX 21004 41958 31940 00000 10237 20220 30118 40120 70500 333 59002 70000=
41958,2023,10,21,03,00,AAXX 21034 41958 32956 03501 10286 20230 30137 40139 333 20228 59005 70000=
41958,2023,10,21,06,00,AAXX 21064 41958 32957 00000 10315 20210 30128 40130 333 58000 70000=
41958,2023,10,21,09,00,AAXX 21094 41958 32956 00000 10335 20220 30101 40103 333 58000 70000=
41958,2023,10,21,12,00,AAXX 21124 41958 32950 00000 10270 20240 30108 40110 333 10340 58012 70000=
41958,2023,10,21,15,00,AAXX 21154 41958 32950 00000 10250 20240 30128 40130 333 58008 70000=
41958,2023,10,21,18,00,AAXX 21184 41958 31940 00000 10242 20230 30116 40118 70500 333 59011 70000=
41958,2023,10,21,21,00,AAXX 21214 41958 31940 00000 10242 20230 30119 40121 70500 333 58005 70000=
41958,2023,10,22,00,00,AAXX 22004 41958 31450 80000 10252 20230 30122 40124 70500 8452/ 333 56999 58004 70000 84616 88458=
41958,2023,10,22,03,00,AAXX 22034 41958 31956 00000 10292 20230 30137 40139 70500 333 20240 58000 70000=
41958,2023,10,22,06,00,AAXX 22064 41958 32556 50501 10322 20240 30122 40124 81101 333 56109 59006 70000 81825 85080=
41958,2023,10,22,09,00,AAXX 22094 41958 32956 50901 10328 20250 30100 40102 85031 333 56099 59001 70000 85362=
41958,2023,10,22,12,00,AAXX 22124 41958 32940 30000 10282 20240 30105 40107 83030 333 10338 56090 59003 70000 83362=
41958,2023,10,22,15,00,AAXX 22154 41958 32940 33001 10268 20250 30132 40134 83030 333 56090 58004 70000 83362=
41958,2023,10,22,18,00,AAXX 22184 41958 32940 30000 10264 20250 30120 40122 83030 333 56090 58004 70000 83362=
41958,2023,10,22,21,00,AAXX 22214 41958 32940 30000 10256 20250 30108 40110 83030 333 56090 59011 70000 83362=
41958,2023,10,23,00,00,AAXX 23004 41958 32940 30000 10256 20250 30111 40113 83030 333 56090 59011 70000 83362=
41958,2023,10,23,06,00,AAXX 23064 41958 32450 80902 10290 20260 30114 40116 8542/ 333 56299 59008 70000 84616 88459=
41958,2023,10,23,09,00,AAXX 23094 41958 21450 71503 10286 20240 30085 40087 70162 85410 333 56390 59015 6992/ 70002 84616 87459=
41958,2023,10,23,12,00,AAXX 23124 41958 11440 81502 10266 20230 30099 40101 69926 70362 8542/ 333 10295 56399 59006 70002 84616 88459=
41958,2023,10,23,15,00,AAXX 23154 41958 32440 81502 10258 20230 30108 40110 8542/ 333 56399 59024 70002 84616 88459=
41958,2023,10,23,18,00,AAXX 23184 41958 32440 81504 10254 20230 30103 40105 8542/ 333 56399 59017 70002 84616 88459=
41958,2023,10,23,21,00,AAXX 23214 41958 21440 80804 10250 20230 30077 40079 70262 8542/ 333 56199 59031 6998/ 70010 84616 88459=
41958,2023,10,24,00,00,AAXX 24004 41958 11440 80806 10250 20230 30080 40082 69986 70262 8542/ 333 56199 59031 70010 84616 88459=
41958,2023,10,24,03,00,AAXX 24034 41958 32450 80503 10258 20240 30107 40109 8542/ 333 20242 56199 59016 70010 84616 88459=
41958,2023,10,24,06,00,AAXX 24064 41958 32456 70505 10276 20240 30088 40090 85410 333 56190 59026 70010 84616 87459=
41958,2023,10,24,09,00,AAXX 24094 41958 32456 70305 10280 20230 30070 40072 85410 333 56190 59015 70008 84616 87459=
41958,2023,10,24,12,00,AAXX 24124 41958 32950 30504 10264 20230 30076 40078 83030 333 10282 56090 59023 70008 83362=
41958,2023,10,24,15,00,AAXX 24154 41958 32940 50000 10252 20230 30091 40093 85030 333 56090 59017 70008 85362=
41958,2023,10,24,18,00,AAXX 24184 41958 32440 80000 10250 20250 30087 40089 8442/ 333 56999 59016 70008 84616 88458=
41958,2023,10,24,21,00,AAXX 24214 41958 32440 83301 10250 20250 30086 40088 8542/ 333 56999 59017 70000 84616 88459=
41958,2023,10,25,00,00,AAXX 25004 41958 32440 80000 10250 20240 30098 40100 8452/ 333 56999 58018 70000 84616 88459=
41958,2023,10,25,03,00,AAXX 25034 41958 32957 50000 10278 20250 30125 40127 85030 333 20245 56090 58018 70000 85362=
41958,2023,10,26,00,00,AAXX 26004 41958 31940 00000 10252 20250 30104 40106 70500 333 58006 70000=
41958,2023,10,26,03,00,AAXX 26034 41958 31956 00000 10308 20240 30132 40134 70500 333 20246 58007 70000=
41958,2023,10,26,06,00,AAXX 26064 41958 NIL=
41958,2023,10,26,12,00,AAXX 26124 41958 NIL=
41958,2023,10,26,15,00,AAXX 26154 41958 32950 00000 10255 20250 30113 40115 333 58006 70000=
41958,2023,10,26,18,00,AAXX 26184 41958 31940 00000 10248 20248 30112 40114 70500 333 58017 70000=
41958,2023,10,26,21,00,AAXX 26214 41958 31940 00000 10242 20240 30102 40104 70500 333 58006 70000=
41960,2023,10,20,00,00,AAXX 20004 41960 01940 00000 10238 20230 30136 40137 70500 333 58012 70000==
41960,2023,10,20,03,00,AAXX 20034 41960 01940 03605 10276 20250 30154 40155 70500 333 20234 58008 70000==
41960,2023,10,20,06,00,AAXX 20064 41960 01440 32702 10318 20240 30132 40134 70510 82410 333 58000 70000 81618 83459==
41960,2023,10,20,09,00,AAXX 20094 41960 01450 23402 10322 20230 30110 40112 70500 82400 333 58001 70000 81618==
41960,2023,10,20,12,00,AAXX 20124 41960 01940 00000 10292 20240 30108 40110 70500 333 10328 59001 70000==
41960,2023,10,20,15,00,AAXX 20154 41960 01940 00000 10257 20240 30131 40132 70500 333 58001 70000==
41960,2023,10,20,18,00,AAXX 20184 41960 01940 00000 10244 20230 30133 40134 70500 333 58003 70000==
41960,2023,10,20,21,00,AAXX 20214 41960 01940 00000 10238 20230 30133 40134 70500 333 58003 70000==
41960,2023,10,21,00,00,AAXX 21004 41960 01940 20000 10230 20220 30132 40134 70500 80001 333 59004 70000 82078==
41960,2023,10,21,03,00,AAXX 21034 41960 01940 03602 10278 20240 30149 40151 70500 333 20228 59005 70000==
41960,2023,10,21,06,00,AAXX 21064 41960 01940 02702 10318 20230 30134 40136 70500 333 58002 70000==
41960,2023,10,21,09,00,AAXX 21094 41960 01950 03402 10324 20220 30110 40112 70500 333 58000 70000==
41960,2023,10,21,12,00,AAXX 21124 41960 01950 30000 10291 20240 30114 40116 70500 82401 333 10330 58006 70000 81618 83080==
41960,2023,10,21,15,00,AAXX 21154 41960 01940 00000 10260 20250 30139 40140 70500 333 58008 70000==
41960,2023,10,21,18,00,AAXX 21184 41960 01940 00000 10250 20230 30135 40136 70500 333 58002 70000==
41960,2023,10,21,21,00,AAXX 21214 41960 01/40 23401 10248 20240 30134 40135 70500 82030 333 58001 70000 82363==
41960,2023,10,22,00,00,AAXX 22004 41960 01/40 30000 10245 20240 30136 40138 70500 83030 333 58004 70000 83363==
41960,2023,10,22,03,00,AAXX 22034 41960 01940 33602 10282 20240 30146 40147 70500 80001 333 20241 59003 70000 83078==
41960,2023,10,22,06,00,AAXX 22064 41960 01450 32302 10333 20240 30127 40129 70510 83401 333 59007 70000 82618==
41960,2023,10,22,09,00,AAXX 22094 41960 01450 40000 10335 20250 30110 40112 70510 84411 333 58000 70000 82618==
41960,2023,10,22,12,00,AAXX 22124 41960 01450 60000 10300 20270 30110 40112 70521 84471 333 10342 59004 70000 83618 85459==
41960,2023,10,22,15,00,AAXX 22154 41960 01440 60000 10274 20250 30138 40140 70522 84430 333 59001 70000 83618 86363==
41960,2023,10,22,18,00,AAXX 22184 41960 01440 70000 10264 20240 30134 40136 70522 85470 333 59001 70000 83618 85459==
41960,2023,10,22,21,00,AAXX 22214 41960 02450 80000 10262 20250 30129 40131 8642/ 333 59005 70000 84618 83822 88459==
41960,2023,10,23,00,00,AAXX 23004 41960 02450 80000 10262 20250 30123 40124 8642/ 333 59013 70000 81618 83822 88459==
41960,2023,10,23,03,00,AAXX 23034 41960 02450 80000 10278 20250 30139 40140 8442/ 333 20258 59007 70000 82618 88459==
41960,2023,10,23,06,00,AAXX 23064 41960 02450 80000 10284 20250 30132 40134 8442/ 333 59005 70000 83618 88459==
41960,2023,10,23,09,00,AAXX 23094 41960 02450 80000 10273 20240 30104 40105 8542/ 333 59006 70000 84618 88459==
41960,2023,10,23,12,00,AAXX 23124 41960 02450 80000 10260 20240 30116 40117 8542/ 333 10285 58006 70000 84618 88459==
41960,2023,10,23,15,00,AAXX 23154 41960 02450 80000 10254 20230 30116 40117 8542/ 333 59022 70000 84618 88459==
41960,2023,10,23,18,00,AAXX 23184 41960 01430 80000 10252 20240 30110 40111 76122 8542/ 333 59024 70000 84617 88458==
41960,2023,10,23,21,00,AAXX 23214 41960 01430 80000 10250 20250 30104 40105 76166 8642/ 333 59025 70006 84616 83822 88459==
41960,2023,10,24,00,00,AAXX 24004 41960 21430 80902 10250 20250 30098 40099 76166 8642/ 333 59025 60029 70018 84616 83822 88459==
41960,2023,10,24,03,00,AAXX 24034 41960 01330 80902 10252 20250 30115 40117 76166 8672/ 333 20245 59024 70041 82708 84614 88458==
41960,2023,10,24,06,00,AAXX 24064 41960 21330 81501 10254 20240 30096 40098 76166 8672/ 333 59036 60089 70099 82708 84614 88458==
41960,2023,10,24,09,00,AAXX 24094 41960 01330 80507 10260 20250 30074 40076 76162 8672/ 333 59030 70101 82708 84614 88458==
41960,2023,10,24,12,00,AAXX 24124 41960 21430 53306 10252 20240 30075 40077 70162 82430 333 10262 59041 69935 70102 81618 85363==
41960,2023,10,24,15,00,AAXX 24154 41960 02430 83605 10253 20230 30087 40089 8542/ 333 59029 70102 84618 88459==
41960,2023,10,24,18,00,AAXX 24184 41960 02430 72702 10250 20240 30095 40097 85410 333 59015 70102 83618 87459==
41960,2023,10,24,21,00,AAXX 24214 41960 02440 70000 10250 20240 30101 40103 85410 333 59003 70096 84617 87459==
41960,2023,10,25,00,00,AAXX 25004 41960 02440 70000 10252 20240 30107 40109 85410 333 58009 70084 84617 87459==
41960,2023,10,25,03,00,AAXX 25034 41960 02450 33402 10282 20240 30133 40135 82430 333 20247 58018 70061 81618 83362==
41960,2023,10,25,09,00,AAXX 25094 41960 02457 40000 10310 20230 30102 40104 84401 333 58028 70001 83618==
41960,2023,10,25,12,00,AAXX 25124 41960 02950 00000 10284 20260 30102 40104 333 10331 58027 70000==
41960,2023,10,26,00,00,AAXX 26004 41960 01905 00000 10255 20255 30122 40124 74440 333 58015 70000==
41960,2023,10,26,03,00,AAXX 26034 41960 01940 00000 10292 20250 30146 40147 70540 333 20245 58013 70000==
41960,2023,10,26,06,00,AAXX 26064 41960 NIL=
41960,2023,10,26,12,00,AAXX 26124 41960 01450 20000 10289 20250 30107 40109 70521 82400 333 10330 58025 70000 81618==
41960,2023,10,26,15,00,AAXX 26154 41960 01940 00000 10260 20250 30127 40128 70500 333 58003 70000==
41960,2023,10,26,18,00,AAXX 26184 41960 01940 00000 10251 20250 30126 40127 70500 333 58002 70000==
41960,2023,10,26,21,00,AAXX 26214 41960 01940 00000 10245 20245 30123 40125 70500 333 58000 70000==
41963,2023,10,20,00,00,AAXX 20004 41963 01915 00000 10245 20245 30127 40130 71000 333 58009 70000==
41963,2023,10,20,03,00,AAXX 20034 41963 01940 01303 10290 20240 30143 40145 70500 333 20241 58006 70000==
41963,2023,10,20,06,00,AAXX 20064 41963 02950 03601 10310 20230 30125 40128 333 58005 70000==
41963,2023,10,20,09,00,AAXX 20094 41963 02950 03601 10320 20230 30098 40101 333 59003 70000==
41963,2023,10,20,12,00,AAXX 20124 41963 01920 00000 10280 20270 30097 40099 70500 333 10324 59002 70000==
41963,2023,10,20,15,00,AAXX 20154 41963 01915 00000 10252 20252 30127 40130 71000 333 58010 70000==
41963,2023,10,20,18,00,AAXX 20184 41963 01910 00000 10248 20248 30132 40135 71000 333 58007 70000==
41963,2023,10,20,21,00,AAXX 20214 41963 01910 00000 10245 20245 30130 40133 71000 333 58007 70000==
41963,2023,10,21,00,00,AAXX 21004 41963 01915 00000 10242 20242 30128 40131 71000 333 58001 70000==
41963,2023,10,21,03,00,AAXX 21034 41963 02950 03601 10290 20240 30138 40141 333 20240 59005 70000==
41963,2023,10,21,06,00,AAXX 21064 41963 02450 53602 10310 20230 30126 40128 82530 333 58001 70000 82618 85362==
41963,2023,10,21,09,00,AAXX 21094 41963 02950 03601 10320 20230 30104 40107 333 58005 70000==
41963,2023,10,21,12,00,AAXX 21124 41963 01920 00000 10280 20260 30114 40117 70500 333 10330 58017 70000==
41963,2023,10,21,15,00,AAXX 21154 41963 01920 00000 10256 20256 30128 40130 71000 333 58001 70000==
41963,2023,10,21,18,00,AAXX 21184 41963 01920 00000 10250 20250 30137 40140 71000 333 58005 70000==
41963,2023,10,21,21,00,AAXX 21214 41963 01915 00000 10246 20246 30133 40136 71000 333 58003 70000==
41963,2023,10,22,00,00,AAXX 22004 41963 01915 00000 10242 20242 30135 40138 71000 333 58008 70000==
41963,2023,10,22,03,00,AAXX 22034 41963 02950 03601 10310 20260 30138 40141 80001 333 20240 58000 70000 84080==
41963,2023,10,22,06,00,AAXX 22064 41963 02456 63601 10320 20260 30114 40117 82510 333 59012 70000 82618 86458==
41963,2023,10,22,09,00,AAXX 22094 41963 02450 73603 10315 20230 30105 40108 82510 333 58001 70000 82618 87458==
41963,2023,10,22,12,00,AAXX 22124 41963 01430 20000 10276 20270 30105 40107 70521 82500 333 10322 59009 70000 82618==
41963,2023,10,22,15,00,AAXX 22154 41963 01430 50000 10266 20260 30125 40127 70521 82510 333 59003 70000 82618 85458==
41963,2023,10,22,18,00,AAXX 22184 41963 01420 50000 10263 20260 30131 40133 71022 82510 333 59006 70000 82618 85458==
41963,2023,10,23,00,00,AAXX 23004 41963 01420 20000 20256 30127 40130 71022 82500 333 59008 70000 82618==
41963,2023,10,23,03,00,AAXX 23034 41963 01340 80000 10280 20260 30129 40132 70362 8372/ 333 20250 59009 70020 82708 83616 88458==
41963,2023,10,23,06,00,AAXX 23064 41963 01340 80000 10276 20270 30129 40132 76062 8372/ 333 58015 70040 82708 83616 88458==
41963,2023,10,23,09,00,AAXX 23094 41963 01340 81801 10265 20260 30097 40100 76062 8372/ 333 59008 70050 82708 83616 88458==
41963,2023,10,23,12,00,AAXX 23124 41963 21330 80000 10250 20240 30110 40113 76062 8372/ 333 10283 58005 60029 70060 82708 83616 88458==
41963,2023,10,23,15,00,AAXX 23154 41963 01320 81801 10245 20245 30114 40117 76062 8372/ 333 59011 70070 82708 83616 88458==
41963,2023,10,23,18,00,AAXX 23184 41963 21315 80000 10243 20243 30108 40111 70262 8352/ 333 59023 60029 70080 82618 88458==
41963,2023,10,23,21,00,AAXX 23214 41963 01315 80000 10242 20242 30107 40110 70522 8372/ 333 59022 70080 82708 83616 88458==
41963,2023,10,24,00,00,AAXX 24004 41963 01420 81801 10241 20241 30101 40104 70522 8252/ 333 59028 70080 82618 88458==
41963,2023,10,24,03,00,AAXX 24034 41963 01340 81801 10250 20230 30110 40113 76162 8372/ 333 20239 59019 70110 82708 83616 88458==
41963,2023,10,24,06,00,AAXX 24064 41963 21340 81803 10250 20240 30083 40086 76166 8372/ 333 59046 60089 70170 82618 83616 88458==
41963,2023,10,24,09,00,AAXX 24094 41963 01340 81304 10242 20240 30059 40062 76162 8372/ 333 59038 70240 82708 83616 88458==
41963,2023,10,24,12,00,AAXX 24124 41963 21320 80503 10248 20240 30060 40063 70562 8372/ 333 10254 59050 60088 70230 82708 83616 88458==
41963,2023,10,24,15,00,AAXX 24154 41963 01320 80501 10260 20250 30061 40064 70522 8372/ 333 59047 70220 82708 83616 88458==
41963,2023,10,24,18,00,AAXX 24184 41963 01420 80000 10260 20250 30082 40085 70522 8252/ 333 59020 70210 82618 88458==
41963,2023,10,24,21,00,AAXX 24214 41963 01420 80000 10255 20250 30084 40087 70522 8372/ 333 59023 70210 82708 83616 88458==
41963,2023,10,25,00,00,AAXX 25004 41963 01420 80000 10255 20250 30088 40091 70522 8252/ 333 59013 70210 82618 88458==
41963,2023,10,26,06,00,AAXX 26064 41963 NIL=
41963,2023,10,26,12,00,AAXX 26124 41963 NIL=
41964,2023,10,20,00,00,AAXX 20004 41964 01950 00000 10240 20240 30117 40120 70500 333 58006 70000==
41964,2023,10,20,03,00,AAXX 20034 41964 02956 03603 10298 20240 30136 40139 333 20233 58006 70000==
41964,2023,10,20,06,00,AAXX 20064 41964 02956 00503 10329 20250 30120 40122 333 59003 70000==
41964,2023,10,20,09,00,AAXX 20094 41964 02957 00000 10331 20250 30097 40099 333 59005 70000==
41964,2023,10,20,12,00,AAXX 20124 41964 02956 00000 10270 20250 30100 40102 333 10338 59002 70000==
41964,2023,10,20,15,00,AAXX 20154 41964 01950 00000 10252 20240 30122 40124 70500 333 58004 70000==
41964,2023,10,20,18,00,AAXX 20184 41964 01950 00000 10249 20249 30123 40125 70500 333 58005 70000==
41964,2023,10,20,21,00,AAXX 20214 41964 01950 00000 10241 20241 30119 40122 70500 333 59001 70000==
41964,2023,10,21,00,00,AAXX 21004 41964 01950 00000 10238 20238 30115 40118 70500 333 59002 70000==
41964,2023,10,21,03,00,AAXX 21034 41964 02556 20502 10304 20250 30133 40136 81101 333 20231 59003 70000 81825==
41964,2023,10,21,06,00,AAXX 21064 41964 02557 50602 10327 20240 30125 40127 82130 333 58005 70000 82825 84362==
41964,2023,10,21,09,00,AAXX 21094 41964 02/57 33602 10330 20230 30100 40102 82031 333 58003 70000 82362==
41964,2023,10,21,12,00,AAXX 21124 41964 02957 00000 10277 20260 30104 40106 333 10345 58004 70000==
41964,2023,10,21,15,00,AAXX 21154 41964 02/56 30000 10263 20250 30129 40132 83030 333 58007 70000 83362==
41964,2023,10,21,18,00,AAXX 21184 41964 01/50 20000 10259 20250 30124 40127 70511 82030 333 58001 70000 82362==
41964,2023,10,21,21,00,AAXX 21214 41964 01/50 30000 10253 20253 30123 40126 70511 83030 333 58004 70000 83362==
41964,2023,10,22,00,00,AAXX 22004 41964 01556 50000 10252 20252 30122 40125 70511 81130 333 58007 70000 81825 85362==
41964,2023,10,22,03,00,AAXX 22034 41964 02957 20502 10319 20250 30133 40135 80002 333 20246 58000 70000 82080==
41964,2023,10,22,06,00,AAXX 22064 41964 02/57 53402 10331 20250 30118 40120 83012 333 59007 70000 83460 83080==
41964,2023,10,22,09,00,AAXX 22094 41964 01357 73601 10288 20230 30099 40101 70392 85310 333 59001 70000 83709 83618 86460 81928==
41964,2023,10,22,12,00,AAXX 22124 41964 01456 60000 10270 20230 30104 40106 70192 81512 333 10349 58000 70000 81618 84460 84080==
41964,2023,10,22,15,00,AAXX 22154 41964 02450 81202 10264 20240 30130 40133 8552/ 333 58001 70000 85617 88459==
41964,2023,10,23,00,00,AAXX 23004 41964 21340 80000 10260 20250 30113 40116 70562 8662/ 333 59009 60027 70019 83709 84617 88458==
41964,2023,10,23,06,00,AAXX 23064 41964 01356 80000 10280 20270 30121 40123 76162 8672/ 333 58003 70037 84708 83616 88458==
41964,2023,10,23,09,00,AAXX 23094 41964 01356 80000 10275 20270 30096 40099 70262 8562/ 333 59003 70042 84709 83617 88459==
41964,2023,10,23,12,00,AAXX 23124 41964 01340 82602 10252 20240 30107 40110 76162 8672/ 333 10282 58003 70046 84708 83616 88458==
41964,2023,10,23,15,00,AAXX 23154 41964 01350 81402 10250 20240 30115 40118 70262 8662/ 333 59015 70050 84709 83617 88459==
41964,2023,10,23,18,00,AAXX 23184 41964 11350 81401 10248 20246 30108 40111 69946 70262 8662/ 333 59015 70050 84709 83617 88459==
41964,2023,10,23,21,00,AAXX 23214 41964 02350 81401 10247 20246 30107 40110 8662/ 333 59012 70050 84709 83617 88459==
41964,2023,10,24,00,00,AAXX 24004 41964 01340 81401 10247 20245 30109 40112 76162 8672/ 333 59004 70010 84708 83617 88458==
41964,2023,10,24,03,00,AAXX 24034 41964 01340 81403 10250 20240 30114 40116 76166 8672/ 333 20239 59010 70053 84708 83616 88458==
41964,2023,10,24,06,00,AAXX 24064 41964 21340 81203 10248 20240 30085 40087 76166 8672/ 333 59036 60089 70111 84708 83616 88458==
41964,2023,10,24,09,00,AAXX 24094 41964 01335 81402 10243 20240 30072 40075 76166 8672/ 333 59024 70160 84707 83615 88458==
41964,2023,10,24,12,00,AAXX 24124 41964 21335 80903 10239 20235 30066 40069 76166 8772/ 333 10251 59041 60139 70231 85707 83615 88458==
41964,2023,10,24,15,00,AAXX 24154 41964 02350 80503 10246 20240 30066 40069 8662/ 333 59049 70227 84709 83617 88459==
41964,2023,10,24,18,00,AAXX 24184 41964 NIL=
41964,2023,10,24,21,00,AAXX 24214 41964 02345 80503 10240 20238 30077 40080 8662/ 333 59030 70227 84709 83617 88459==
41964,2023,10,25,00,00,AAXX 25004 41964 21340 80502 10235 20234 30098 40100 76162 8772/ 333 59011 60037 70247 85708 83615 88458==
41964,2023,10,26,06,00,AAXX 26064 41964 NIL=
41964,2023,10,26,12,00,AAXX 26124 41964 NIL=
41964,2023,10,26,15,00,AAXX 26154 41964 01940 00000 10252 20250 30122 40124 70500 333 58003 70000==
41964,2023,10,26,21,00,AAXX 26214 41964 01940 00000 10245 20243 30120 40122 70500 333 59004 70000==
41965,2023,10,20,00,00,AAXX 20004 41965 01940 00000 10235 20200 30128 40137 70500 333 58012 70000==
41965,2023,10,20,03,00,AAXX 20034 41965 01950 00000 10305 20190 30140 40148 70500 333 20225 58005 70000==
41965,2023,10,20,06,00,AAXX 20064 41965 01456 33101 10328 20190 30116 40125 70541 83600 333 58004 70000==
41965,2023,10,20,09,00,AAXX 20094 41965 01456 31001 10315 20190 30096 40104 70541 83600 333 58004 70000 83618==
41965,2023,10,20,12,00,AAXX 20124 41965 01450 30000 10275 20220 30098 40107 70542 83600 333 10350 59005 70000 83618==
41965,2023,10,20,15,00,AAXX 20154 41965 01940 00000 10237 20220 30123 40131 70500 333 58001 70000==
41965,2023,10,20,18,00,AAXX 20184 41965 NIL=
41965,2023,10,21,00,00,AAXX 21004 41965 01940 00000 10235 20210 30122 40131 70500 333 59006 70000==
41965,2023,10,21,03,00,AAXX 21034 41965 01950 00000 10310 20180 30137 40145 70500 333 20228 59003 70000==
41965,2023,10,21,06,00,AAXX 21064 41965 01456 50000 10340 20180 30119 40128 70541 83600 333 58004 70000 83618==
41965,2023,10,21,09,00,AAXX 21094 41965 01456 53102 10342 20200 30097 40106 70542 84410 333 58001 70000 83618 84460==
41965,2023,10,21,12,00,AAXX 21124 41965 01440 30000 10280 20220 30106 40115 70541 84410 333 10352 58008 70000 83618==
41965,2023,10,21,15,00,AAXX 21154 41965 01940 00000 10255 20210 30132 40141 70500 333 58009 70000==
41965,2023,10,22,00,00,AAXX 22004 41965 01940 00000 10240 20210 30129 40138 70500 333 58007 70000==
41965,2023,10,22,03,00,AAXX 22034 41965 01950 00802 10320 20200 30136 40145 70500 333 20235 58000 70000==
41965,2023,10,22,06,00,AAXX 22064 41965 01956 50000 10340 20200 30117 40126 70542 84410 333 59002 70000 83618 84460==
41965,2023,10,22,09,00,AAXX 22094 41965 02450 80000 10325 20220 30099 40108 8461/ 333 58002 70000 83618 84460==
41965,2023,10,22,12,00,AAXX 22124 41965 02440 80000 10260 20190 30106 40115 8461/ 333 10355 58000 70000 83618 88460==
41965,2023,10,22,15,00,AAXX 22154 41965 02440 80000 10250 20190 30134 40143 8461/ 333 58002 70000 83618 88460==
41965,2023,10,23,00,00,AAXX 23004 41965 01440 80000 10245 20210 30119 40128 72160 8461/ 333 59010 70020 81710 83618 88460==
41965,2023,10,23,03,00,AAXX 23034 41965 02450 80000 10268 20220 30127 40136 8461/ 333 20238 59009 70020 81710 83618 88460==
41965,2023,10,23,06,00,AAXX 23064 41965 01440 80000 10270 20220 30126 40135 76162 8461/ 333 58009 70020 81710 83618 88460==
41965,2023,10,23,09,00,AAXX 23094 41965 02440 80000 10270 20210 30099 40108 8461/ 333 58000 70040 83710 83618 88460==
41965,2023,10,23,12,00,AAXX 23124 41965 02440 80000 10253 20220 30106 40115 8461/ 333 10285 58000 70040 83710 83618 88460==
41965,2023,10,23,15,00,AAXX 23154 41965 02440 81802 10245 20220 30117 40126 8461/ 333 59017 70040 83710 83618 88460==
41965,2023,10,24,00,00,AAXX 24004 41965 01440 81402 10240 20210 30117 40126 76162 8462/ 333 59002 70020 81710 83618 88456==
41965,2023,10,24,03,00,AAXX 24034 41965 02440 80503 10250 20220 30119 40128 8462/ 333 20235 59008 70040 81710 83618 88460==
41965,2023,10,24,06,00,AAXX 24064 41965 21440 81302 10240 20190 30104 40113 76162 8462/ 333 59022 60067 70080 81710 83618 88456==
41965,2023,10,24,09,00,AAXX 24094 41965 01440 80000 10240 20220 30076 40085 76166 8462/ 333 59023 70014 81710 83618 88456==
41965,2023,10,24,12,00,AAXX 24124 41965 21440 83504 10235 20190 30068 40077 76366 8462/ 333 10260 59038 60139 70210 81710 83618 88460==
41965,2023,10,24,15,00,AAXX 24154 41965 02430 81805 10245 20180 30068 40077 8462/ 333 59049 70210 83710 83618 88460==
41965,2023,10,24,18,00,AAXX 24184 41965 NIL=
41965,2023,10,25,00,00,AAXX 25004 41965 01440 80000 10235 20200 30101 40110 76162 8462/ 333 59016 70060 83618 81710 88456==
41965,2023,10,25,03,00,AAXX 25034 41965 02440 80000 10245 20200 30118 40127 8462/ 333 20225 58001 70250 83618 81710 88460==
41965,2023,10,26,06,00,AAXX 26064 41965 NIL=
41965,2023,10,26,12,00,AAXX 26124 41965 NIL=
41965,2023,10,26,15,00,AAXX 26154 41965 01940 00000 10245 20210 30121 40129 70500 333 59001 70000==
41966,2023,10,20,00,00,AAXX 20004 41966 02440 50000 10236 20210 30048 40128 82510 333 58001 70000 82616 84460==
41966,2023,10,20,03,00,AAXX 20034 41966 02550 50901 10290 20210 30068 40147 82130 333 20230 58005 70000 82826 84362==
41966,2023,10,20,06,00,AAXX 20064 41966 02550 41201 10312 20180 30059 40137 82130 333 58009 70000 82826 83362==
41966,2023,10,20,09,00,AAXX 20094 41966 02950 00000 10330 20080 30022 40099 333 59019 70000==
41966,2023,10,20,12,00,AAXX 20124 41966 02930 00000 10270 20230 30034 40114 333 10336 58003 70000==
41966,2023,10,20,15,00,AAXX 20154 41966 02920 00000 10260 20230 30041 40121 333 58004 70000==
41966,2023,10,20,18,00,AAXX 20184 41966 NIL=
41966,2023,10,20,21,00,AAXX 20214 41966 02420 40000 10240 20210 30042 40122 82510 333 58003 70000 82616 83460==
41966,2023,10,21,00,00,AAXX 21004 41966 02440 40000 10232 20210 30048 40128 82510 333 58000 70000 82616 83460==
41966,2023,10,21,03,00,AAXX 21034 41966 02550 40000 10290 20210 30064 40143 82130 333 20225 59004 70000 82826 83362==
41966,2023,10,21,06,00,AAXX 21064 41966 02550 50901 10315 20170 30059 40137 82130 333 58000 70000 82826 84362==
41966,2023,10,21,09,00,AAXX 21094 41966 02550 41201 10330 20090 30032 40110 82130 333 58011 70000 82826 83362==
41966,2023,10,21,12,00,AAXX 21124 41966 02530 40000 10286 20240 30036 40114 82130 333 10336 58000 70000 82826 83362==
41966,2023,10,21,15,00,AAXX 21154 41966 02420 40000 10265 20240 30044 40124 82510 333 58003 70000 82616 83460==
41966,2023,10,21,21,00,AAXX 21214 41966 02420 60000 10250 20220 30047 40127 82540 333 58005 70000 82616 85362==
41966,2023,10,22,00,00,AAXX 22004 41966 02440 60000 10240 20220 30058 40138 82540 333 58010 70000 82616 85362==
41966,2023,10,22,06,00,AAXX 22064 41966 02450 40901 10320 20150 30056 40134 82510 333 59003 70000 82616 83460==
41966,2023,10,22,09,00,AAXX 22094 41966 02450 51201 10325 20170 30034 40112 82510 333 58002 70000 82616 84460==
41966,2023,10,22,12,00,AAXX 22124 41966 02430 70000 10250 20220 30046 40126 83510 333 10330 58012 70000 83616 86460==
41966,2023,10,22,15,00,AAXX 22154 41966 02420 60000 10250 20220 30060 40140 82510 333 58016 70000 82616 85460==
41966,2023,10,23,00,00,AAXX 23004 41966 01440 70000 10245 20220 30056 40136 72122 83510 333 59002 70030 83616 86460==
41966,2023,10,23,03,00,AAXX 23034 41966 02450 70000 10282 20240 30071 40150 83510 333 20238 58011 70026 83616 86460==
41966,2023,10,23,06,00,AAXX 23064 41966 01350 80000 10285 20260 30053 40132 70362 8472/ 333 59002 70004 82709 83615 88460==
41966,2023,10,23,09,00,AAXX 23094 41966 01350 80000 10275 20240 30035 40113 70262 8472/ 333 58001 70038 82709 83615 88460==
41966,2023,10,23,12,00,AAXX 23124 41966 01330 80901 10250 20220 30034 40114 76162 8472/ 333 10290 59012 70044 82709 83615 88460==
41966,2023,10,23,15,00,AAXX 23154 41966 01420 81201 10245 20220 30045 40125 70262 8352/ 333 59015 70054 83616 88460==
41966,2023,10,23,18,00,AAXX 23184 41966 11420 80000 10245 20220 30050 40130 60016 70262 8352/ 333 59006 70054 83616 88460==
41966,2023,10,23,21,00,AAXX 23214 41966 02330 80000 10242 20210 30044 40124 8472/ 333 59009 70054 82709 83615 88460==
41966,2023,10,24,00,00,AAXX 24004 41966 01330 80000 10245 20230 30037 40117 76162 8472/ 333 59019 70020 82709 83615 88460==
41966,2023,10,24,03,00,AAXX 24034 41966 01350 80000 10250 20220 30055 40134 72162 8472/ 333 20220 59016 70056 82709 83615 88460==
41966,2023,10,24,06,00,AAXX 24064 41966 01350 80000 10248 20220 30037 40117 76162 8472/ 333 59015 70040 82709 83615 88400==
41966,2023,10,24,09,00,AAXX 24094 41966 01350 80000 10249 20220 30008 40088 76162 8472/ 333 59025 70078 82709 83615 88460==
41966,2023,10,24,12,00,AAXX 24124 41966 01330 81201 10240 20210 30008 40088 76162 8472/ 333 10255 59026 70098 82709 83615 88460==
41966,2023,10,24,15,00,AAXX 24154 41966 01320 80000 10240 20210 30009 40089 70262 8472/ 333 59030 70098 82709 83615 88460==
41966,2023,10,24,18,00,AAXX 24184 41966 NIL=
41966,2023,10,25,00,00,AAXX 25004 41966 21330 80000 10238 20220 30019 40098 76166 8472/ 333 59019 60089 70166 82709 83615 88460==
41966,2023,10,25,03,00,AAXX 25034 41966 01340 80000 10242 20210 30048 40128 76166 8472/ 333 20230 59006 70188 82709 83615 88460==
41966,2023,10,26,06,00,AAXX 26064 41966 NIL=
41966,2023,10,26,12,00,AAXX 26124 41966 02440 40000 10270 20230 30034 40111 82510 333 10315 59007 70000 82616 83460==
41966,2023,10,26,15,00,AAXX 26154 41966 02430 40000 10265 20240 30035 40114 82510 333 59006 70000 82616 83460==
41977,2023,10,20,00,00,AAXX 20004 41977 01940 00000 10240 20240 30110 40148 70500 333 58002 70000==
41977,2023,10,20,03,00,AAXX 20034 41977 01950 00000 10297 20240 30123 40161 70500 333 20240 58008 70000==
41977,2023,10,20,06,00,AAXX 20064 41977 02956 00000 10334 20250 30092 40129 333 59011 70000==
41977,2023,10,20,09,00,AAXX 20094 41977 02/56 33102 10336 20260 30080 40117 83030 333 59005 70000 83362==
41977,2023,10,20,12,00,AAXX 20124 41977 01940 00000 10278 20260 30086 40124 70510 333 10344 59001 70000==
41977,2023,10,20,15,00,AAXX 20154 41977 01940 00000 10259 20250 30103 40142 70500 333 59002 70000==
41977,2023,10,20,18,00,AAXX 20184 41977 01940 00000 10258 20230 30104 40143 70500 333 59001 70000==
41977,2023,10,20,21,00,AAXX 20214 41977 01/40 20000 10252 20230 30106 40144 70510 82030 333 59002 70000 82362==
41977,2023,10,21,00,00,AAXX 21004 41977 01/40 20000 10247 20240 30103 40141 70510 82030 333 59007 70000 82362==
41977,2023,10,21,03,00,AAXX 21034 41977 02940 33103 10290 20240 30125 40163 80001 333 20240 58002 70000 83080==
41977,2023,10,21,06,00,AAXX 21064 41977 02456 50000 10335 20260 30109 40147 82531 333 58017 70000 82618 83362==
41977,2023,10,21,09,00,AAXX 21094 41977 02556 13602 10340 20270 30083 40121 81200 333 58003 70000 81825==
41977,2023,10,21,12,00,AAXX 21124 41977 01950 00000 10277 20250 30093 40131 70511 333 10345 58007 70000==
41977,2023,10,21,15,00,AAXX 21154 41977 01950 00000 10264 20250 30116 40154 70500 333 58013 70000==
41977,2023,10,21,18,00,AAXX 21184 41977 01950 00000 10262 20240 30107 40145 70500 333 58003 70000==
41977,2023,10,21,21,00,AAXX 21214 41977 01450 40000 10260 20250 30110 40148 70510 82530 333 58004 70000 82618 83362==
41977,2023,10,22,00,00,AAXX 22004 41977 01450 50000 10258 20258 30114 40152 70521 82530 333 58011 70000 82618 85362==
41977,2023,10,22,03,00,AAXX 22034 41977 02956 31302 10302 20250 30125 40163 80001 333 20255 58000 70000 83080==
41977,2023,10,22,06,00,AAXX 22064 41977 02456 50000 10338 20270 30105 40142 82531 333 59004 70000 82618 83362==
41977,2023,10,22,09,00,AAXX 22094 41977 02456 80000 10310 20240 30090 40128 8662/ 333 58007 70000 82712 84616 88460==
41977,2023,10,22,12,00,AAXX 22124 41977 02456 80000 10266 20250 30092 40130 8562/ 333 10345 59001 70000 82712 84616 88460==
41977,2023,10,22,15,00,AAXX 22154 41977 02456 80000 10258 20240 30119 40157 8562/ 333 58003 70000 82712 84616 88460==
41977,2023,10,22,18,00,AAXX 22184 41977 02956 30000 10252 20240 30110 40148 80001 333 58003 70000 83080==
41977,2023,10,22,21,00,AAXX 22214 41977 01350 80000 10250 20250 30107 40145 76162 8672/ 333 59003 70018 82710 84615 88460==
41977,2023,10,23,00,00,AAXX 23004 41977 21340 80000 10250 20250 30103 40141 76162 8672/ 333 59011 60039 70030 82710 84615 88460==
41977,2023,10,23,06,00,AAXX 23064 41977 01340 80000 10272 20250 30118 40157 76162 8672/ 333 58012 70020 82710 84615 88460==
41977,2023,10,23,09,00,AAXX 23094 41977 01440 80000 10264 20250 30089 40127 76166 8532/ 333 59001 70084 84614 88458 81928==
41977,2023,10,23,12,00,AAXX 23124 41977 21340 80000 10256 20250 30101 40139 76166 8732/ 333 10274 58009 60069 70110 83708 84614 88458 81928==
41977,2023,10,23,18,00,AAXX 23184 41977 21340 80000 10248 20240 30090 40124 76166 8732/ 333 59020 60039 70140 82708 84614 88458==
41977,2023,10,23,21,00,AAXX 23214 41977 01340 80000 10245 20240 30094 40133 76166 8732/ 333 59013 70132 82710 84615 88458 81928==
41977,2023,10,24,00,00,AAXX 24004 41977 21340 80000 10242 20240 30098 40137 76166 8732/ 333 59005 60029 70120 82712 84615 88458 81928==
41977,2023,10,24,03,00,AAXX 24034 41977 01340 80000 10245 20240 30107 40145 76166 8732/ 333 20237 59007 70132 82710 84615 88460 81928==
41977,2023,10,24,06,00,AAXX 24064 41977 21340 80000 10248 20248 30081 40119 76166 8672/ 333 59037 60069 70172 82710 84615 88460==
41977,2023,10,24,09,00,AAXX 24094 41977 01340 80000 10244 20240 30065 40104 76366 8732/ 333 59024 70180 83708 84615 88458 81928==
41977,2023,10,24,12,00,AAXX 24124 41977 21330 80503 10242 20240 30039 40077 76366 8732/ 333 10265 59062 60169 70272 83708 84614 88458 81928==
41977,2023,10,24,18,00,AAXX 24184 41977 21330 80000 10236 20236 30062 40100 76366 8672/ 333 59028 60019 70280 83708 85614 88458==
41977,2023,10,24,21,00,AAXX 24214 41977 01340 80000 10235 20235 30067 40105 76166 8732/ 333 59027 70320 83708 84615 88458 81928==
41977,2023,10,25,00,00,AAXX 25004 41977 21340 83602 10235 20235 30073 40111 76166 8732/ 333 59025 60139 70388 83708 84615 88458 81928==
41977,2023,10,25,03,00,AAXX 25034 41977 01340 80000 10245 20245 30101 40139 76166 8672/ 333 20232 59006 70408 82710 84615 88460==
41977,2023,10,25,09,00,AAXX 25094 41977 02457 33602 10293 20250 30081 40126 83530 333 58023 70326 83616 83365==
41977,2023,10,25,18,00,AAXX 25184 41977 01940 00000 10242 20240 30108 40146 70500 333 58046 70170==
41977,2023,10,26,00,00,AAXX 26004 41977 01450 60000 10237 20237 30106 40145 70521 82500 333 58033 70040 82618 86460==
41977,2023,10,26,06,00,AAXX 26064 41977 02450 80000 10305 20260 30118 40156 8562/ 333 58016 70000 82712 84616 88460==
41977,2023,10,26,12,00,AAXX 26124 41977 01940 00000 10270 20250 30093 40131 70521 333 10315 58001 70000==
41977,2023,10,26,21,00,AAXX 26214 41977 01950 00000 10250 20250 30100 40139 70500 333 59002 70000==
41978,2023,10,20,00,00,AAXX 20004 41978 01431 20303 10248 20240 30125 40132 70511 82500 333 58004 70000 82612==
41978,2023,10,20,03,00,AAXX 20034 41978 01950 00906 10288 20230 30139 40146 70500 333 20245 58003 70000==
41978,2023,10,20,06,00,AAXX 20064 41978 01556 13607 10326 20220 30118 40125 70500 81100 333 59002 70000 81825==
41978,2023,10,20,09,00,AAXX 20094 41978 01450 20604 10338 20220 30095 40101 70510 82500 333 59007 70000 82618==
41978,2023,10,20,12,00,AAXX 20124 41978 01940 00000 10297 20220 30101 40108 70510 333 10346 59001 70000==
41978,2023,10,20,15,00,AAXX 20154 41978 01940 00103 10272 20240 30123 40130 70500 333 58003 70000==
41978,2023,10,20,18,00,AAXX 20184 41978 01940 00204 10272 20250 30123 40130 70500 333 59001 70000==
41978,2023,10,20,21,00,AAXX 20214 41978 01935 00603 10264 20240 30116 40123 70500 333 59005 70000==
41978,2023,10,21,00,00,AAXX 21004 41978 01431 20503 10253 20230 30121 40127 70510 82500 333 58002 70000 82618==
41978,2023,10,21,03,00,AAXX 21034 41978 01/50 20605 10294 20240 30140 40146 70500 82030 333 20248 58001 70000 82365==
41978,2023,10,21,06,00,AAXX 21064 41978 01/56 40106 10333 20210 30123 40129 70500 84031 333 58005 70000 84363==
41978,2023,10,21,09,00,AAXX 21094 41978 01550 42810 10335 20210 30100 40106 70522 82101 333 58005 70000 82828 83080==
41978,2023,10,21,12,00,AAXX 21124 41978 01445 42803 10300 20220 30108 40115 70522 82530 333 10343 58007 70000 82618 83362==
41978,2023,10,21,15,00,AAXX 21154 41978 01440 20000 10279 20210 30135 40141 70521 82500 333 58012 70000 82618==
41978,2023,10,21,18,00,AAXX 21184 41978 01440 20000 10271 20230 30125 40132 70521 82500 333 58002 70000 82618==
41978,2023,10,21,21,00,AAXX 21214 41978 01440 20000 10264 20250 30113 40119 70511 82500 333 59003 70000 82618==
41978,2023,10,22,00,00,AAXX 22004 41978 01440 50000 10261 20250 30131 40137 70521 82530 333 58010 70000 82618 84362==
41978,2023,10,22,03,00,AAXX 22034 41978 01/56 30804 10314 20230 30140 40146 70500 82041 333 20258 58000 70000 82365==
41978,2023,10,22,06,00,AAXX 22064 41978 02558 63305 10340 20240 30118 40125 82132 333 59005 70000 82825 85080==
41978,2023,10,22,09,00,AAXX 22094 41978 01556 62506 10332 20246 30104 40110 70522 82130 333 58004 70000 82625 86362==
41978,2023,10,22,12,00,AAXX 22124 41978 01450 60904 10279 20220 30111 40118 70522 82520 333 10345 58003 70000 82618 86460==
41978,2023,10,22,15,00,AAXX 22154 41978 01450 60804 10265 20230 30137 40144 70522 82520 333 58002 70000 83618 86460==
41978,2023,10,22,18,00,AAXX 22184 41978 01450 60704 10260 20230 30129 40135 70522 82520 333 58004 70000 82617 86460==
41978,2023,10,22,21,00,AAXX 22214 41978 01450 70504 10255 20230 30124 40130 70522 84320 333 58011 70000 83616 87460 81930==
41978,2023,10,23,00,00,AAXX 23004 41978 21440 80205 10252 20230 30120 40126 70362 8432/ 333 59011 60068 70064 83616 88460 81928==
41978,2023,10,23,03,00,AAXX 23034 41978 01457 70204 10266 20250 30128 40135 70522 84370 333 20246 59012 70064 83618 81330 86460==
41978,2023,10,23,06,00,AAXX 23064 41978 11331 82903 10270 20250 30131 40137 60016 76161 8532/ 333 20445 58013 70074 83709 88459 81925==
41978,2023,10,23,09,00,AAXX 23094 41978 01435 83305 10265 20250 30106 40112 72162 8432/ 333 58002 70094 83616 88459 81929==
41978,2023,10,23,12,00,AAXX 23124 41978 01435 80203 10256 20250 30115 40122 76162 8432/ 333 10279 58004 70118 83616 88459 81929==
41978,2023,10,23,15,00,AAXX 23154 41978 01435 80605 10254 20240 30121 40128 70562 8432/ 333 59016 70138 83616 88460 81930==
41978,2023,10,23,18,00,AAXX 23184 41978 11440 80904 10249 20240 30112 40118 60026 70562 8432/ 333 59017 70138 83616 88459 81928==
41978,2023,10,23,21,00,AAXX 23214 41978 01440 80505 10246 20240 30106 40112 70522 8432/ 333 59018 70138 83615 88459 81929==
41978,2023,10,24,00,00,AAXX 24004 41978 21440 80705 10242 20230 30112 40118 72162 8432/ 333 59008 60028 70138 83615 88459 81929==
41978,2023,10,24,03,00,AAXX 24034 41978 01358 80805 10247 20240 30120 40127 72162 8432/ 333 20238 59008 70115 83709 88459 81925==
41978,2023,10,24,06,00,AAXX 24064 41978 01440 80506 10246 20240 30099 40105 76262 8432/ 333 59026 70175 83615 88459 81925==
41978,2023,10,24,09,00,AAXX 24094 41978 01332 80605 10245 20240 30080 40086 76166 8432/ 333 59026 70225 83709 88459 81928==
41978,2023,10,24,12,00,AAXX 24124 41978 21324 80910 10238 20230 30052 40059 76166 8432/ 333 10250 59063 60259 70382 83709 88458 81928==
41978,2023,10,24,15,00,AAXX 24154 41978 01335 80304 10243 20230 30052 40059 76166 8432/ 333 59069 70513 83709 88458 81928==
41978,2023,10,24,18,00,AAXX 24184 41978 21330 80210 10240 20230 30078 40083 76166 8432/ 333 59034 60189 70539 83709 88458 81928==
41978,2023,10,24,21,00,AAXX 24214 41978 01333 80309 10234 20230 30076 40082 76166 8433/ 333 59030 70577 83709 88458 81928==
41978,2023,10,25,00,00,AAXX 25004 41978 21332 80307 10236 20230 30087 40093 76166 8432/ 333 59025 60079 70586 83709 88458 81928==
41978,2023,10,25,03,00,AAXX 25034 41978 01324 82905 10243 20230 30121 40128 76162 8432/ 333 20233 58001 70572 83709 88458 81920==
41978,2023,10,25,06,00,AAXX 25064 41978 01450 62807 10272 20240 30118 40124 70162 84320 333 59019 70506 83618 86460 81930==
41978,2023,10,25,09,00,AAXX 25094 41978 02556 32808 10285 20230 30102 40108 83100 333 58022 70436 83828==
41978,2023,10,25,12,00,AAXX 25124 41978 01950 40000 10269 20240 30105 40111 70521 80001 333 10286 58053 70254 84080==
41978,2023,10,25,15,00,AAXX 25154 41978 01440 40000 10250 20240 30127 40133 70522 81501 333 58075 70104 81617 84080==
41978,2023,10,25,18,00,AAXX 25184 41978 01440 30000 10247 20240 30124 40130 70522 83500 333 58046 70078 83617==
41978,2023,10,25,21,00,AAXX 25214 41978 01440 30000 10242 20230 30121 40127 70511 83500 333 58045 70040 83617==
41978,2023,10,26,00,00,AAXX 26004 41978 01440 40000 10237 20230 30121 40127 70521 81501 333 58034 70010 81617 84080==
41978,2023,10,26,03,00,AAXX 26034 41978 01557 10503 10287 20240 30142 40149 70500 81100 333 20232 58021 70004 81825==
41978,2023,10,26,06,00,AAXX 26064 41978 01457 42505 10304 20230 30124 40131 70511 84800 333 58006 70000 83618==
41978,2023,10,26,09,00,AAXX 26094 41978 01550 22705 10307 20240 30102 40107 70511 333 58000 70000 82626==
41978,2023,10,26,12,00,AAXX 26124 41978 01440 52603 10286 20250 30104 40110 70521 82520 333 10317 59001 70000 82618 84460==
41978,2023,10,26,15,00,AAXX 26154 41978 01445 22805 10276 20260 30122 40129 70521 82500 333 59005 70000 82618==
41978,2023,10,26,18,00,AAXX 26184 41978 01445 23003 10264 20250 30120 40127 70511 82500 333 59004 70000 82618==
41978,2023,10,26,21,00,AAXX 26214 41978 01435 20803 10256 20250 30111 40118 70511 82500 333 59010 70000 82618==
41980,2023,10,20,00,00,AAXX 20004 41980 31940 00000 10223 20210 30012 40126 70500 333 58009 70000=
41980,2023,10,20,12,00,AAXX 20124 41980 32950 30000 10252 20220 30002 40115 83030 333 10321 56090 59001 70000 83362=
41980,2023,10,20,18,00,AAXX 20184 41980 NIL=
41980,2023,10,21,00,00,AAXX 21004 41980 32950 33602 10238 20220 30019 40132 83030 333 56090 58007 70000 83362=
41980,2023,10,21,06,00,AAXX 21064 41980 NIL=
41980,2023,10,21,12,00,AAXX 21124 41980 32950 00000 10254 20220 30009 40122 333 10344 58007 70000=
41980,2023,10,22,00,00,AAXX 22004 41980 32950 50000 10244 20230 30024 40137 85030 333 56090 58005 70000 85362=
41980,2023,10,22,06,00,AAXX 22064 41980 NIL=
41980,2023,10,22,12,00,AAXX 22124 41980 31950 50000 10248 20220 30012 40125 70192 85030 333 10324 56090 58003 70000 85362=
41980,2023,10,23,00,00,AAXX 23004 41980 11440 63602 10240 20230 30030 40144 60014 70362 84620 333 56990 58006 79995 84616 86459=
41980,2023,10,23,06,00,AAXX 23064 41980 NIL=
41980,2023,10,23,12,00,AAXX 23124 41980 11340 80000 10250 20240 30008 40121 60033 76166 8662/ 333 10322 56999 59004 70035 82709 84614 88456=
41980,2023,10,24,00,00,AAXX 24004 41980 11340 80000 10232 20230 30007 40120 60057 76166 8662/ 333 56999 59023 70080 82709 84614 88456=
41980,2023,10,24,12,00,AAXX 24124 41980 11340 80502 10232 20220 39967 40080 60179 76366 8662/ 333 10252 56199 59041 70280 83709 84614 88456=
41980,2023,10,24,18,00,AAXX 24184 41980 NIL=
41980,2023,10,25,00,00,AAXX 25004 41980 NIL=
41980,2023,10,26,06,00,AAXX 26064 41980 NIL=
41980,2023,10,26,12,00,AAXX 26124 41980 NIL=
41984,2023,10,20,00,00,AAXX 20004 41984 01956 00000 10240 20230 30121 40123 70500 333 58016 70000==
41984,2023,10,20,03,00,AAXX 20034 41984 01956 00000 10281 20230 30138 40140 70500 333 20235 58013 70000==
41984,2023,10,20,06,00,AAXX 20064 41984 01956 00000 10311 20250 30124 40126 70500 333 58004 70000==
41984,2023,10,20,09,00,AAXX 20094 41984 02957 00000 10320 20230 30094 40096 333 59003 70000==
41984,2023,10,20,12,00,AAXX 20124 41984 02956 00000 10280 20260 30094 40097 333 10326 59002 70000==
41984,2023,10,20,15,00,AAXX 20154 41984 01940 00000 10247 20240 30122 40124 70500 333 58007 70000==
41984,2023,10,20,18,00,AAXX 20184 41984 01940 00000 10240 20240 30120 40122 70500 333 58006 70000==
41984,2023,10,20,21,00,AAXX 20214 41984 01940 00000 10230 20230 30115 40117 70500 333 59002 70000==
41984,2023,10,21,00,00,AAXX 21004 41984 01956 00000 10230 20230 30112 40114 70500 333 59009 70000==
41984,2023,10,21,03,00,AAXX 21034 41984 01957 00000 10284 20230 30135 40137 70500 333 20220 59003 70000==
41984,2023,10,21,06,00,AAXX 21064 41984 02957 00000 10314 20240 30120 40122 333 59004 70000==
41984,2023,10,21,09,00,AAXX 21094 41984 02958 03602 10320 20240 30100 40102 333 58006 70000==
41984,2023,10,21,12,00,AAXX 21124 41984 01956 00000 10281 20260 30103 40106 70500 333 10327 58009 70000==
41984,2023,10,21,15,00,AAXX 21154 41984 01940 00000 10266 20260 30126 40128 70500 333 58004 70000==
41984,2023,10,21,18,00,AAXX 21184 41984 01940 00000 10252 20250 30120 40122 70500 333 58000 70000==
41984,2023,10,21,21,00,AAXX 21214 41984 01940 00000 10243 20240 30119 40121 70500 333 58004 70000==
41984,2023,10,22,00,00,AAXX 22004 41984 01956 00000 10237 20230 30115 40117 70500 333 58003 70000==
41984,2023,10,22,03,00,AAXX 22034 41984 01456 20000 10289 20240 30132 40134 70500 82500 333 20232 59003 70000 82618==
41984,2023,10,22,06,00,AAXX 22064 41984 02457 30000 10320 20260 30120 40122 83500 333 58000 70000 83618==
41984,2023,10,22,09,00,AAXX 22094 41984 02457 60000 10313 20260 30099 40102 83510 333 59001 70000 83618 85458==
41984,2023,10,22,12,00,AAXX 22124 41984 02456 60000 10282 20260 30101 40104 83510 333 10330 59002 70000 83618 85458==
41984,2023,10,22,15,00,AAXX 22154 41984 02440 60000 10264 20250 30123 40125 83510 333 59003 70000 83618 85458==
41984,2023,10,22,18,00,AAXX 22184 41984 01440 60000 10264 20260 30120 40122 70522 83510 333 58000 70000 83618 85458==
41984,2023,10,22,21,00,AAXX 22214 41984 01440 80000 10260 20250 30113 40115 70522 8352/ 333 59006 70000 83618 88458==
41984,2023,10,23,00,00,AAXX 23004 41984 01456 80000 10258 20250 30108 40110 70522 8352/ 333 59007 70000 83618 88458==
41984,2023,10,23,06,00,AAXX 23064 41984 11456 80000 10268 20250 30114 40116 60006 70562 8352/ 333 59006 83618 88458==
41984,2023,10,23,09,00,AAXX 23094 41984 41456 80000 10266 20250 30087 40089 70522 8352/ 333 59012 83618 88458==
41984,2023,10,23,12,00,AAXX 23124 41984 21356 80000 10250 20250 30099 40101 76162 8672/ 333 10276 59002 60017 70005 82707 84616 88456==
41984,2023,10,23,15,00,AAXX 23154 41984 01340 80000 10250 20250 30106 40108 76166 8672/ 333 59017 70045 82707 84616 88456==
41984,2023,10,23,18,00,AAXX 23184 41984 21340 80000 10250 20250 30097 40099 76166 8672/ 333 59023 60069 70069 82707 84616 88456==
41984,2023,10,23,21,00,AAXX 23214 41984 01340 80404 10252 20250 30088 40091 76366 8672/ 333 59025 70109 82707 84616 88456==
41984,2023,10,24,00,00,AAXX 24004 41984 21356 80405 10254 20250 30083 40086 76166 8672/ 333 59025 60099 70159 82707 84616 88456==
41984,2023,10,24,03,00,AAXX 24034 41984 01356 80404 10250 20250 30084 40086 76366 8672/ 333 20240 59023 70239 82707 84616 88456==
41984,2023,10,24,06,00,AAXX 24064 41984 21356 83605 10251 20250 30078 40080 76366 8672/ 333 59036 60149 70299 82707 84616 88456==
41984,2023,10,24,09,00,AAXX 24094 41984 01456 83604 10254 20240 30055 40057 70262 8352/ 333 59032 70335 83618 88458==
41984,2023,10,24,12,00,AAXX 24124 41984 11450 83603 10251 20240 30058 40060 60046 70262 8352/ 333 10256 59041 70330 83618 88458==
41984,2023,10,24,15,00,AAXX 24154 41984 02440 83102 10250 20240 30075 40077 8352/ 333 59031 70290 83618 88458==
41984,2023,10,24,18,00,AAXX 24184 41984 02440 80000 10247 20240 30080 40082 8352/ 333 59017 70266 83618 88458==
41984,2023,10,24,21,00,AAXX 24214 41984 02440 83102 10249 20240 30079 40081 8352/ 333 59009 70226 83618 88458==
41984,2023,10,25,00,00,AAXX 25004 41984 02456 80000 10250 20250 30091 40093 8352/ 333 58008 70176 83618 88458==
41984,2023,10,25,03,00,AAXX 25034 41984 02457 50000 10280 20240 30117 40119 82530 333 20240 58023 70096 82618 83362==
41984,2023,10,25,12,00,AAXX 25124 41984 02456 50000 10276 20260 30094 40096 83510 333 10326 58036 70000 83618 85458==
41984,2023,10,25,15,00,AAXX 25154 41984 01425 20000 10250 20240 30120 40123 70511 82500 333 58086 70470 82618==
41984,2023,10,25,18,00,AAXX 25184 41984 02440 50000 10250 20250 30110 40112 82530 333 58030 70000 82618 83458==
41984,2023,10,26,06,00,AAXX 26064 41984 NIL=
41984,2023,10,26,12,00,AAXX 26124 41984 NIL=
41984,2023,10,26,15,00,AAXX 26154 41984 01440 50000 10256 20256 30115 40117 70522 83510 333 58004 70000 83618 85458==
41984,2023,10,26,21,00,AAXX 26214 41984 01440 50000 10240 20240 30105 40107 70522 83510 333 58000 70000 83618 85458==
41989,2023,10,20,00,00,AAXX 20004 41989 01415 21803 10240 20220 30111 40114 70521 82500 333 58007 70000 82618==
41989,2023,10,20,06,00,AAXX 20064 41989 02456 23204 10321 20250 30119 40122 83500 333 59012 70000 82618==
41989,2023,10,20,09,00,AAXX 20094 41989 02450 31802 10320 20240 30098 40101 83500 333 59004 70000 83618==
41989,2023,10,20,12,00,AAXX 20124 41989 02450 31402 10300 20250 30095 40098 83500 333 10330 58000 70000 83618==
41989,2023,10,20,15,00,AAXX 20154 41989 02450 21302 10267 20250 30113 40116 82500 333 58007 70000 82618==
41989,2023,10,20,18,00,AAXX 20184 41989 01440 20000 10263 20240 30120 40124 70521 82500 333 59001 70000 82618==
41989,2023,10,20,21,00,AAXX 20214 41989 01440 10000 10260 20240 30115 40118 70511 81500 333 58001 70000 81618==
41989,2023,10,21,00,00,AAXX 21004 41989 01440 13102 10252 20230 30114 40117 70511 81500 333 58000 70000 81618==
41989,2023,10,21,03,00,AAXX 21034 41989 02456 23103 10294 20240 30134 40137 82500 333 20242 58009 70000 82618==
41989,2023,10,21,06,00,AAXX 21064 41989 02456 13204 10321 20240 30131 40134 81500 333 58003 70000 81518==
41989,2023,10,21,09,00,AAXX 21094 41989 02456 13104 10332 20230 30104 40107 81500 333 58007 70000 81618==
41989,2023,10,21,12,00,AAXX 21124 41989 02456 13102 10298 20250 30096 40099 81500 333 10336 58001 70000 81618==
41989,2023,10,21,15,00,AAXX 21154 41989 02440 20000 10267 20250 30124 40128 82500 333 58011 70000 82618==
41989,2023,10,21,18,00,AAXX 21184 41989 01440 20000 10264 20240 30132 40135 70511 82500 333 58012 70000 82618==
41989,2023,10,21,21,00,AAXX 21214 41989 41440 30000 10265 20250 30127 40130 70511 83618 333 58012 83618==
41989,2023,10,22,00,00,AAXX 22004 41989 01430 40000 10262 20250 30123 40126 70521 82530 333 58009 70000 82618 84362==
41989,2023,10,22,03,00,AAXX 22034 41989 02456 41802 10302 20260 30139 40142 83530 333 20250 58005 70000 82618 84362==
41989,2023,10,22,06,00,AAXX 22064 41989 02456 53104 10325 20240 30129 40132 82570 333 58001 70000 82618 83362==
41989,2023,10,22,09,00,AAXX 22094 41989 02450 61902 10307 20240 30101 40104 83570 333 59003 70000 83618 84460==
41989,2023,10,22,12,00,AAXX 22124 41989 02450 51702 10294 20250 30095 40098 82530 333 10332 59001 70000 82618 84362==
41989,2023,10,22,15,00,AAXX 22154 41989 02450 43102 10266 20250 30125 40128 83530 333 58001 70000 83618==
41989,2023,10,22,21,00,AAXX 22214 41989 01330 81806 10256 20250 30128 40131 79522 8592/ 333 58001 70130 82709 83614 89130 88456==
41989,2023,10,23,00,00,AAXX 23004 41989 21440 71703 10250 20240 30124 40127 70196 83570 333 59009 60235 70230 83618 84460==
41989,2023,10,23,03,00,AAXX 23034 41989 02460 62802 10285 20260 30131 40134 82570 333 20245 59008 70230 82618 84460==
41989,2023,10,23,06,00,AAXX 23064 41989 11450 71402 10277 20250 30132 40135 60006 72122 83570 333 58003 70230 83618 85460==
41989,2023,10,23,09,00,AAXX 23094 41989 01440 71302 10260 30106 40109 70262 82570 333 58005 70250 82618 85460==
41989,2023,10,23,12,00,AAXX 23124 41989 01440 81802 10257 20250 30104 40107 70362 8352/ 333 10287 58009 70270 82618 88458==
41989,2023,10,23,15,00,AAXX 23154 41989 01440 71702 10250 20240 30129 40122 70162 83570 333 59006 70270 83618 85460==
41989,2023,10,23,21,00,AAXX 23214 41989 02440 61402 10250 20230 30122 40126 82570 333 59006 70140 82618 84460==
41989,2023,10,24,00,00,AAXX 24004 41989 01330 81804 10243 20230 30106 40110 76222 8572/ 333 59008 70070 82710 83614 88456==
41989,2023,10,24,03,00,AAXX 24034 41989 01440 71803 10251 20240 30121 40125 70162 83570 333 20235 59010 70160 83618 85460==
41989,2023,10,24,09,00,AAXX 24094 41989 01330 81305 10241 20240 30058 40062 76266 8572/ 333 59048 70340 82710 83614 88456==
41989,2023,10,24,12,00,AAXX 24124 41989 21330 81406 10236 20230 30047 40050 76166 8572/ 333 10252 59057 60149 70360 82710 83614 88456==
41989,2023,10,24,15,00,AAXX 24154 41989 01330 81318 10238 20240 30034 40036 76366 8572/ 333 59085 70840 82708 83614 88456==
41989,2023,10,24,18,00,AAXX 24184 41989 NIL=
41989,2023,10,25,00,00,AAXX 25004 41989 02440 51805 10253 20230 30091 40094 82570 333 59015 71240 82618 83362==
41989,2023,10,25,15,00,AAXX 25154 41989 01425 20000 10250 20240 30120 40123 70511 82500 333 58086 70470 82618==
41989,2023,10,26,00,00,AAXX 26004 41989 01415 10000 10234 20220 30111 40119 71011 81500 333 58020 70000 81618==
41989,2023,10,26,06,00,AAXX 26064 41989 02450 23204 10312 20230 30124 40128 82500 333 58008 70000 82618==
41989,2023,10,26,12,00,AAXX 26124 41989 02450 13102 10282 20230 30097 40100 81500 333 10315 58005 70000 81618==
41992,2023,10,20,00,00,AAXX 20004 41992 01425 60000 10255 20240 30129 40131 70522 84530 333 58011 70000 84615 86360==
41992,2023,10,20,03,00,AAXX 20034 41992 01930 00902 10295 20240 30141 40143 70500 333 20245 58003 70000==
41992,2023,10,20,06,00,AAXX 20064 41992 01940 01505 10330 20210 30127 40129 70500 333 58003 70000==
41992,2023,10,20,09,00,AAXX 20094 41992 01940 01505 10330 20230 30099 40101 70500 333 58006 70000==
41992,2023,10,20,12,00,AAXX 20124 41992 01930 00000 10290 20240 30104 40106 70500 333 10350 59002 70000==
41992,2023,10,20,15,00,AAXX 20154 41992 01425 20000 10285 20250 30126 40128 70510 82500 333 58001 70000 82616==
41992,2023,10,20,18,00,AAXX 20184 41992 01420 50000 10275 20250 30131 40133 70521 84530 333 58001 70000 84615 85360==
41992,2023,10,20,21,00,AAXX 20214 41992 01420 60000 10265 20250 30125 40127 70522 84530 333 59001 70000 84615 86360==
41992,2023,10,21,00,00,AAXX 21004 41992 01425 60000 10265 20250 30121 40123 70522 84530 333 59008 70000 84615 86360==
41992,2023,10,21,03,00,AAXX 21034 41992 01/30 20000 10306 20255 30140 40142 70521 82030 333 20252 59001 70000 82362==
41992,2023,10,21,06,00,AAXX 21064 41992 01/45 10000 10339 20220 30125 40127 70521 81030 333 59002 70000 81362==
41992,2023,10,21,09,00,AAXX 21094 41992 01940 21505 10352 20240 30104 40106 70521 82001 333 58005 70000 82080==
41992,2023,10,21,12,00,AAXX 21124 41992 01430 41502 10305 20240 30118 40120 70522 82530 333 10360 58014 70000 82615 84360==
41992,2023,10,21,15,00,AAXX 21154 41992 01425 40000 10275 20250 30140 40142 70522 83530 333 58014 70000 83616 84360==
41992,2023,10,21,18,00,AAXX 21184 41992 01420 60000 10270 20240 30136 40138 70522 84530 333 58005 70000 84615 86360==
41992,2023,10,21,21,00,AAXX 21214 41992 01420 60000 10265 20250 30131 40133 70522 84530 333 58006 70000 84615 86360==
41992,2023,10,22,00,00,AAXX 22004 41992 01420 60000 10265 20250 30126 40128 70522 84530 333 58005 70000 84615 86360==
41992,2023,10,22,03,00,AAXX 22034 41992 01/30 60000 10307 20250 30142 40144 70521 86030 333 20258 58002 70000 86362==
41992,2023,10,22,06,00,AAXX 22064 41992 01430 70000 10317 20250 30126 40128 70521 83530 333 58001 70000 83616 87362==
41992,2023,10,22,09,00,AAXX 22094 41992 01430 81504 10315 20250 30110 40112 70522 8452/ 333 58006 70000 84615 88460==
41992,2023,10,22,12,00,AAXX 22124 41992 01425 81502 10295 20250 30118 40120 70522 8532/ 333 10325 58000 70000 84615 88460 81925==
41992,2023,10,22,15,00,AAXX 22154 41992 01420 80000 10280 20250 30141 40143 70522 8452/ 333 58001 70000 84615 88460==
41992,2023,10,22,18,00,AAXX 22184 41992 01420 80000 10275 20250 30136 40138 75122 8452/ 333 58000 70000 84615 88460==
41992,2023,10,22,21,00,AAXX 22214 41992 01420 80000 10270 20250 30131 40133 72165 8452/ 333 58000 70020 84615 86360==
41992,2023,10,23,00,00,AAXX 23004 41992 21420 61506 10258 20250 30122 40124 70562 84530 333 59002 60029 70020 84615 86360==
41992,2023,10,23,03,00,AAXX 23034 41992 01430 73608 10284 20240 30133 40135 70522 83530 333 20255 70020 83616 87360==
41992,2023,10,23,06,00,AAXX 23064 41992 21325 83603 10282 20250 30126 40128 76165 8592/ 333 58000 60017 70030 82708 84614 88458 81925==
41992,2023,10,23,09,00,AAXX 23094 41992 01325 83604 10265 20250 30107 40109 75165 8592/ 333 59003 70040 82708 84614 88458 81925==
41992,2023,10,23,12,00,AAXX 23124 41992 21320 83305 10250 20240 30116 40118 76165 8592/ 333 10285 59002 60039 70060 82708 84614 88458 81925==
41992,2023,10,23,15,00,AAXX 23154 41992 01320 80903 10250 20240 30118 40120 75165 8592/ 333 59023 70070 82708 84614 88458 81925==
41992,2023,10,23,18,00,AAXX 23184 41992 01320 80904 10245 20230 30110 40112 70565 8592/ 333 59026 70010 82708 84614 88458 81925==
41992,2023,10,23,21,00,AAXX 23214 41992 01320 80903 10242 20220 30104 40106 76166 8592/ 333 59027 70130 82708 84614 88458 81925==
41992,2023,10,24,00,00,AAXX 24004 41992 21320 81502 10240 20230 30114 40116 76366 8592/ 333 59008 60289 70330 82708 84614 88458 81925==
41992,2023,10,24,03,00,AAXX 24034 41992 01325 80405 10240 20230 30113 40115 76166 8592/ 333 20235 59020 70500 83608 84614 88458 81925==
41992,2023,10,24,06,00,AAXX 24064 41992 21325 80506 10244 20230 30084 40086 76166 8592/ 333 59042 60209 70520 83708 84616 88458 81925==
41992,2023,10,24,09,00,AAXX 24094 41992 01325 83606 10242 20240 30056 40058 76366 8692/ 333 59051 70590 82708 84614 88458 81925==
41992,2023,10,24,12,00,AAXX 24124 41992 21320 80306 10245 20240 30037 40039 76366 8692/ 333 10250 59079 60169 70650 82708 84614 88458 81925==
41992,2023,10,24,15,00,AAXX 24154 41992 01320 81511 10250 20250 30039 40041 76166 8692/ 333 59079 71350 82708 84614 88458 81925==
41992,2023,10,24,18,00,AAXX 24184 41992 01320 81505 10260 20240 30076 40078 70562 8592/ 333 59034 70720 82708 84614 88458 81925==
41992,2023,10,25,00,00,AAXX 25004 41992 NIL=
41992,2023,10,25,06,00,AAXX 25064 41992 01430 50000 10304 20250 30118 40120 70522 83530 333 58034 70880 83616 85362==
41992,2023,10,25,09,00,AAXX 25094 41992 01430 42704 10305 20250 30113 40115 70521 82530 333 58057 70800 82616 84362==
41992,2023,10,25,12,00,AAXX 25124 41992 01425 62703 10275 20240 30112 40114 70522 84530 333 10310 58075 70720 84615 86360==
41992,2023,10,25,15,00,AAXX 25154 41992 01425 60000 10260 20230 30122 40124 70522 84530 333 58083 70010 81615 83460==
41992,2023,10,25,18,00,AAXX 25184 41992 01425 60000 10250 20230 30126 40128 70522 84530 333 58050 70000 84616 86362==
41992,2023,10,25,21,00,AAXX 25214 41992 01420 60000 10245 20230 30123 40125 70522 84530 333 58042 70000 84616 86362==
41992,2023,10,26,00,00,AAXX 26004 41992 01425 50000 10240 20220 30126 40128 70521 84530 333 58028 70000 84616 85362==
41992,2023,10,26,06,00,AAXX 26064 41992 01435 50000 10314 20220 30126 40128 70521 83530 333 58008 70000 83616 85362==
41992,2023,10,26,09,00,AAXX 26094 41992 01435 30000 10315 20240 30121 40123 70521 83500 333 58008 70000 82618==
41992,2023,10,26,12,00,AAXX 26124 41992 01425 30000 10280 20230 30120 40122 70521 83510 333 10325 58007 70000 83616==
41992,2023,10,26,15,00,AAXX 26154 41992 01425 50000 10260 20230 30124 40126 70521 84530 333 58002 70000 84616 85362==
41992,2023,10,26,18,00,AAXX 26184 41992 01420 60000 10255 20230 30128 40130 70522 84530 333 58002 70000 84616 86362==
41992,2023,10,26,21,00,AAXX 26214 41992 01425 60000 10248 20230 30124 40126 70522 84530 333 59002 70000 84616 86362==
41998,2023,10,20,00,00,AAXX 20004 41998 02956 00000 10260 20250 30123 40129 333 58007 70000==
41998,2023,10,20,03,00,AAXX 20034 41998 02956 00000 10299 20250 30113 40119 333 20257 58018 70000==
41998,2023,10,20,09,00,AAXX 20094 41998 02956 01201 10314 20240 30081 40087 333 59016 70000==
41998,2023,10,20,12,00,AAXX 20124 41998 02956 00000 10281 20240 30096 40102 333 10334 59009 70000==
41998,2023,10,20,15,00,AAXX 20154 41998 02956 00000 10274 20250 30111 40117 333 59008 70000==
41998,2023,10,20,18,00,AAXX 20184 41998 NIL=
41998,2023,10,20,21,00,AAXX 20214 41998 02956 00000 10265 20260 30113 40119 333 58002 70000==
41998,2023,10,21,00,00,AAXX 21004 41998 02956 00000 10258 20250 30120 40126 333 59003 70000==
41998,2023,10,21,03,00,AAXX 21034 41998 02956 00000 10290 20260 30115 40121 333 20253 58002 70000==
41998,2023,10,21,06,00,AAXX 21064 41998 NIL=
41998,2023,10,21,09,00,AAXX 21094 41998 02956 02702 10314 20250 30088 40094 333 58007 70000==
41998,2023,10,21,12,00,AAXX 21124 41998 02956 00000 10279 20240 30116 40122 333 10335 58020 70000==
41998,2023,10,21,18,00,AAXX 21184 41998 02956 00000 10271 20250 30133 40139 333 58016 70000==
41998,2023,10,22,00,00,AAXX 22004 41998 NIL=
41998,2023,10,22,03,00,AAXX 22034 41998 02956 00000 10300 20270 30120 40126 333 20257 58005 70000==
41998,2023,10,22,06,00,AAXX 22064 41998 02456 80000 10305 20260 30104 40110 8342/ 333 58002 70000 82618 83458==
41998,2023,10,22,09,00,AAXX 22094 41998 02456 62503 10308 20260 30076 40082 83470 333 59012 70000 82618 84458==
41998,2023,10,22,12,00,AAXX 22124 41998 02956 80000 10283 20240 30095 40101 8342/ 333 10313 59021 70000 83618 88458==
41998,2023,10,23,00,00,AAXX 23004 41998 NIL=
41998,2023,10,23,03,00,AAXX 23034 41998 02456 80000 10289 20250 30106 40112 8342/ 333 20250 59014 70070 82618 83458==
41998,2023,10,23,06,00,AAXX 23064 41998 02456 80000 10280 20260 30097 40103 8342/ 333 58007 70070 83618 88458==
41998,2023,10,23,09,00,AAXX 23094 41998 01456 80000 10287 20260 30075 40081 70262 8442/ 333 59001 70080 83618 88458==
41998,2023,10,23,12,00,AAXX 23124 41998 01456 80000 10261 20250 30092 40098 76162 8342/ 333 10304 59003 70110 83618 88458==
41998,2023,10,23,15,00,AAXX 23154 41998 02456 80000 10258 20250 30103 40109 8342/ 333 59007 70110 83628 88458==
41998,2023,10,23,18,00,AAXX 23184 41998 21456 80000 10255 20250 30109 40115 76162 8342/ 333 59006 60037 70100 82616 88456==
41998,2023,10,23,21,00,AAXX 23214 41998 01456 80000 10250 20250 30107 40113 76366 8352/ 333 59006 70330 83616 88456==
41998,2023,10,24,00,00,AAXX 24004 41998 21456 80000 10240 20240 30116 40122 76366 8352/ 333 59005 60549 70620 83616 88456==
41998,2023,10,24,03,00,AAXX 24034 41998 01456 82102 10270 20250 30093 40099 76166 8342/ 333 20235 59013 70680 83616 88456==
41998,2023,10,24,06,00,AAXX 24064 41998 21456 82204 10278 20240 30073 40079 72162 8442/ 333 59024 60095 70710 83618 88458==
41998,2023,10,24,09,00,AAXX 24094 41998 01456 82112 10262 20250 30055 40061 76166 8442/ 333 59020 70820 83616 88456==
41998,2023,10,24,12,00,AAXX 24124 41998 21456 82209 10258 20250 30037 40043 76166 8342/ 333 10287 59055 60209 70870 82616 88456==
41998,2023,10,24,15,00,AAXX 24154 41998 01456 80000 10255 20250 30059 40065 76166 8352/ 333 59044 70970 83626 88456==
41998,2023,10,24,18,00,AAXX 24184 41998 NIL=
41998,2023,10,25,00,00,AAXX 25004 41998 02456 80000 10246 20240 30080 40086 8342/ 333 59036 70420 83618 88458==
41998,2023,10,26,00,00,AAXX 26004 41998 01950 00000 10235 20230 30134 40140 70500 333 58054 70000==
41998,2023,10,26,06,00,AAXX 26064 41998 NIL=
41998,2023,10,26,12,00,AAXX 26124 41998 NIL=
