ESTACION,ANO,MES,DIA,HORA,MINUTO,PARTE
41850,2024,06,21,00,00,AAXX 21004 41850 31440 60000 10249 20240 39980 40079 70522 83510 333 56990 58020 70030 83618 86458=
41850,2024,06,21,06,00,AAXX 21064 41850 32456 40000 10300 20250 39986 40083 82510 333 56990 58009 70000 82618 84458=
41850,2024,06,21,12,00,AAXX 21124 41850 32456 31306 10323 20240 39944 40040 83500 333 10340 56900 59002 70000 83618=
41850,2024,06,21,18,00,AAXX 21184 41850 31430 60904 10280 20270 39970 40067 70522 82510 333 56990 58001 70000 82618 86458=
41850,2024,06,22,00,00,AAXX 22004 41850 31430 30000 10270 20260 39970 40068 70511 83500 333 56900 59005 70000 83618=
41850,2024,06,22,06,00,AAXX 22064 41850 32456 60000 10312 20240 39982 40079 83510 333 56990 59004 70000 83618 86458=
41850,2024,06,22,12,00,AAXX 22124 41850 32456 40000 10325 20250 39944 40040 82510 333 10342 56990 58000 70000 82618 84458=
41850,2024,06,22,18,00,AAXX 22184 41850 31445 20000 10279 20260 39982 40080 70521 82500 333 56900 58012 70000 82618=
41850,2024,06,23,00,00,AAXX 23004 41850 31450 50000 10274 20260 39991 40089 70522 82510 333 56990 58021 70000 82618 85458=
41850,2024,06,23,06,00,AAXX 23064 41850 32457 20902 10337 20240 39984 40080 82500 333 56900 58002 70000 82618=
41850,2024,06,23,12,00,AAXX 23124 41850 32456 20000 10324 20250 39946 40042 82500 333 10357 56900 58002 70000 82618=
41850,2024,06,23,18,00,AAXX 23184 41850 31445 00000 10286 20280 39914 40011 70510 333 59068 70000=
41850,2024,06,24,00,00,AAXX 24004 41850 31450 50000 10275 20260 39918 40015 70521 82510 333 56990 59073 70000 82618 85458=
41850,2024,06,24,06,00,AAXX 24064 41850 32457 50502 10337 20260 39914 40009 82510 333 56990 59070 70000 82618 85458=
41850,2024,06,24,12,00,AAXX 24124 41850 11450 80000 10283 20260 39884 49981 60154 72162 8352/ 333 10349 56999 59062 70150 83618 88458=
41850,2024,06,24,18,00,AAXX 24184 41850 NIL=
41850,2024,06,25,00,00,AAXX 25004 41850 11330 80000 10257 20250 39907 40005 60114 76162 8572/ 333 56999 59011 70260 83708 84615 88458=
41850,2024,06,25,06,00,AAXX 25064 41850 11440 80000 10280 20260 39925 40022 60088 70562 8452/ 333 56999 58011 70340 84616 88458=
41850,2024,06,25,12,00,AAXX 25124 41850 32456 20000 10306 20270 39882 49978 82500 333 10309 56900 59002 70190 82618=
41850,2024,06,26,00,00,AAXX 26004 41850 11330 80000 10255 20255 39911 40009 60774 76296 8572/ 333 56999 58004 70850 82707 84614 88458=
41850,2024,06,26,06,00,AAXX 26064 41850 31450 83604 10273 20250 39921 40018 60228 70562 8452/ 333 56999 59004 70990 84617 88458=
41850,2024,06,26,12,00,AAXX 26124 41850 32456 20000 10318 20270 39895 49991 82500 333 10325 56900 58013 70990 82618=
41850,2024,06,26,18,00,AAXX 26184 41850 NIL=
41850,2024,06,27,00,00,AAXX 27004 41850 31450 80000 10275 20260 39936 40033 70521 8352/ 333 56999 58025 70220 83618 88458=
41850,2024,06,27,06,00,AAXX 27064 41850 32456 70904 10299 20260 39938 40035 82520 333 56990 58017 70000 82618 87458=
41850,2024,06,27,12,00,AAXX 27124 41850 32456 20000 10310 20260 39913 40009 82500 333 10327 56900 58018 70000 82618=
41850,2024,06,27,18,00,AAXX 27184 41850 31445 20000 10280 20260 39932 40029 70511 82500 333 56900 58021 70000 82618=
41851,2024,06,21,00,00,AAXX 21004 41851 32450 50901 10255 20250 39955 40018 82530 333 56990 58012 70080 82618 84362=
41851,2024,06,21,06,00,AAXX 21064 41851 32450 50000 10313 20250 39963 40024 83510 333 56990 58007 70000 83618 85459=
41851,2024,06,21,12,00,AAXX 21124 41851 32450 20902 10325 20270 39921 49982 82500 333 10340 56900 59003 70000 82618=
41851,2024,06,21,18,00,AAXX 21184 41851 32450 10000 10284 20270 39957 40019 81500 333 56900 59005 70000 81618=
41851,2024,06,22,00,00,AAXX 22004 41851 32450 80000 10280 20270 39949 40011 8352/ 333 56999 59006 70000 83618 88458=
41851,2024,06,22,06,00,AAXX 22064 41851 32450 50901 10335 20270 39956 40017 83430 333 56990 59007 70000 82618 84362=
41851,2024,06,22,12,00,AAXX 22124 41851 32450 51501 10312 20260 39930 49991 82510 333 10348 56990 58009 70000 82618 84459=
41851,2024,06,22,18,00,AAXX 22184 41851 32950 00000 10280 20270 39966 40028 333 58009 70000=
41851,2024,06,23,00,00,AAXX 23004 41851 31450 80000 10276 20270 39969 40032 70520 8352/ 333 56999 58020 70000 83618 88458=
41851,2024,06,23,06,00,AAXX 23064 41851 32450 61501 10330 20270 39962 40023 83410 333 56990 58006 70000 82618 84459=
41851,2024,06,23,12,00,AAXX 23124 41851 32450 41501 10345 20250 39927 49978 83430 333 10356 56990 59003 70000 82618=
41851,2024,06,23,18,00,AAXX 23184 41851 32450 80000 10298 20290 39951 40013 8352/ 333 56999 59015 70000 83618 88458=
41851,2024,06,24,00,00,AAXX 24004 41851 31450 80000 10272 20250 39950 40012 70292 8352/ 333 56999 59015 70000 83618 88458=
41851,2024,06,24,06,00,AAXX 24064 41851 32450 71801 10330 20270 39947 40008 83520 333 56990 59015 70000 83618 87458=
41851,2024,06,24,12,00,AAXX 24124 41851 32450 80000 10330 20280 39917 49978 8352/ 333 10355 56999 59010 70000 83618 88458=
41851,2024,06,24,18,00,AAXX 24184 41851 32450 70000 10290 20270 39947 40009 83520 333 56990 59004 70000 83618 87458=
41851,2024,06,25,00,00,AAXX 25004 41851 31350 80000 10290 20280 39940 40002 71722 8352/ 333 56999 58010 70000 81709 83616 81930 88458=
41851,2024,06,25,06,00,AAXX 25064 41851 11450 80902 10286 20270 39960 40022 69926 70296 8352/ 333 56999 58013 70002 83618 88458=
41851,2024,06,25,12,00,AAXX 25124 41851 32450 60902 10315 20280 39917 49978 83510 333 10330 56990 58000 70002 83618 85459=
41851,2024,06,25,18,00,AAXX 25184 41851 32450 50902 10288 20270 39956 40018 82510 333 56990 58009 70002 82618 84459=
41851,2024,06,26,00,00,AAXX 26004 41851 11450 80902 10270 20260 39951 40013 60507 79596 8352/ 333 56999 58011 70502 83618 88458=
41851,2024,06,26,06,00,AAXX 26064 41851 11450 80902 10312 20260 39963 40024 60056 70296 8352/ 333 56999 58003 70545 83618 88458=
41851,2024,06,26,12,00,AAXX 26124 41851 32450 50000 10331 20270 39932 49993 83510 333 10335 56990 58015 70545 83618 84459=
41851,2024,06,26,18,00,AAXX 26184 41851 32450 50000 10288 20280 39978 40040 83510 333 56990 58022 70545 83618 84459=
41851,2024,06,27,00,00,AAXX 27004 41851 32450 60902 10272 20260 39970 40032 83510 333 56990 58019 70045 83618 85459=
41851,2024,06,27,06,00,AAXX 27064 41851 11350 80000 10284 20260 39981 40048 60189 76196 8472/ 333 56499 58018 70175 81708 83614 88457=
41851,2024,06,27,12,00,AAXX 27124 41851 32450 50902 10320 20270 39947 40008 83510 333 10335 56990 58015 70175 83618 84459=
41851,2024,06,27,18,00,AAXX 27184 41851 32450 80000 10290 20280 39975 40037 8352/ 333 56999 59003 70175 83618 88458=
41856,2024,06,21,00,00,AAXX 21004 41856 32440 80000 10250 20240 39982 40018 8542/ 333 56999 58012 70214 84618 88458=
41856,2024,06,21,06,00,AAXX 21064 41856 32450 51302 10314 20240 39987 40022 83430 333 56990 58005 70000 82618 83458=
41856,2024,06,21,12,00,AAXX 21124 41856 32950 00601 10320 20270 39947 49982 333 10338 59008 70000=
41856,2024,06,21,18,00,AAXX 21184 41856 32930 00000 10280 20270 39981 40016 333 59002 70000=
41856,2024,06,22,00,00,AAXX 22004 41856 11440 70000 10277 20270 39974 40009 60014 70362 84410 333 56990 59008 70005 83618 85458=
41856,2024,06,22,06,00,AAXX 22064 41856 32450 81202 10310 20260 39987 40022 8257/ 333 56999 58000 70005 82618 84362=
41856,2024,06,22,12,00,AAXX 22124 41856 32950 20000 10310 20260 39958 49993 82030 333 10330 56090 58011 70005 82362=
41856,2024,06,22,18,00,AAXX 22184 41856 32930 00000 10273 20250 39993 40028 333 58012 70005=
41856,2024,06,23,00,00,AAXX 23004 41856 11430 80000 10270 20260 39992 40027 60014 72122 8442/ 333 56999 58018 70010 82618 88458=
41856,2024,06,23,06,00,AAXX 23064 41856 11456 41701 10322 20250 39991 40026 60016 70262 81530 333 56290 58004 70015 81618 84362=
41856,2024,06,23,12,00,AAXX 23124 41856 32450 41801 10330 20260 39946 49980 83430 333 10352 56990 59012 70015 82618 84362=
41856,2024,06,23,18,00,AAXX 23184 41856 32430 81802 10296 20270 39979 40014 8452/ 333 56999 59014 70015 84618 88458=
41856,2024,06,24,00,00,AAXX 24004 41856 32440 81801 10285 20280 39976 40011 8452/ 333 56999 59016 70005 84618 88458=
41856,2024,06,24,06,00,AAXX 24064 41856 32456 51801 10342 20270 39972 40006 83430 333 56990 59019 70000 81618 83825 85362=
41856,2024,06,24,12,00,AAXX 24124 41856 31450 80501 10312 20270 39946 49981 71792 8592/ 333 10356 56699 58000 70000 82710 85618 88458 81930=
41856,2024,06,24,18,00,AAXX 24184 41856 32930 41302 10295 20270 39975 40010 84030 333 56090 59004 70000 84362=
41856,2024,06,25,00,00,AAXX 25004 41856 32440 81801 10285 20280 39969 40004 8562/ 333 56499 59007 70000 82710 85618 88458=
41856,2024,06,25,06,00,AAXX 25064 41856 32450 70000 10298 20260 39981 40016 83520 333 56990 58009 70000 83618 87458=
41856,2024,06,25,12,00,AAXX 25124 41856 32456 50000 10310 20270 39945 49980 83430 333 10325 56990 59001 70000 82618 85362=
41856,2024,06,25,18,00,AAXX 25184 41856 32930 00000 10280 20260 39984 40019 333 58009 70000=
41856,2024,06,26,00,00,AAXX 26004 41856 32930 50000 10276 20270 39972 40007 83430 333 56990 58003 70000 82618 85362=
41856,2024,06,26,06,00,AAXX 26064 41856 32950 20000 10340 20260 39980 40014 82030 333 56090 59001 70000 82362=
41856,2024,06,26,12,00,AAXX 26124 41856 32956 20801 10335 20280 39961 49995 82030 333 10360 56090 58016 70000 82362=
41856,2024,06,26,18,00,AAXX 26184 41856 32430 50000 10285 20280 30002 40037 83430 333 56990 58018 70000 82618 85362=
41856,2024,06,27,00,00,AAXX 27004 41856 11430 80901 10260 20250 30003 40038 60529 79596 8532/ 333 56999 58031 70520 84618 88456 81925=
41856,2024,06,27,06,00,AAXX 27064 41856 11450 81001 10270 20270 30002 40037 60066 70296 8352/ 333 56999 58022 70580 83618 88458=
41856,2024,06,27,12,00,AAXX 27124 41856 32950 30701 10314 20260 39978 40013 83030 333 10330 56090 58017 70580 83362=
41856,2024,06,27,18,00,AAXX 27184 41856 32440 81101 10284 20270 30005 40040 8532/ 333 56999 58003 70580 84618 88458=
41858,2024,06,21,00,00,AAXX 21004 41858 01440 80000 10270 20250 39975 40020 70522 8452/ 333 58009 70064 84616 88458==
41858,2024,06,21,03,00,AAXX 21034 41858 01450 40905 10300 20250 39986 40031 70522 83520 333 20255 58014 70000 83616 84458==
41858,2024,06,21,06,00,AAXX 21064 41858 01450 60000 10322 20250 39980 40024 70522 83520 333 58009 70000 83616 86458==
41858,2024,06,21,09,00,AAXX 21094 41858 01450 50904 10340 20240 39954 49998 70522 85800 333 58016 70000 82618 83825==
41858,2024,06,21,12,00,AAXX 21124 41858 01550 30904 10326 20250 39937 49981 70511 83100 333 10345 59007 70000 83825==
41858,2024,06,21,15,00,AAXX 21154 41858 01440 41203 10300 20270 39967 40011 70511 82510 333 59006 70000 82616 84460==
41858,2024,06,21,18,00,AAXX 21184 41858 01440 61004 10283 20260 39976 40021 70511 83520 333 59004 70000 83616 86460==
41858,2024,06,21,21,00,AAXX 21214 41858 01430 60000 10284 20260 39963 40008 70522 83520 333 59006 70000 83615 85458==
41858,2024,06,22,00,00,AAXX 22004 41858 01420 80000 10288 20270 39966 40011 71022 8452/ 333 59009 70000 84615 88458==
41858,2024,06,22,03,00,AAXX 22034 41858 01440 61005 10313 20280 39980 40024 70522 83510 333 20280 59006 70000 83616 86460==
41858,2024,06,22,06,00,AAXX 22064 41858 01450 60905 10330 20260 39978 40021 70522 84520 333 59002 70000 84616 86460==
41858,2024,06,22,09,00,AAXX 22094 41858 01450 61506 10328 20270 39955 49999 70522 83520 333 58001 70000 83618 86458==
41858,2024,06,22,12,00,AAXX 22124 41858 01450 41504 10322 20260 39948 49992 70522 82520 333 10335 58011 70000 82618 84458==
41858,2024,06,22,15,00,AAXX 22154 41858 01940 00000 10296 20270 39972 40016 70500 333 58005 70000==
41858,2024,06,22,18,00,AAXX 22184 41858 01940 00000 10286 20270 39983 40028 70500 333 58005 70000==
41858,2024,06,22,21,00,AAXX 22214 41858 01940 00000 10282 20260 39980 40025 70500 333 58017 70000==
41858,2024,06,23,00,00,AAXX 23004 41858 01430 80000 10280 20260 39984 40029 70520 8452/ 333 58018 70000 84615 88458==
41858,2024,06,23,03,00,AAXX 23034 41858 01440 71204 10302 20260 39993 40038 70522 84520 333 20272 58013 70000 84616 86458==
41858,2024,06,23,06,00,AAXX 23064 41858 01450 61805 10326 20260 39982 40026 70522 83520 333 58004 70000 83616 86458==
41858,2024,06,23,09,00,AAXX 23094 41858 01450 51805 10340 20260 39951 49995 70511 83520 333 59004 70000 83616 84460==
41858,2024,06,23,12,00,AAXX 23124 41858 01450 41805 10330 20270 39938 49982 70511 82510 333 10348 59010 70000 82616 84460==
41858,2024,06,23,15,00,AAXX 23154 41858 01/40 30000 10314 20270 39958 40002 70511 83030 333 59014 70000 83362==
41858,2024,06,23,18,00,AAXX 23184 41858 31940 30000 10298 20270 39973 40017 70511 83030 333 56090 59010 70000 83362=
41858,2024,06,23,19,00,AAXX 23194 41858 01/40 30000 10298 20270 39973 40017 70511 83030 333 59010 70000 83362==
41858,2024,06,23,21,00,AAXX 23214 41858 01/30 40000 10294 20270 39965 40010 70511 84030 333 59015 70000 84362==
41858,2024,06,24,00,00,AAXX 24004 41858 01415 50000 10290 20280 39966 40011 71011 83520 333 59018 70000 83615 84458==
41858,2024,06,24,03,00,AAXX 24034 41858 01430 62105 10318 20270 39974 40018 70522 83520 333 20282 59019 70000 84616 86458==
41858,2024,06,24,06,00,AAXX 24064 41858 01450 51805 10348 20260 39964 40007 70522 84520 333 59018 70000 84616 85458==
41858,2024,06,24,09,00,AAXX 24094 41858 01450 51807 10350 20260 39941 49984 70522 83520 333 59010 70000 83616==
41858,2024,06,24,18,00,AAXX 24184 41858 01/40 30000 10302 20270 39968 40012 70511 83030 333 59005 70000 83362==
41858,2024,06,24,21,00,AAXX 24214 41858 31440 60000 10296 20280 39951 49995 70522 83520 333 56990 59014 70000 83615 85458=
41858,2024,06,25,00,00,AAXX 25004 41858 31430 81804 10294 20260 39957 40002 70522 8452/ 333 56999 59009 70000 84615 88458=
41858,2024,06,25,03,00,AAXX 25034 41858 01350 81805 10310 20270 39972 40016 70522 8562/ 333 20290 59002 70000 82708 84615 88458==
41858,2024,06,25,06,00,AAXX 25064 41858 01450 80000 10324 20260 39972 40016 70522 8452/ 333 58008 70000 84615 88458==
41858,2024,06,25,09,00,AAXX 25094 41858 01450 60905 10328 20270 39943 49987 70522 84520 333 58002 70000 84615 86458==
41858,2024,06,25,12,00,AAXX 25124 41858 01450 40905 10324 20260 39935 49979 70522 83520 333 10335 58001 70000 83616 84458==
41858,2024,06,25,15,00,AAXX 25154 41858 01440 40902 10312 20270 39954 49998 70522 82520 333 58004 70000 82618 84458==
41858,2024,06,25,18,00,AAXX 25184 41858 01940 00000 10296 20280 39977 40021 70522 333 58009 70000==
41858,2024,06,25,21,00,AAXX 25214 41858 01940 00000 10292 20280 39961 40006 70500 333 58010 70000==
41858,2024,06,26,00,00,AAXX 26004 41858 01440 40000 10290 20270 39969 40014 70522 82520 333 58012 70000 82618 84458==
41858,2024,06,26,03,00,AAXX 26034 41858 01440 71502 10138 20270 39979 40023 70522 84520 333 20282 58007 70000 84616 86458==
41858,2024,06,26,06,00,AAXX 26064 41858 01440 83506 10328 20280 39979 40023 70522 8452/ 333 58007 70000 84615 88458==
41858,2024,06,26,09,00,AAXX 26094 41858 01450 60905 10281 20260 39962 40007 70596 83520 333 58019 70030 83615 86458==
41858,2024,06,26,12,00,AAXX 26124 41858 01/50 30000 10320 20260 39952 49996 70596 83030 333 10336 58017 70030 83362==
41858,2024,06,26,15,00,AAXX 26154 41858 01/40 30000 10300 20270 39969 40013 70511 83030 333 70030 83362==
41858,2024,06,26,18,00,AAXX 26184 41858 01440 50000 10286 20270 39978 40023 70511 82410 333 58001 70030 82616 85460==
41858,2024,06,27,00,00,AAXX 27004 41858 01430 80000 10280 20260 39991 40036 76122 8452/ 333 58022 70002 84616 88458==
41858,2024,06,27,03,00,AAXX 27034 41858 01440 80000 10290 20260 30006 40051 72162 8452/ 333 20260 58027 70040 84616 88458==
41858,2024,06,27,06,00,AAXX 27064 41858 21440 80000 10310 20260 39995 40040 70562 8452/ 333 58016 69988 70040 84616 88458==
41858,2024,06,27,12,00,AAXX 27124 41858 01450 60905 10314 20250 39968 40012 70522 83520 333 10355 58016 70010 83615 86458==
41858,2024,06,27,15,00,AAXX 27154 41858 01450 80000 10300 20260 39986 40031 70522 8452/ 333 58017 70010 84615 88458==
41858,2024,06,27,18,00,AAXX 27184 41858 01450 80000 10290 20260 39992 40037 70522 8452/ 333 58017 70010 84615 88458==
41858,2024,06,27,21,00,AAXX 27214 41858 01450 80905 10286 20260 39983 40027 70522 8452/ 333 58007 70010 84615 88458==
41859,2024,06,21,00,00,AAXX 21004 41859 02440 80000 10260 20260 39980 40017 8562/ 333 58012 70208 83710 84618 88458==
41859,2024,06,21,03,00,AAXX 21034 41859 02450 80000 10286 20260 39996 40033 8562/ 333 20240 58014 70008 83710 84618 88458==
41859,2024,06,21,06,00,AAXX 21064 41859 02450 60000 10323 20250 39989 40025 84620 333 58008 70008 82710 83618 86458==
41859,2024,06,21,09,00,AAXX 21094 41859 02450 60902 10331 20250 39960 49996 84620 333 58010 70008 82710 83618 86458==
41859,2024,06,21,12,00,AAXX 21124 41859 02450 50000 10328 20260 39944 49981 82520 333 10338 59009 70008 82618 85458==
41859,2024,06,21,15,00,AAXX 21154 41859 02430 50000 10295 20280 39976 40012 82520 333 70008 82618 85458==
41859,2024,06,21,18,00,AAXX 21184 41859 02430 70000 10284 20280 39983 40020 83520 333 59004 70000 83618 87458==
41859,2024,06,21,21,00,AAXX 21214 41859 02430 80000 10284 20270 39970 40007 8562/ 333 59012 70000 82710 83618 88458==
41859,2024,06,22,00,00,AAXX 22004 41859 02435 81301 10281 20270 39971 40008 8562/ 333 59009 70000 82710 83618 88458==
41859,2024,06,22,03,00,AAXX 22034 41859 02450 70000 10317 20260 39992 40028 84620 333 20275 59004 70000 82710 83618 87458==
41859,2024,06,22,06,00,AAXX 22064 41859 02450 80000 10326 20270 39985 40021 8562/ 333 59004 70000 82710 83618 88458==
41859,2024,06,22,09,00,AAXX 22094 41859 02450 61302 10335 20270 39964 40001 85430 333 58004 70000 82618 83828 86362==
41859,2024,06,22,12,00,AAXX 22124 41859 02450 30000 10310 20270 39957 49993 82530 333 10335 58013 70000 82618 83362==
41859,2024,06,22,15,00,AAXX 22154 41859 02430 50000 10291 20270 39981 40018 83520 333 58005 70000 83618 84458==
41859,2024,06,22,18,00,AAXX 22184 41859 02430 31302 10286 20270 39993 40030 82530 333 58010 70000 82618 83362==
41859,2024,06,22,21,00,AAXX 22214 41859 02430 80000 10283 20260 39991 40028 8462/ 333 58021 70000 82710 84618 88458==
41859,2024,06,23,00,00,AAXX 23004 41859 02430 80000 10281 20260 39989 40026 8462/ 333 58018 70000 82710 84618 88458==
41859,2024,06,23,03,00,AAXX 23034 41859 01440 81302 10276 20276 30004 40041 72162 8562/ 333 20272 58012 70094 83710 84618 88458==
41859,2024,06,23,06,00,AAXX 23064 41859 21450 71801 10306 20280 39989 40025 70162 84620 333 58004 60115 70110 82710 83618 87458==
41859,2024,06,23,09,00,AAXX 23094 41859 02450 51801 10348 20270 39960 49997 82520 333 59004 70110 82618 85458==
41859,2024,06,23,12,00,AAXX 23124 41859 02450 52302 10340 20260 39945 49982 82530 333 10352 59012 70110 82618 85362==
41859,2024,06,23,15,00,AAXX 23154 41859 02430 51302 10310 20280 39968 40004 82530 333 59013 70110 82618 85362==
41859,2024,06,23,18,00,AAXX 23184 41859 02430 81302 10305 20280 39979 40015 8562/ 333 59014 70110 82710 84618 88458==
41859,2024,06,23,21,00,AAXX 23214 41859 02430 81302 10295 20290 39971 40007 8562/ 333 59020 70110 82710 84618 88458==
41859,2024,06,24,00,00,AAXX 24004 41859 02440 81802 10290 20280 39974 40010 8562/ 333 59015 70110 82710 84618 88458==
41859,2024,06,24,03,00,AAXX 24034 41859 02450 60000 10321 20270 39981 40017 84620 333 20270 59023 70023 82710 84618 86458==
41859,2024,06,24,06,00,AAXX 24064 41859 02450 60000 10346 20270 39974 40010 84620 333 59030 70000 82710 84618 86458==
41859,2024,06,24,09,00,AAXX 24094 41859 02450 60000 10350 20260 39948 49985 84620 333 59012 70000 82710 84618 86458==
41859,2024,06,24,12,00,AAXX 24124 41859 02450 70000 10342 20270 39941 49978 84620 333 10361 59004 70000 82710 84618 87458==
41859,2024,06,24,15,00,AAXX 24154 41859 02430 70000 10318 20280 39961 49997 84620 333 59007 70000 82710 84618 87458==
41859,2024,06,24,18,00,AAXX 24184 41859 02430 80000 10300 20270 39974 40010 8562/ 333 59005 70000 83710 84618 88458==
41859,2024,06,24,21,00,AAXX 24214 41859 32430 80000 10295 20280 39958 49994 8561/ 333 56399 59013 70000 83710 84618 88458=
41859,2024,06,25,00,00,AAXX 25004 41859 32430 80000 10293 20280 39965 40001 8562/ 333 56499 59009 70000 83710 84618 88458=
41859,2024,06,25,03,00,AAXX 25034 41859 02450 80000 10313 20280 39981 40017 8562/ 333 20288 58000 70000 83710 84618 88458==
41859,2024,06,25,06,00,AAXX 25064 41859 02450 80000 10329 20270 39979 40015 8562/ 333 58005 70000 83710 84618 88458==
41859,2024,06,25,09,00,AAXX 25094 41859 02450 80502 10321 20270 39953 49989 8562/ 333 58005 70000 82710 84618 88458==
41859,2024,06,25,12,00,AAXX 25124 41859 02450 80502 10332 20270 39943 49979 8562/ 333 10342 58002 70000 82710 84618 88458==
41859,2024,06,25,15,00,AAXX 25154 41859 02430 40501 10304 20270 39965 40001 82530 333 58004 70000 82618 84362==
41859,2024,06,25,18,00,AAXX 25184 41859 02430 80000 10294 20270 39984 40021 8562/ 333 58010 70000 82710 84618 88458==
41859,2024,06,25,21,00,AAXX 25214 41859 02430 80501 10288 20270 39969 40005 8562/ 333 58011 70000 82710 84618 88458==
41859,2024,06,26,00,00,AAXX 26004 41859 02440 81802 10284 20260 39974 40010 8562/ 333 58009 70000 83710 84618 88458==
41859,2024,06,26,03,00,AAXX 26034 41859 02450 50402 10313 20270 39987 40024 83510 333 20281 58006 70000 83618 85458==
41859,2024,06,26,06,00,AAXX 26064 41859 02450 80402 10329 20270 39981 40017 8562/ 333 58002 70000 82710 83618 88458==
41859,2024,06,26,09,00,AAXX 26094 41859 01450 53102 10310 20270 39961 49997 70162 82530 333 58008 70030 82618 85362==
41859,2024,06,26,12,00,AAXX 26124 41859 11/50 33102 10342 20270 39959 49997 60036 70162 83030 333 10346 58016 70030 83362==
41859,2024,06,26,15,00,AAXX 26154 41859 02430 40000 10302 20270 39976 40012 83520 333 58011 70030 83618 84458==
41859,2024,06,26,18,00,AAXX 26184 41859 02430 80000 10296 20280 30001 40037 8562/ 333 58017 70030 82710 84618 88458==
41859,2024,06,26,21,00,AAXX 26214 41859 02430 81302 10276 20260 39998 40035 8562/ 333 58029 70030 83710 84618 88458==
41859,2024,06,27,00,00,AAXX 27004 41859 21340 81302 10264 20260 39996 40033 79592 8692/ 333 58022 60297 70320 84708 85616 88456 81929==
41859,2024,06,27,03,00,AAXX 27034 41859 01350 81302 10276 20276 30014 40051 79592 8692/ 333 20255 58027 70350 83708 84616 88457==
41859,2024,06,27,06,00,AAXX 27064 41859 21450 81302 10301 20280 30006 40042 70296 8562/ 333 58025 60038 70350 83710 84618 88458==
41859,2024,06,27,09,00,AAXX 27094 41859 02450 70000 10335 20280 39981 40018 84570 333 58020 70320 84618 86458==
41859,2024,06,27,12,00,AAXX 27124 41859 01450 70000 10310 20270 39977 40013 72122 85620 333 10340 58018 70002 82710 84618 87458==
41859,2024,06,27,15,00,AAXX 27154 41859 02430 80000 10300 20270 39997 40033 8562/ 333 58021 70322 82710 84618 88458==
41859,2024,06,27,18,00,AAXX 27184 41859 02430 80000 10295 20280 39998 40034 8562/ 333 59003 70322 82710 84618 88458==
41859,2024,06,27,21,00,AAXX 27214 41859 02430 80000 10290 20280 39989 40026 8562/ 333 59009 70322 82710 84618 88458==
41863,2024,06,21,00,00,AAXX 21004 41863 02450 80902 10270 20250 30075 40018 8552/ 333 58013 70020 85618 88458==
41863,2024,06,21,03,00,AAXX 21034 41863 02456 81702 10300 20260 39990 40032 8552/ 333 20235 58012 70000 85618 88458==
41863,2024,06,21,06,00,AAXX 21064 41863 02557 31304 10330 20250 39983 40025 83400 333 58009 70000 83620==
41863,2024,06,21,09,00,AAXX 21094 41863 02957 51301 10345 20260 39955 49996 83520 333 58013 70000 83618 85458==
41863,2024,06,21,12,00,AAXX 21124 41863 02557 21301 10333 20250 39939 49980 82400 333 10345 58000 70000 82620==
41863,2024,06,21,15,00,AAXX 21154 41863 02550 20000 10305 20270 39964 40006 82400 333 59014 70000 82620==
41863,2024,06,21,18,00,AAXX 21184 41863 02450 51301 10291 20270 39974 40016 83520 333 59005 70000 83618 85458==
41863,2024,06,21,21,00,AAXX 21214 41863 02450 60000 10289 20280 39970 40012 84520 333 59006 70000 84618 88458==
41863,2024,06,22,00,00,AAXX 22004 41863 02456 80000 10287 20280 39966 40008 8552/ 333 59009 70000 85618 88458==
41863,2024,06,22,03,00,AAXX 22034 41863 02457 71301 10309 20270 39982 40024 85510 333 20282 59008 70000 85618 87458==
41863,2024,06,22,06,00,AAXX 22064 41863 02457 71301 10322 20260 39979 40021 85510 333 59004 70000 85618 87458==
41863,2024,06,22,09,00,AAXX 22094 41863 02457 60903 10334 20260 39957 49999 83520 333 58002 70000 83618 86458==
41863,2024,06,22,12,00,AAXX 22124 41863 02456 51302 10327 20270 39947 49988 85500 333 10335 58008 70000 85618==
41863,2024,06,22,15,00,AAXX 22154 41863 02950 00000 10295 20280 39969 40011 333 58005 70000==
41863,2024,06,22,18,00,AAXX 22184 41863 02950 00000 10284 20260 39988 40030 333 58014 70000==
41863,2024,06,22,21,00,AAXX 22214 41863 02450 50000 10282 20270 39984 40026 82520 333 58014 70000 82618 85458==
41863,2024,06,23,00,00,AAXX 23004 41863 02456 70000 10280 20260 39988 40030 83520 333 58022 70000 83618 87458==
41863,2024,06,23,03,00,AAXX 23034 41863 02456 81301 10308 20280 39994 40036 8552/ 333 10271 58012 70000 85618 88458==
41863,2024,06,23,06,00,AAXX 23064 41863 02457 81302 10318 20270 39981 40023 8552/ 333 58002 70000 85618 88458==
41863,2024,06,23,09,00,AAXX 23094 41863 02/57 31502 10323 20260 39953 49995 83030 333 59004 70000 83362==
41863,2024,06,23,12,00,AAXX 23124 41863 02957 00000 10335 20280 39939 49980 333 10336 59008 70000==
41863,2024,06,23,15,00,AAXX 23154 41863 02957 00000 10306 20280 39958 49999 333 59011 70000==
41863,2024,06,23,18,00,AAXX 23184 41863 32957 00000 10300 20280 39972 40014 333 59016 70000=
41863,2024,06,23,19,00,AAXX 23194 41863 02957 00000 10300 20280 39972 40014 333 59016 70000==
41863,2024,06,23,21,00,AAXX 23214 41863 02/57 20000 10293 20270 39970 40012 82030 333 59014 70000 82362==
41863,2024,06,24,00,00,AAXX 24004 41863 02457 50000 10287 20270 39968 40010 83530 333 59020 70000 83618 84362==
41863,2024,06,24,03,00,AAXX 24034 41863 02458 51802 10320 20270 39974 40015 83520 333 20282 59020 70000 83618 85458==
41863,2024,06,24,06,00,AAXX 24064 41863 02458 31802 10342 20260 39967 40008 83500 333 59014 70000 83618==
41863,2024,06,24,09,00,AAXX 24094 41863 02458 31802 10355 20270 39942 49983 83500 333 59011 70000 83618==
41863,2024,06,24,12,00,AAXX 24124 41863 02/58 30000 10350 20270 39933 49974 83030 333 10358 59006 70000 83362==
41863,2024,06,24,15,00,AAXX 24154 41863 02/56 20000 10320 20270 39948 49990 82030 333 59010 70000 82362==
41863,2024,06,24,18,00,AAXX 24184 41863 02456 80000 10310 20280 39965 40007 8552/ 333 59007 70000 85618 88458==
41863,2024,06,24,21,00,AAXX 24214 41863 32456 80000 10300 20270 39963 40005 8552/ 333 56999 59007 70000 85618 88458=
41863,2024,06,25,00,00,AAXX 25004 41863 32456 80000 10294 20270 39956 49998 8552/ 333 56999 59012 70000 85618 88458=
41863,2024,06,25,03,00,AAXX 25034 41863 02457 81802 10308 20270 39971 40013 8552/ 333 20288 59003 70000 85618 88458==
41863,2024,06,25,06,00,AAXX 25064 41863 02457 81301 10330 20270 39971 40012 8552/ 333 58004 70000 85618 88458==
41863,2024,06,25,09,00,AAXX 25094 41863 02457 50000 10344 20260 39945 49986 83520 333 58003 70000 83618 85458==
41863,2024,06,25,12,00,AAXX 25124 41863 02957 30904 10322 20280 39935 49977 80002 333 10347 58002 70000 83083==
41863,2024,06,25,15,00,AAXX 25154 41863 02950 00000 10306 20290 39955 49997 333 58007 70000==
41863,2024,06,25,18,00,AAXX 25184 41863 02950 00000 10300 20280 39974 40016 333 58009 70000==
41863,2024,06,25,21,00,AAXX 25214 41863 02950 00903 10292 20260 39968 40010 333 58005 70000==
41863,2024,06,26,00,00,AAXX 26004 41863 02550 30903 10290 20280 39967 40009 83400 333 58011 70000 83620==
41863,2024,06,26,03,00,AAXX 26034 41863 02456 51303 10320 20270 39979 40021 83320 333 20285 58008 70000 83618 85458==
41863,2024,06,26,06,00,AAXX 26064 41863 02356 70904 10317 20270 39981 40023 85620 333 58010 70000 83710 85618 87458==
41863,2024,06,26,09,00,AAXX 26094 41863 02456 70501 10306 20260 39960 40002 85610 333 58015 70000 85618 87458==
41863,2024,06,26,12,00,AAXX 26124 41863 02456 70501 10306 20260 39960 40002 85610 333 58015 70000 85618 87458==
41863,2024,06,26,15,00,AAXX 26154 41863 02550 40000 10300 20280 39972 40014 84400 333 58017 70000 84620==
41863,2024,06,26,18,00,AAXX 26184 41863 02550 40000 10292 20270 39996 40038 84400 333 58002 70000 84620==
41863,2024,06,26,21,00,AAXX 26214 41863 02450 50000 10291 20280 39983 40025 83520 333 58015 70000 83618 85458==
41863,2024,06,27,00,00,AAXX 27004 41863 02450 80000 10289 20280 39987 40029 8552/ 333 58020 70000 85618 88458==
41863,2024,06,27,03,00,AAXX 27034 41863 02450 80000 10293 20280 30002 40044 8552/ 333 20285 58023 70000 85618 88458==
41863,2024,06,27,06,00,AAXX 27064 41863 02456 70903 10320 20270 39999 40041 84520 333 58018 70000 84618 87458==
41863,2024,06,27,09,00,AAXX 27094 41863 02457 50902 10340 20280 39972 40013 85500 333 58012 70000 85618==
41863,2024,06,27,12,00,AAXX 27124 41863 02456 51302 10325 20270 39968 40010 85500 333 10345 58014 70000 85618==
41863,2024,06,27,15,00,AAXX 27154 41863 02450 60902 10305 20280 39986 40028 83520 333 58014 70000 86458==
41863,2024,06,27,18,00,AAXX 27184 41863 02450 60901 10300 20270 39990 40032 83520 333 59006 70000 83618 86458==
41863,2024,06,27,21,00,AAXX 27214 41863 02450 70901 10296 20280 39987 40029 84520 333 58004 70000 84618 87458==
41881,2024,06,21,00,00,AAXX 21004 41881 32450 80901 10260 20250 39996 40016 8552/ 333 56999 58007 70446 85617 88459=
41881,2024,06,21,06,00,AAXX 21064 41881 32457 70502 10318 20260 39997 40017 84520 333 56990 58003 70000 84617 87459=
41881,2024,06,21,12,00,AAXX 21124 41881 32456 31001 10315 20270 39965 49984 83500 333 10344 56900 59002 70000 83620=
41881,2024,06,21,18,00,AAXX 21184 41881 32450 50801 10285 20280 39994 40014 83520 333 56990 59012 70000 83620 85459=
41881,2024,06,22,00,00,AAXX 22004 41881 32456 80901 10276 20260 39990 40010 8562/ 333 56299 59006 70000 83710 85616 88458=
41881,2024,06,22,06,00,AAXX 22064 41881 11356 81701 10290 20260 30001 40021 60034 72162 8562/ 333 56499 58004 70025 83709 85615 88458=
41881,2024,06,22,12,00,AAXX 22124 41881 32457 61002 10300 20250 39972 49992 83520 333 10320 56990 58007 70025 83616 86459=
41881,2024,06,22,18,00,AAXX 22184 41881 32956 00901 10275 20260 30004 40024 333 58010 70025=
41881,2024,06,23,00,00,AAXX 23004 41881 32450 80901 10275 20270 30004 40024 8552/ 333 56999 58014 70025 85616 88459=
41881,2024,06,23,06,00,AAXX 23064 41881 32457 70901 10330 20270 30003 40023 84520 333 56990 58002 70000 84618 87459=
41881,2024,06,23,12,00,AAXX 23124 41881 11456 60801 10320 20270 39962 49982 60139 70162 83520 333 10335 56990 59010 70125 83617 86459=
41881,2024,06,23,18,00,AAXX 23184 41881 32450 60901 10290 20280 39997 40017 83520 333 56990 59007 70125 83617 86460=
41881,2024,06,24,00,00,AAXX 24004 41881 32450 80901 10280 20270 39994 40014 8552/ 333 56999 59010 70125 85617 88459=
41881,2024,06,24,06,00,AAXX 24064 41881 32458 41804 10335 20260 39989 40009 84400 333 56400 59014 70125 82616 83825=
41881,2024,06,24,12,00,AAXX 24124 41881 32457 60801 10345 20260 39953 49973 82501 333 10354 56909 59009 70000 82618 84082=
41881,2024,06,24,18,00,AAXX 24184 41881 32956 01202 10304 20260 39978 49998 333 59019 70000=
41881,2024,06,25,00,00,AAXX 25004 41881 32457 71001 10280 20270 39984 40004 84520 333 56990 59010 70000 84618 87460=
41881,2024,06,25,06,00,AAXX 25064 41881 32458 71502 10333 20260 39987 40006 84520 333 56990 59002 70000 84618 87459=
41881,2024,06,25,12,00,AAXX 25124 41881 32456 60602 10332 20270 39953 49972 83520 333 10355 56990 58000 83618 86459=
41881,2024,06,25,18,00,AAXX 25184 41881 32950 00902 10295 20280 39992 40012 333 58014 70000=
41881,2024,06,26,00,00,AAXX 26004 41881 32456 20000 10284 20270 39987 40007 82500 333 56900 58003 70000 82620=
41881,2024,06,26,06,00,AAXX 26064 41881 32458 41601 10350 20260 39999 40018 84500 333 56900 58012 70000 84618=
41881,2024,06,26,12,00,AAXX 26124 41881 32356 80901 10305 20270 39979 49999 8562/ 333 10360 56299 58026 70000 83710 85616 88458=
41881,2024,06,26,18,00,AAXX 26184 41881 32450 20901 10280 20260 30012 40032 82500 333 56900 58020 70000 82620=
41881,2024,06,27,00,00,AAXX 27004 41881 32456 40901 10270 20260 30006 40026 84500 333 56900 58019 70000 84618=
41881,2024,06,27,06,00,AAXX 27064 41881 32457 71004 10325 20260 30012 40032 84520 333 56390 58013 70000 84618 87460=
41881,2024,06,27,12,00,AAXX 27124 41881 32457 50801 10305 20280 39987 40007 83520 333 10330 56290 58008 70000 83618 85460=
41881,2024,06,27,18,00,AAXX 27184 41881 32456 40802 10304 20260 30009 40029 84500 333 56900 59003 70000 84618=
41883,2024,06,21,00,00,AAXX 21004 41883 02450 80902 10266 20260 39994 40014 8552/ 333 58014 70130 85616 88459==
41883,2024,06,21,03,00,AAXX 21034 41883 02450 80902 10300 20260 30007 40027 8452/ 333 20245 58001 70060 84618 88458==
41883,2024,06,21,06,00,AAXX 21064 41883 02450 80000 10320 20270 30001 40021 8452/ 333 58009 70000 84618 88458==
41883,2024,06,21,09,00,AAXX 21094 41883 02450 80000 10324 20250 39979 49999 8452/ 333 58010 70000 84618 88458==
41883,2024,06,21,12,00,AAXX 21124 41883 02450 80000 10322 20260 39965 49985 8452/ 333 10330 59001 70000 84618 88458==
41883,2024,06,21,15,00,AAXX 21154 41883 02430 80000 10300 20270 39987 40007 8452/ 333 59009 70000 84618 88458==
41883,2024,06,21,18,00,AAXX 21184 41883 02430 80000 10290 20260 39997 40017 8452/ 333 59002 70000 84618 88458==
41883,2024,06,21,21,00,AAXX 21214 41883 02430 80000 10285 20280 39982 40002 8452/ 333 59015 70000 84618 88458==
41883,2024,06,22,00,00,AAXX 22004 41883 02450 80000 10275 20260 39987 40007 8452/ 333 59007 70000 84618 88458==
41883,2024,06,22,03,00,AAXX 22034 41883 02450 80000 10290 20260 30010 40030 8452/ 333 20270 58003 70000 84618 88458==
41883,2024,06,22,06,00,AAXX 22064 41883 02450 80000 10295 20260 30008 40028 8452/ 333 58007 70000 84618 88458==
41883,2024,06,22,09,00,AAXX 22094 41883 01456 80902 10285 20270 39985 40005 72166 8452/ 333 58006 70016 84616 88459==
41883,2024,06,22,12,00,AAXX 22124 41883 11/56 40000 10292 20260 39975 49995 60026 70162 84030 333 10312 58010 70016 84362==
41883,2024,06,22,15,00,AAXX 22154 41883 02/30 50000 10280 20260 39996 40016 85030 333 58009 70016 85362==
41883,2024,06,22,18,00,AAXX 22184 41883 02430 80000 10278 20270 30007 40027 8552/ 333 58010 70016 85615 88458==
41883,2024,06,22,21,00,AAXX 22214 41883 02330 80000 10276 20270 30003 40023 8562/ 333 58021 70016 85709 88458==
41883,2024,06,23,00,00,AAXX 23004 41883 02340 80902 10279 20270 30007 40027 8562/ 333 58020 70016 85709 88458==
41883,2024,06,23,03,00,AAXX 23034 41883 02456 80000 10300 20280 30016 40036 8552/ 333 20272 58006 70016 85616 88459==
41883,2024,06,23,06,00,AAXX 23064 41883 01456 61303 10330 20280 30001 40021 70163 84410 333 59007 70002 83616 83828 86459==
41883,2024,06,23,09,00,AAXX 23094 41883 02456 40000 10340 20270 39978 49998 84400 333 59007 70002 83616==
41883,2024,06,23,12,00,AAXX 23124 41883 02956 30000 10332 20260 39960 49980 80001 333 10345 59015 70000 83080==
41883,2024,06,23,15,00,AAXX 23154 41883 02430 61304 10310 20270 39985 40005 82520 333 59011 70002 82616 86459==
41883,2024,06,23,18,00,AAXX 23184 41883 02/30 31302 10300 20270 39995 40015 82030 333 59012 70002 83362==
41883,2024,06,23,21,00,AAXX 23214 41883 02/30 30902 10290 20280 39993 40013 83030 333 59010 70002 83362==
41883,2024,06,24,00,00,AAXX 24004 41883 02450 61302 10286 20280 39994 40014 82530 333 59013 70002 82616 86362==
41883,2024,06,24,03,00,AAXX 24034 41883 02456 71803 10302 20270 30004 40024 84820 333 20280 59012 70002 83615 87458==
41883,2024,06,24,06,00,AAXX 24064 41883 02456 61802 10336 20260 39993 40013 84810 333 59008 70000 83616 86459==
41883,2024,06,24,09,00,AAXX 24094 41883 02456 60000 10362 20250 39965 49984 82520 333 59013 70000 82618 86458==
41883,2024,06,24,12,00,AAXX 24124 41883 02450 80902 10340 20260 39957 49976 8451/ 333 10365 59003 70000 84618 88458==
41883,2024,06,24,15,00,AAXX 24154 41883 02430 80902 10315 20270 39975 49995 8552/ 333 59010 70000 85616 88459==
41883,2024,06,24,18,00,AAXX 24184 41883 02430 80902 10308 20270 39991 40011 8552/ 333 59004 70000 85616 88459==
41883,2024,06,24,21,00,AAXX 24214 41883 32430 80000 10300 20270 39985 40005 8552/ 333 56299 59008 70000 85616 88459=
41883,2024,06,25,00,00,AAXX 25004 41883 32440 80000 10290 20280 39983 40003 8552/ 333 56399 59011 70000 85616 88459=
41883,2024,06,25,03,00,AAXX 25034 41883 02456 61802 10310 20270 39996 40016 84510 333 20287 59008 70000 84616 86459==
41883,2024,06,25,06,00,AAXX 25064 41883 02456 72302 10325 20270 39989 40009 84520 333 59004 70000 84616 87459==
41883,2024,06,25,09,00,AAXX 25094 41883 02456 61802 10350 20270 39963 49983 83810 333 59002 70000 83616 86459==
41883,2024,06,25,12,00,AAXX 25124 41883 02/50 50903 10336 20270 39958 49978 85010 333 10355 58001 70000 85459==
41883,2024,06,25,15,00,AAXX 25154 41883 02430 50902 10312 20270 39977 49997 82520 333 58002 70000 82618 85458==
41883,2024,06,25,18,00,AAXX 25184 41883 02430 80902 10300 20270 39999 40019 8452/ 333 58008 70000 84618 88458==
41883,2024,06,25,21,00,AAXX 25214 41883 02430 80902 10294 20282 39984 40004 8452/ 333 59001 70000 84618 88458==
41883,2024,06,26,00,00,AAXX 26004 41883 02450 40902 10290 20280 39988 40008 82520 333 58005 70000 82618 84458==
41883,2024,06,26,03,00,AAXX 26034 41883 02456 40000 10320 20270 30001 40021 84400 333 20286 58005 70000 82616 83828==
41883,2024,06,26,06,00,AAXX 26064 41883 02456 30904 10355 20260 39995 40014 83400 333 58006 70000 81616 83828==
41883,2024,06,26,09,00,AAXX 26094 41883 01356 80904 10325 20270 39981 40001 71722 8532/ 333 58018 70000 85710 88459 81930==
41883,2024,06,26,12,00,AAXX 26124 41883 01450 81302 10312 20260 39977 49997 70292 8552/ 333 10366 58019 70000 85616 88459==
41883,2024,06,26,15,00,AAXX 26154 41883 02430 80902 10300 20270 39996 40016 8552/ 333 58019 70000 85615 88458==
41883,2024,06,26,18,00,AAXX 26184 41883 02430 80902 10296 20280 30014 40034 8552/ 333 58015 70000 85615 88458==
41883,2024,06,26,21,00,AAXX 26214 41883 02330 80902 10292 20270 30008 40028 8562/ 333 58024 70000 85709 88458==
41883,2024,06,27,00,00,AAXX 27004 41883 02440 81302 10290 20280 30013 40033 8552/ 333 58025 70000 85615 88458==
41883,2024,06,27,03,00,AAXX 27034 41883 02456 80902 10310 20270 30023 40043 8552/ 333 20286 58022 70000 85616 88459==
41883,2024,06,27,06,00,AAXX 27064 41883 02456 71304 10325 20270 30017 40037 84520 333 58022 70000 84616 87459==
41883,2024,06,27,09,00,AAXX 27094 41883 02556 60902 10330 20260 39996 40016 82130 333 58015 70000 82828 86362==
41883,2024,06,27,12,00,AAXX 27124 41883 02456 60903 10326 20280 39991 40011 84430 333 10337 58014 70000 82616 83828 86362==
41883,2024,06,27,15,00,AAXX 27154 41883 02/30 50902 10308 20270 30009 40029 85030 333 58013 70000 85362==
41883,2024,06,27,18,00,AAXX 27184 41883 02430 81304 10296 20270 30014 40034 8552/ 333 58000 70000 85615 88458==
41883,2024,06,27,21,00,AAXX 27214 41883 02430 81302 10290 20270 30008 40028 8552/ 333 58000 70000 85615 88458==
41886,2024,06,21,00,00,AAXX 21004 41886 02456 80000 10258 20250 30001 40022 8452/ 333 58004 70160 84616 88458==
41886,2024,06,21,03,00,AAXX 21034 41886 02456 80000 10275 20260 30016 40036 8432/ 333 20243 58008 70156 83616 88458 81930==
41886,2024,06,21,06,00,AAXX 21064 41886 02457 70000 10310 20250 30007 40027 83570 333 58003 70006 83618 87460==
41886,2024,06,21,09,00,AAXX 21094 41886 02456 71301 10328 20260 39985 40005 85470 333 58005 70006 83618 86460==
41886,2024,06,21,12,00,AAXX 21124 41886 02456 51301 10320 20260 39971 49991 81570 333 10334 59010 70000 81618 84460==
41886,2024,06,21,15,00,AAXX 21154 41886 02/50 30000 10294 20250 39998 40018 83030 333 58003 70000 83365==
41886,2024,06,21,18,00,AAXX 21184 41886 02450 71302 10288 20260 30001 40021 82570 333 59005 70000 82618 86460==
41886,2024,06,21,21,00,AAXX 21214 41886 02450 80000 10280 20260 30000 40020 8532/ 333 59003 70000 83618 88460 81930==
41886,2024,06,22,00,00,AAXX 22004 41886 01456 81303 10274 20260 39998 40018 71722 8592/ 333 59003 70000 83616 88460 81930==
41886,2024,06,22,03,00,AAXX 22034 41886 01450 80000 10266 20260 30019 40039 70296 8532/ 333 20264 58003 70042 84616 88460 81930==
41886,2024,06,22,06,00,AAXX 22064 41886 11450 81102 10290 20260 30012 40032 60046 76196 8532/ 333 58005 70042 84616 88460 81930==
41886,2024,06,22,09,00,AAXX 22094 41886 02457 70901 10310 20270 39988 40008 83570 333 58003 70042 83618 87460==
41886,2024,06,22,12,00,AAXX 22124 41886 02457 30000 10308 20270 39979 49999 83400 333 10320 58008 70042 83618==
41886,2024,06,22,15,00,AAXX 22154 41886 02450 30000 10285 20280 30001 40021 83500 333 58003 70042 83618==
41886,2024,06,22,18,00,AAXX 22184 41886 02/50 30000 10278 20270 30015 40035 83030 333 58014 70042 83365==
41886,2024,06,22,21,00,AAXX 22214 41886 02450 60000 10273 20260 30011 40031 82510 333 58014 70042 82618 85460==
41886,2024,06,23,00,00,AAXX 23004 41886 01430 70000 10270 20270 30011 40031 71042 83510 333 58013 70042 83618 87460==
41886,2024,06,23,03,00,AAXX 23034 41886 41456 80901 10317 20270 30021 40041 70342 8352/ 333 20260 58002 83618 88460==
41886,2024,06,23,06,00,AAXX 23064 41886 01457 70901 10335 20260 30007 40027 70142 83570 333 59005 70000 83618 87460==
41886,2024,06,23,09,00,AAXX 23094 41886 02456 81702 10335 20270 39983 40003 8452/ 333 59005 70000 84616 88460==
41886,2024,06,23,12,00,AAXX 23124 41886 02/50 30000 10319 20280 39970 49990 83020 333 10343 59009 70000 83462==
41886,2024,06,23,15,00,AAXX 23154 41886 02/40 20000 10305 20280 39993 40013 82010 333 59008 70000 82462==
41886,2024,06,23,18,00,AAXX 23184 41886 32440 60000 10296 20290 30006 40026 82510 333 56990 59009 70000 82616 88460=
41886,2024,06,23,19,00,AAXX 23194 41886 02440 60000 10296 20290 30006 40026 82510 333 59009 70000 82616 88460==
41886,2024,06,23,21,00,AAXX 23214 41886 02440 60000 10288 20280 30000 40020 82510 333 59011 70000 82617 85460==
41886,2024,06,24,00,00,AAXX 24004 41886 02450 80000 10280 20270 30001 40022 8351/ 333 59010 70000 83617 88460==
41886,2024,06,24,03,00,AAXX 24034 41886 02456 51306 10315 20270 30008 40028 85500 333 20278 59013 70000 85618==
41886,2024,06,24,06,00,AAXX 24064 41886 02457 61803 10338 20270 39998 40018 86400 333 59009 70000 85618==
41886,2024,06,24,09,00,AAXX 24094 41886 02457 61303 10342 20250 39977 49997 84470 333 59006 70000 82618 85460==
41886,2024,06,24,12,00,AAXX 24124 41886 02456 70000 10330 20290 39970 49990 83510 333 10345 58000 70000 83618 87460==
41886,2024,06,24,15,00,AAXX 24154 41886 02450 80000 10302 20280 39990 40010 333 59003 70000 83616 88458 81930==
41886,2024,06,24,18,00,AAXX 24184 41886 02450 71302 10300 20280 30000 40020 83510 333 59006 70000 83618 87460==
41886,2024,06,24,21,00,AAXX 24214 41886 32450 80000 10290 20280 39994 40014 8351/ 333 56999 59006 70000 83618 88460=
41886,2024,06,25,00,00,AAXX 25004 41886 32450 81801 10285 20280 39994 40014 8532/ 333 56399 59007 70000 83616 81930 88458=
41886,2024,06,25,03,00,AAXX 25034 41886 02456 81802 10302 20270 30005 40025 8532/ 333 20284 59003 70000 84616 88458 81930==
41886,2024,06,25,06,00,AAXX 25064 41886 02457 70000 10330 20260 39999 40019 83470 333 58001 70000 82618 86460==
41886,2024,06,25,09,00,AAXX 25094 41886 02456 81103 10308 20270 39972 49992 8552/ 333 59005 70000 85616 88458==
41886,2024,06,25,12,00,AAXX 25124 41886 02456 80000 10300 20270 39973 49993 8352/ 333 10352 58003 70000 83616 88458==
41886,2024,06,25,15,00,AAXX 25154 41886 02450 81602 10295 20280 39987 40007 8252/ 333 59003 70000 82616 88458==
41886,2024,06,25,18,00,AAXX 25184 41886 02450 80502 10290 20280 30004 40024 8252/ 333 58004 70000 82616 88458==
41886,2024,06,25,21,00,AAXX 25214 41886 02450 80000 10290 20280 39996 40016 8352/ 333 58002 70000 83616 88458==
41886,2024,06,26,00,00,AAXX 26004 41886 01450 80000 10290 20280 39998 40018 70522 8552/ 333 58004 70000 85618 88460==
41886,2024,06,26,03,00,AAXX 26034 41886 02456 70901 10320 20280 30006 40026 84410 333 20284 58001 70000 83618 87460==
41886,2024,06,26,06,00,AAXX 26064 41886 01457 72301 10335 20280 30003 40023 71792 83370 333 58004 70000 82618 86460 81930==
41886,2024,06,26,09,00,AAXX 26094 41886 01458 62301 10343 20270 39987 40007 70192 83430 333 58015 70000 82618 86363==
41886,2024,06,26,12,00,AAXX 26124 41886 01456 80000 10312 20270 39982 40002 70392 8432/ 333 10348 58009 70000 83616 88458 81930==
41886,2024,06,26,15,00,AAXX 26154 41886 01450 80000 10298 20280 30002 40022 70292 8452/ 333 58015 70000 84616 88458==
41886,2024,06,26,18,00,AAXX 26184 41886 01450 80000 10290 20280 30022 40042 70292 8352/ 333 58018 70000 83618 88460==
41886,2024,06,26,21,00,AAXX 26214 41886 01450 80000 10286 20280 30018 40038 70262 8452/ 333 58022 70018 84616 88458==
41886,2024,06,27,00,00,AAXX 27004 41886 11450 80000 10285 20280 30013 40033 60026 70562 8452/ 333 58015 70018 84616 88458==
41886,2024,06,27,03,00,AAXX 27034 41886 01350 80000 10283 20270 30035 40055 76062 8562/ 333 20282 58029 70028 82710 83618 88460==
41886,2024,06,27,06,00,AAXX 27064 41886 01450 80902 10300 20270 30030 40050 70262 8352/ 333 58027 70028 83618 88460==
41886,2024,06,27,09,00,AAXX 27094 41886 02456 61202 10328 20270 30007 40027 84470 333 58020 70028 83618 85460==
41886,2024,06,27,12,00,AAXX 27124 41886 02456 61202 10322 20260 39999 40019 83530 333 10331 58017 70028 83618 85365==
41886,2024,06,27,15,00,AAXX 27154 41886 02450 60902 10300 20270 30020 40040 83570 333 58018 70028 83618 85460==
41886,2024,06,27,18,00,AAXX 27184 41886 02450 60000 10290 20270 30024 40044 83570 333 58002 70028 83618 85460==
41886,2024,06,27,21,00,AAXX 27214 41886 02450 60000 10285 20260 30022 40042 83570 333 58004 70010 83618 85460==
41888,2024,06,21,00,00,AAXX 21004 41888 31435 80501 10252 20250 30008 40018 70522 8252/ 333 56999 58007 70589 82618 88460=
41888,2024,06,21,06,00,AAXX 21064 41888 32456 70901 10304 20250 30014 40024 83510 333 56990 58001 70027 83618 87460=
41888,2024,06,21,12,00,AAXX 21124 41888 32957 00902 10309 20260 39979 49989 333 10321 59009 70000=
41888,2024,06,21,18,00,AAXX 21184 41888 32950 50901 10283 20270 30006 40016 85030 333 56090 59010 70000 85364=
41888,2024,06,22,00,00,AAXX 22004 41888 32440 80901 10270 20260 30004 40014 8332/ 333 56999 59006 70000 82616 81930 88458=
41888,2024,06,22,06,00,AAXX 22064 41888 11450 80603 10284 20250 30016 40026 60418 70596 8351/ 333 56999 58002 70946 83618 88460=
41888,2024,06,22,12,00,AAXX 22124 41888 32457 20901 10302 20270 39986 49996 82500 333 10309 56900 58007 70946 82618=
41888,2024,06,22,18,00,AAXX 22184 41888 32950 00901 10282 20260 30020 40030 333 58014 70946=
41888,2024,06,23,00,00,AAXX 23004 41888 32456 20601 10278 20270 30017 40027 82500 333 56900 58014 70406 82618=
41888,2024,06,23,06,00,AAXX 23064 41888 32457 40902 10323 20260 30014 40024 84400 333 56900 59002 70000 81618 83822=
41888,2024,06,23,12,00,AAXX 23124 41888 32957 51201 10318 20260 39977 49987 80001 333 10330 56009 59009 70000 85080=
41888,2024,06,23,18,00,AAXX 23184 41888 32450 50901 10300 20280 30012 40022 82530 333 56990 59008 70000 82618 85364=
41888,2024,06,24,00,00,AAXX 24004 41888 32456 52701 10288 20280 30006 40016 82510 333 56990 59011 70000 82618 85460=
41888,2024,06,24,06,00,AAXX 24064 41888 32456 71501 10324 20270 30005 40015 84410 333 56990 59009 70000 83618 87459=
41888,2024,06,24,12,00,AAXX 24124 41888 32456 80903 10310 20270 39980 49990 8252/ 333 10339 56999 58003 70000 82618 88460=
41888,2024,06,24,18,00,AAXX 24184 41888 11330 81202 10286 20286 30005 40015 60174 79622 8492/ 333 56999 59007 70168 82708 83616 81930 88458=
41888,2024,06,25,00,00,AAXX 25004 41888 11450 80901 10284 20270 39999 40009 60198 70296 8452/ 333 56999 59007 70353 84616 88459=
41888,2024,06,25,06,00,AAXX 25064 41888 11456 80901 10314 20270 30003 40013 69918 70262 8252/ 333 56999 59002 70354 82618 88460=
41888,2024,06,25,12,00,AAXX 25124 41888 11456 70901 10299 20270 39980 49990 60218 70296 82510 333 10320 56990 58000 70559 82618 87460=
41888,2024,06,25,18,00,AAXX 25184 41888 32450 60901 10290 20280 30010 40020 82510 333 56990 58005 70391 82618 86460=
41888,2024,06,26,00,00,AAXX 26004 41888 32450 80601 10288 20280 30003 40013 8252/ 333 56999 58004 70206 82618 88460=
41888,2024,06,26,06,00,AAXX 26064 41888 32456 70901 10335 20270 30009 40019 85410 333 56990 58006 70206 83618 84822 8746=
41888,2024,06,26,12,00,AAXX 26124 41888 11457 71201 10300 20270 39987 49997 60024 70362 85370 333 10351 56990 58007 70018 83618 83825 81930 87460=
41888,2024,06,26,18,00,AAXX 26184 41888 11456 81202 10297 20280 30027 40037 69944 76122 8532/ 333 56399 58017 70022 81710 84617 81930 88460=
41888,2024,06,27,00,00,AAXX 27004 41888 11456 81302 10277 20270 30031 40041 60016 70262 8532/ 333 56399 58028 70036 81710 84616 81930 88460=
41888,2024,06,27,06,00,AAXX 27064 41888 11457 71203 10290 20270 30035 40045 60509 70296 84310 333 56990 58028 70530 83616 81930 87460=
41888,2024,06,27,12,00,AAXX 27124 41888 32457 60901 10310 20260 30011 40021 83510 333 10320 56990 58024 70512 83618 86460=
41891,2024,06,21,00,00,AAXX 21004 41891 01430 80000 10257 20257 39980 40018 70522 8632/ 333 58000 70200 82710 85615 88458 81930==
41891,2024,06,21,03,00,AAXX 21034 41891 01430 80903 10295 20270 39996 40034 70522 8532/ 333 20255 59003 70100 82710 84615 88458 81930==
41891,2024,06,21,06,00,AAXX 21064 41891 41440 72104 10320 20260 39986 40023 70522 84370 333 59011 84615 86460 81930==
41891,2024,06,21,09,00,AAXX 21094 41891 01440 80504 10320 20270 39965 40002 70522 8637/ 333 58003 70000 82710 83616 88459 81930==
41891,2024,06,21,12,00,AAXX 21124 41891 01440 80104 10315 20270 39954 49991 70522 84330 333 10325 59006 70000 83616 86364 81930==
41891,2024,06,21,15,00,AAXX 21154 41891 01440 63603 10280 20260 39980 40018 70522 83340 333 58002 70000 83615 85365 81930==
41891,2024,06,21,18,00,AAXX 21184 41891 01435 60204 10273 20260 39978 40016 70522 83340 333 59008 70000 83615 85365 81930==
41891,2024,06,21,21,00,AAXX 21214 41891 01430 80604 10269 20260 39982 40020 70522 8532/ 333 58000 70000 82710 84615 88458 81930==
41891,2024,06,22,00,00,AAXX 22004 41891 21430 80804 10268 20268 39983 40021 70562 8532/ 333 58003 60025 70020 82710 84615 88458 81930==
41891,2024,06,22,03,00,AAXX 22034 41891 01330 80000 10275 20270 39998 40034 76062 8632/ 333 20266 58002 70020 85708 88457 81926==
41891,2024,06,22,06,00,AAXX 22064 41891 11440 70804 10285 20270 39994 40032 60001 70562 84370 333 58008 70020 84615 86460 81930==
41891,2024,06,22,09,00,AAXX 22094 41891 01456 51205 10313 20270 39968 40005 70522 84430 333 58003 70020 83616 85362==
41891,2024,06,22,12,00,AAXX 22124 41891 01456 51704 10305 20240 39959 49997 70522 84430 333 10324 58005 70020 83616 85365==
41891,2024,06,22,15,00,AAXX 22154 41891 01940 00404 10280 20260 39980 40018 70521 333 58000 70000==
41891,2024,06,22,18,00,AAXX 22184 41891 01430 30204 10273 20250 39996 40034 71321 82330 333 58018 70020 81616 83365 81930==
41891,2024,06,22,21,00,AAXX 22214 41891 01430 80404 10273 20250 39991 40029 70522 8532/ 333 58014 70020 81710 83616 88458 81930==
41891,2024,06,23,00,00,AAXX 23004 41891 01430 82904 10273 20260 39997 40035 70522 8632/ 333 58014 70000 82710 83616 88458 81930==
41891,2024,06,23,03,00,AAXX 23034 41891 01435 72904 10295 20260 30007 40045 70522 85370 333 20270 58009 70000 82710 83616 87458 81930==
41891,2024,06,23,06,00,AAXX 23064 41891 01440 72906 10306 20260 39994 40032 70522 85370 333 58000 70000 82710 83616 86458 81930==
41891,2024,06,23,09,00,AAXX 23094 41891 01445 61804 10338 20270 39968 40005 70522 83340 333 58000 70000 83615 85365 81930==
41891,2024,06,23,12,00,AAXX 23124 41891 01435 80404 10307 20270 39954 49991 70522 8532/ 333 10347 59005 70000 81710 84615 88459 81930==
41891,2024,06,23,15,00,AAXX 23154 41891 01430 50000 10292 20270 39971 40009 70522 82330 333 59009 70000 82615 85365 81930==
41891,2024,06,23,18,00,AAXX 23184 41891 01430 80602 10285 20270 39988 40018 70522 8532/ 333 59006 70000 81710 84616 88458 81930==
41891,2024,06,23,21,00,AAXX 23214 41891 01430 80902 10280 20270 39978 40016 70522 8552/ 333 59013 70000 85617 88458==
41891,2024,06,24,00,00,AAXX 24004 41891 21430 82605 10271 20260 39978 40016 79596 8632/ 333 59019 60047 70041 82710 85616 88458 81928==
41891,2024,06,24,03,00,AAXX 24034 41891 01325 82706 10270 20260 39989 40027 76596 8632/ 333 20265 59018 70551 86708 88458 81925==
41891,2024,06,24,06,00,AAXX 24064 41891 11440 51804 10315 20270 39985 40022 60556 70596 82330 333 59009 70551 82615 85365 81930==
41891,2024,06,24,09,00,AAXX 24094 41891 01450 51204 10316 20270 39963 40000 70522 83370 333 59005 70551 82616 85365 81930==
41891,2024,06,24,12,00,AAXX 24124 41891 01440 72908 10299 20270 39958 49996 70522 83370 333 10333 58004 70551 82710 83616 86458 81930==
41891,2024,06,24,15,00,AAXX 24154 41891 01430 81804 10288 20280 39979 40017 70522 8532/ 333 58008 70551 81710 84615 88458 81930==
41891,2024,06,24,18,00,AAXX 24184 41891 01430 82104 10284 20270 39984 40022 70522 8532/ 333 59004 70551 82710 84615 88458 81930==
41891,2024,06,24,21,00,AAXX 24214 41891 21320 80904 10280 20270 39985 40023 79596 8632/ 333 56999 58007 6002/ 70573 86708 81925 88458=
41891,2024,06,25,00,00,AAXX 25004 41891 11320 80603 10275 20270 39983 40021 60069 76196 8632/ 333 56999 58005 70568 86708 81925 88458=
41891,2024,06,25,03,00,AAXX 25034 41891 21320 80904 10275 20270 39990 40028 76166 8632/ 333 20270 58001 60069 70108 86708 88457 81925==
41891,2024,06,25,06,00,AAXX 25064 41891 01330 81604 10305 20280 39981 40019 76166 8632/ 333 59004 70108 86708 88458 81925==
41891,2024,06,25,09,00,AAXX 25094 41891 01430 80304 10314 20260 39961 49998 70562 8532/ 333 59002 70118 86710 88458 81930==
41891,2024,06,25,12,00,AAXX 25124 41891 11440 80504 10313 20270 39953 49990 60016 70562 8552/ 333 10325 59005 70118 85617 88458==
41891,2024,06,25,15,00,AAXX 25154 41891 01440 60704 10285 20277 39972 40010 70522 83340 333 59007 70118 83615 85365 81930==
41891,2024,06,25,18,00,AAXX 25184 41891 01430 70804 10280 20270 39981 40019 70522 84340 333 59003 70118 84615 86365 81930==
41891,2024,06,25,21,00,AAXX 25214 41891 01430 80502 10276 20270 39978 40016 70522 8532/ 333 59007 70096 82710 84616 88459 81930==
41891,2024,06,26,00,00,AAXX 26004 41891 01430 80203 10273 20270 39976 40014 70522 8532/ 333 59007 70060 82710 84616 88459 81930==
41891,2024,06,26,03,00,AAXX 26034 41891 01440 52004 10325 20280 39993 40030 70522 83370 333 20271 58003 70010 81710 83616 85365 81930==
41891,2024,06,26,06,00,AAXX 26064 41891 01450 62004 10340 20260 39979 40016 70522 84370 333 59002 70010 82615 86365 81930==
41891,2024,06,26,09,00,AAXX 26094 41891 01445 73605 10338 20280 39959 49996 70522 84370 333 59002 70000 81710 84615 86365 81930==
41891,2024,06,26,12,00,AAXX 26124 41891 01320 80604 10290 20280 39968 40006 79592 8632/ 333 10355 58015 70160 86708 88458 81925==
41891,2024,06,26,15,00,AAXX 26154 41891 01430 80903 10276 20270 39989 40027 76195 8672/ 333 58017 70387 83710 83616 88458==
41891,2024,06,26,18,00,AAXX 26184 41891 01430 81902 10275 20260 30002 40040 70562 8532/ 333 58021 70387 82710 84616 88458 81930==
41891,2024,06,26,21,00,AAXX 26214 41891 01430 81602 10270 20260 30003 40041 70522 8442/ 333 58025 70387 83616 88458==
41891,2024,06,27,00,00,AAXX 27004 41891 01430 80904 10275 20270 30003 40041 70522 8552/ 333 58010 70387 85617 88458==
41891,2024,06,27,03,00,AAXX 27034 41891 01330 80904 10275 20270 30020 40058 76162 8632/ 333 20272 58027 70507 86708 88457 81926==
41891,2024,06,27,06,00,AAXX 27064 41891 11445 62704 10305 20260 30008 40046 60156 70562 83340 333 58029 70533 83615 85365 81930==
41891,2024,06,27,09,00,AAXX 27094 41891 01445 80704 10305 20260 39981 40019 70522 8532/ 333 58022 70533 82710 83616 88459 81930==
41891,2024,06,27,12,00,AAXX 27124 41891 01440 80204 10300 20260 39980 40018 70522 8532/ 333 10334 58012 70377 82710 83616 88459 81930==
41891,2024,06,27,15,00,AAXX 27154 41891 01430 82704 10278 20270 30008 40046 72122 8532/ 333 58019 70164 82710 84615 88458 81930==
41891,2024,06,27,18,00,AAXX 27184 41891 01320 80504 10263 20250 30015 40053 76162 8632/ 333 58013 70316 86708 88458 81925==
41891,2024,06,27,21,00,AAXX 27214 41891 01430 80604 10266 20260 30012 40050 70562 8532/ 333 58009 70324 82710 84615 88458 81930==
41895,2024,06,21,00,00,AAXX 21004 41895 02450 80901 10262 20250 39992 40014 8452/ 333 58021 70000 84615 88458==
41895,2024,06,21,03,00,AAXX 21034 41895 02456 61302 10302 20250 30005 40027 83520 333 20260 58008 70000 83616 86458==
41895,2024,06,21,06,00,AAXX 21064 41895 02456 61301 10324 20250 39999 40021 83520 333 58015 70000 83616 86458==
41895,2024,06,21,09,00,AAXX 21094 41895 02456 81402 10353 20250 39974 49996 8452/ 333 58013 70000 84616 88458==
41895,2024,06,21,12,00,AAXX 21124 41895 02456 40000 10320 20270 39969 49990 84500 333 10355 58007 70000 84616==
41895,2024,06,21,15,00,AAXX 21154 41895 02450 61801 10295 20280 39988 40010 84520 333 58001 70000 84616 86458==
41895,2024,06,21,18,00,AAXX 21184 41895 02450 60000 10290 20280 39991 40013 84520 333 59004 70000 84616 86458==
41895,2024,06,21,21,00,AAXX 21214 41895 02450 60000 10289 20280 39989 40011 84520 333 59004 70000 84616 86458==
41895,2024,06,22,00,00,AAXX 22004 41895 02456 80000 10288 20280 39986 40008 8452/ 333 59006 70000 84616 88458==
41895,2024,06,22,03,00,AAXX 22034 41895 01450 80902 10280 20270 30001 40024 79592 8532/ 333 20278 59004 70002 84615 88458 81930==
41895,2024,06,22,06,00,AAXX 22064 41895 21456 60503 10326 20270 39997 40019 70196 83510 333 59002 69925 70002 83616 86458==
41895,2024,06,22,09,00,AAXX 22094 41895 02450 80904 10315 20270 39978 49999 8452/ 333 58004 70002 84616 88458==
41895,2024,06,22,12,00,AAXX 22124 41895 02956 30903 10300 20260 39970 49992 80001 333 10330 58001 70002 83080==
41895,2024,06,22,15,00,AAXX 22154 41895 02950 00902 10282 20270 39995 40017 333 58007 70002==
41895,2024,06,22,18,00,AAXX 22184 41895 02950 00902 10278 20270 30004 40026 333 58013 70002==
41895,2024,06,22,21,00,AAXX 22214 41895 02450 50903 10279 20270 30011 40033 83510 333 58022 70002 83616 85458==
41895,2024,06,23,00,00,AAXX 23004 41895 02450 61802 10280 20270 30004 40026 83510 333 58018 70002 83616 86458==
41895,2024,06,23,03,00,AAXX 23034 41895 02557 30000 10324 20260 30011 40033 83200 333 20274 58010 70002 83820==
41895,2024,06,23,06,00,AAXX 23064 41895 02558 30902 10361 20240 39996 40017 83200 333 59001 70000 83820==
41895,2024,06,23,09,00,AAXX 23094 41895 02557 31302 10367 20240 39972 49993 83200 333 59006 70000 83820==
41895,2024,06,23,12,00,AAXX 23124 41895 02456 60902 10355 20270 39956 49978 83520 333 10380 59014 70000 83616 86458==
41895,2024,06,23,15,00,AAXX 23154 41895 02450 31302 10317 20280 39979 40001 83500 333 59016 70000 83616==
41895,2024,06,23,18,00,AAXX 23184 41895 32950 01301 10300 20290 39989 40011 333 59015 70000=
41895,2024,06,23,19,00,AAXX 23194 41895 02950 01301 10300 20290 39989 40011 333 59015 70000==
41895,2024,06,23,21,00,AAXX 23214 41895 02950 01301 10290 20270 39993 40015 333 59018 70000==
41895,2024,06,24,00,00,AAXX 24004 41895 02950 01301 10282 20270 39992 40014 333 59012 70000==
41895,2024,06,24,03,00,AAXX 24034 41895 02457 51803 10324 20270 39998 40019 84401 333 20278 59013 70000 82616 83820 85074==
41895,2024,06,24,06,00,AAXX 24064 41895 02458 41303 10362 20250 39988 40009 84300 333 59008 70000 81616 83825 81930==
41895,2024,06,24,09,00,AAXX 24094 41895 02558 31302 10380 20240 39960 49981 82201 333 59012 70000 82825==
41895,2024,06,24,12,00,AAXX 24124 41895 02956 30504 10355 20270 39953 49975 80001 333 10387 59003 70000 83074==
41895,2024,06,24,15,00,AAXX 24154 41895 02950 30000 10313 20270 39978 49992 80001 333 59001 70000 83074==
41895,2024,06,24,18,00,AAXX 24184 41895 02550 32701 10300 20270 39990 40012 82201 333 58001 70000 82825==
41895,2024,06,24,21,00,AAXX 24214 41895 32550 30000 10294 20270 39988 40010 82201 333 56909 59005 70000 82825=
41895,2024,06,25,00,00,AAXX 25004 41895 01550 30901 10290 20280 39985 40007 70511 82201 333 59007 70000 82825==
41895,2024,06,25,03,00,AAXX 25034 41895 02456 51302 10332 20270 39990 40012 82502 333 20282 59008 70000 82616 84080==
41895,2024,06,25,06,00,AAXX 25064 41895 02456 61802 10354 20260 39983 40005 84410 333 59005 70000 83616 86458==
41895,2024,06,25,09,00,AAXX 25094 41895 02456 60903 10358 20260 39958 49979 84410 333 59002 70000 83616 86458==
41895,2024,06,25,12,00,AAXX 25124 41895 02456 60902 10345 20270 39950 49971 84520 333 10380 59003 70000 84616 86458==
41895,2024,06,25,15,00,AAXX 25154 41895 02450 50901 10316 20286 39969 49990 82502 333 59009 70000 82616 84080==
41895,2024,06,25,18,00,AAXX 25184 41895 02450 40000 10305 20290 39991 40013 84500 333 58001 70000 84616==
41895,2024,06,25,21,00,AAXX 25214 41895 02450 60501 10300 20280 39984 40006 84520 333 59004 70000 84616 86458==
41895,2024,06,26,00,00,AAXX 26004 41895 02456 60901 10290 20280 39986 40008 84520 333 58001 70000 84616 86458==
41895,2024,06,26,03,00,AAXX 26034 41895 02457 30902 10343 20260 30000 40022 83400 333 20286 58010 70000 82616==
41895,2024,06,26,06,00,AAXX 26064 41895 02457 40503 10380 20250 39993 40014 84800 333 58010 70000 82616 83825==
41895,2024,06,26,09,00,AAXX 26094 41895 02457 40902 10395 20240 39974 49995 84800 333 58016 70000 82616 83825==
41895,2024,06,26,12,00,AAXX 26124 41895 02450 80904 10322 20270 39970 49992 8452/ 333 10396 58020 70000 84615 88458==
41895,2024,06,26,15,00,AAXX 26154 41895 02450 80902 10305 20280 39993 40015 8452/ 333 58024 70000 84615 88458==
41895,2024,06,26,18,00,AAXX 26184 41895 02450 81802 10300 20280 30014 40036 8452/ 333 58023 70000 84615 88458==
41895,2024,06,26,21,00,AAXX 26214 41895 02450 61302 10293 20280 30007 40029 84520 333 58023 70000 84616 86458==
41895,2024,06,27,00,00,AAXX 27004 41895 01450 50000 10285 20280 30006 40028 70521 84401 333 58020 70000 82616 83820 85074==
41895,2024,06,27,03,00,AAXX 27034 41895 01456 60903 10314 20270 30018 40040 70522 84430 333 20280 58018 70000 82616 83820 85362==
41895,2024,06,27,06,00,AAXX 27064 41895 02458 60903 10345 20270 30010 40032 85330 333 58017 70000 82615 83820 81930==
41895,2024,06,27,09,00,AAXX 27094 41895 02458 50904 10354 20250 39988 40009 84830 333 58014 70000 81616 83820==
41895,2024,06,27,12,00,AAXX 27124 41895 02456 61302 10337 20250 39984 40006 83520 333 10362 59006 70000 83616 86458==
41895,2024,06,27,18,00,AAXX 27184 41895 02450 31302 10294 20260 30016 40038 83500 333 58002 70000 83616==
41895,2024,06,27,21,00,AAXX 27214 41895 02450 60902 10286 20270 39996 40018 83520 333 59011 70000 83616 86458==
41897,2024,06,21,00,00,AAXX 21004 41897 32450 70000 10255 20250 30000 40013 84610 333 56990 58016 70015 82620 86460=
41897,2024,06,21,06,00,AAXX 21064 41897 32456 70000 10305 20250 30000 40013 84310 333 56990 58012 70000 82620 86460=
41897,2024,06,21,12,00,AAXX 21124 41897 NIL=
41897,2024,06,21,18,00,AAXX 21184 41897 32456 80000 10290 20270 39995 40008 84310 333 56990 58002 70000 82620 81930 88460=
41897,2024,06,22,00,00,AAXX 22004 41897 32456 80000 10280 20270 30000 40013 84310 333 56990 58000 70000 82620 81930 88460=
41897,2024,06,22,06,00,AAXX 22064 41897 11440 82202 10270 20250 30002 40015 60014 79592 8432/ 333 56999 58012 70010 81710 82620 81930 88460=
41897,2024,06,22,12,00,AAXX 22124 41897 32456 52202 10290 20270 39985 49998 84410 333 10300 56990 58010 70010 82620 84460=
41897,2024,06,22,18,00,AAXX 22184 41897 32456 50000 10275 20260 30002 40015 84410 333 56990 58007 70010 82620 84460=
41897,2024,06,23,00,00,AAXX 23004 41897 32456 80000 10268 20260 30002 40015 84310 333 56990 58003 70010 82620 88460=
41897,2024,06,23,06,00,AAXX 23064 41897 32456 80000 10330 20260 30006 40019 8432/ 333 56999 58004 70000 81710 83620 81930 88460=
41897,2024,06,23,12,00,AAXX 23124 41897 11456 60000 10330 20250 39972 49985 60016 70296 84610 333 10360 56990 59015 70006 82620 84460=
41897,2024,06,23,18,00,AAXX 23184 41897 31456 50000 10295 20280 39995 40018 71311 83310 333 56990 59010 70006 82620 81930 84460=
41897,2024,06,24,00,00,AAXX 24004 41897 32456 50000 10270 20260 30000 40013 83310 333 56990 59010 70006 82620 84460=
41897,2024,06,24,06,00,AAXX 24064 41897 32456 51402 10350 20250 39985 40008 83310 333 56990 59011 70006 82620 84460=
41897,2024,06,24,12,00,AAXX 24124 41897 32956 31301 10340 20260 39963 49976 83030 333 10370 56090 59009 70000 83363=
41897,2024,06,24,18,00,AAXX 24184 41897 31945 01602 10300 20260 30000 40012 70500 333 58004 70000=
41897,2024,06,25,00,00,AAXX 25004 41897 31935 31701 10287 20270 39993 40006 70500 83030 333 56090 59009 70000 83362=
41897,2024,06,25,06,00,AAXX 25064 41897 32450 31501 10347 20250 39994 40006 83400 333 56900 59001 70000 82617 83828=
41897,2024,06,25,12,00,AAXX 25124 41897 32956 40901 10338 20250 39965 49977 84030 333 10375 56090 58002 70000 84363=
41897,2024,06,25,18,00,AAXX 25184 41897 32950 20000 10302 20270 30001 40014 82030 333 56090 58001 70000 82362=
41897,2024,06,26,00,00,AAXX 26004 41897 31935 31501 10287 20280 39995 40008 70500 83030 333 56090 58002 70000 83363=
41897,2024,06,26,06,00,AAXX 26064 41897 32556 21001 10356 20250 30000 40013 82200 333 56900 58006 70000 82828=
41897,2024,06,26,12,00,AAXX 26124 41897 11450 80901 10306 20260 39981 49994 60046 70296 8352/ 333 10362 56999 58016 70040 83616 87459=
41897,2024,06,26,18,00,AAXX 26184 41897 32945 31201 10295 20280 30023 40036 83030 333 56090 58022 70040 83360=
41897,2024,06,27,00,00,AAXX 27004 41897 32435 70000 10285 20280 30015 40028 82530 333 56990 58020 70040 82618 87360=
41897,2024,06,27,06,00,AAXX 27064 41897 11340 80901 10285 20280 30025 40038 60044 76162 8562/ 333 56999 58025 70080 83708 85613 88458=
41897,2024,06,27,12,00,AAXX 27124 41897 32450 30902 10320 20260 30000 40013 81510 333 10345 56990 58019 70040 81618=
41897,2024,06,27,18,00,AAXX 27184 41897 31940 00000 10295 20288 30032 40045 70500 333 58009 70040=
41902,2024,06,21,00,00,AAXX 21004 41902 32450 10501 10267 20250 30014 40023 81500 333 56900 58009 70340 81616=
41902,2024,06,21,06,00,AAXX 21064 41902 NIL=
41902,2024,06,21,12,00,AAXX 21124 41902 32440 10501 10303 20260 39981 49989 81500 333 10325 56900 59011 70000 81614=
41902,2024,06,21,18,00,AAXX 21184 41902 NIL=
41902,2024,06,22,00,00,AAXX 22004 41902 32930 40501 10276 20270 39997 40006 84030 333 56090 59013 70000 84030=
41902,2024,06,22,06,00,AAXX 22064 41902 32440 60502 10320 20270 30008 40016 82530 333 56990 59005 70000 82614 85362=
41902,2024,06,22,12,00,AAXX 22124 41902 32440 30501 10304 20260 39987 49995 81530 333 10331 56990 58006 70000 81614=
41902,2024,06,22,18,00,AAXX 22184 41902 32430 30501 10279 20270 30006 40014 82530 333 56990 58007 70000 82614=
41902,2024,06,23,00,00,AAXX 23004 41902 32430 10501 10276 20276 30008 40016 81500 333 56900 58007 70000 81614=
41902,2024,06,23,06,00,AAXX 23064 41902 32440 20501 10327 20290 30006 40015 82500 333 56900 59002 70000 82614=
41902,2024,06,23,12,00,AAXX 23124 41902 32440 20501 10319 20280 39978 49987 82500 333 10340 56900 59009 70000 82614=
41902,2024,06,23,18,00,AAXX 23184 41902 NIL=
41902,2024,06,24,00,00,AAXX 24004 41902 32430 30501 10286 20280 30001 40010 82530 333 56990 59007 70000 82614=
41902,2024,06,24,06,00,AAXX 24064 41902 32440 30901 10320 20280 30002 40011 81530 333 56990 59004 70000 81614 83362=
41902,2024,06,24,12,00,AAXX 24124 41902 32450 80000 10317 20290 39980 49989 8352/ 10348 56999 59002 70000 83615 88458=
41902,2024,06,24,18,00,AAXX 24184 41902 32440 72202 10300 20270 30001 40009 83520 333 56999 58004 70000 83615 87459=
41902,2024,06,25,00,00,AAXX 25004 41902 32440 61502 10290 20270 39997 40006 82530 333 56990 59004 70000 82616 86362=
41902,2024,06,25,06,00,AAXX 25064 41902 32450 60902 10332 20280 39996 40005 82430 333 56990 59006 70000 82616 86362=
41902,2024,06,25,12,00,AAXX 25124 41902 32450 70502 10315 20280 39982 49991 83520 333 10355 56990 58002 70000 83615 87459=
41902,2024,06,25,18,00,AAXX 25184 41902 32440 53101 10297 20280 30000 40009 82530 333 56990 59001 70000 82615 85362=
41902,2024,06,26,00,00,AAXX 26004 41902 32440 72702 10291 20280 30000 40009 83520 333 56990 58003 70000 83614 87459=
41902,2024,06,26,06,00,AAXX 26064 41902 11450 71802 10300 20270 30004 40013 60363 76196 83520 333 56990 58008 70361 83614 87459=
41902,2024,06,26,12,00,AAXX 26124 41902 32450 71802 10305 20270 39988 49997 83520 333 10339 56990 58006 70361 83615 87456=
41902,2024,06,26,18,00,AAXX 26184 41902 32440 71804 10292 20270 30020 40028 83520 333 56990 58020 70361 83615 87459=
41902,2024,06,27,00,00,AAXX 27004 41902 32450 71802 10287 20260 30019 40028 83510 333 56990 58019 70361 83615 87459=
41902,2024,06,27,06,00,AAXX 27064 41902 32456 70501 10320 20260 30028 40037 83510 333 56990 58024 70000 83615 87459=
41902,2024,06,27,12,00,AAXX 27124 41902 32456 60502 10315 20270 30008 40017 82530 333 10332 56990 58020 70000 82616 86362=
41902,2024,06,27,18,00,AAXX 27184 41902 11440 81804 10290 20250 30023 40032 69998 70296 8352/ 333 56999 58003 70009 83615 88458=
41907,2024,06,21,00,00,AAXX 21004 41907 42450 80000 10260 20240 39994 40009 8552/ 333 58017 85615 88458==
41907,2024,06,21,03,00,AAXX 21034 41907 42450 81302 10295 20250 30009 40023 8552/ 333 20245 58011 85615 88458==
41907,2024,06,21,06,00,AAXX 21064 41907 02450 81302 10325 20260 30001 40016 8552/ 333 58010 70000 85615 88458==
41907,2024,06,21,09,00,AAXX 21094 41907 02456 60000 10340 20250 39977 49991 83510 333 58009 70000 83615 85458==
41907,2024,06,21,12,00,AAXX 21124 41907 02456 10000 10335 20260 39969 49983 81500 333 10348 58000 70000 81615==
41907,2024,06,21,15,00,AAXX 21154 41907 02440 80000 10305 20280 39991 40006 8552/ 333 58000 70000 85615 88458==
41907,2024,06,21,18,00,AAXX 21184 41907 02440 80000 10300 20270 39999 40013 8552/ 333 58000 70000 85615 88458==
41907,2024,06,21,21,00,AAXX 21214 41907 02440 80000 10295 20280 39992 40006 8552/ 333 59004 70000 85615 88458==
41907,2024,06,22,00,00,AAXX 22004 41907 02340 82302 10285 20280 39987 40002 8662/ 333 59007 70000 82709 85615 88458==
41907,2024,06,22,03,00,AAXX 22034 41907 01350 80000 10290 20270 30007 40021 76192 8662/ 333 20270 59002 70035 83709 85615 88458==
41907,2024,06,22,06,00,AAXX 22064 41907 11350 80000 10313 20270 30000 40014 60046 70296 8662/ 333 59001 70040 83709 85615 88458==
41907,2024,06,22,09,00,AAXX 22094 41907 01450 60502 10310 20260 39983 49998 70162 83510 333 58006 70045 83615 84458==
41907,2024,06,22,12,00,AAXX 22124 41907 11450 41302 10315 20270 39974 49989 69956 70162 82530 333 10320 58005 70045 82615 83362==
41907,2024,06,22,15,00,AAXX 22154 41907 02940 00000 10280 20270 39997 40012 333 58006 70045==
41907,2024,06,22,18,00,AAXX 22184 41907 02440 70000 10282 20270 30007 40022 85510 333 58008 70045 85615 87458==
41907,2024,06,22,21,00,AAXX 22214 41907 02440 60000 10280 20270 39998 40013 84510 333 58006 70045 84615 85458==
41907,2024,06,23,00,00,AAXX 23004 41907 02450 70000 10278 20270 30006 40020 85510 333 58019 70045 85615 86458==
41907,2024,06,23,03,00,AAXX 23034 41907 02450 61302 10320 20250 30015 40030 84830 333 20275 58008 70010 82615 83825==
41907,2024,06,23,06,00,AAXX 23064 41907 02450 61302 10355 20270 30003 40017 86800 333 58003 70005 83615 83825==
41907,2024,06,23,09,00,AAXX 23094 41907 02550 30902 10375 20250 39976 49990 83500 333 59007 70000 83825==
41907,2024,06,23,12,00,AAXX 23124 41907 02450 60000 10355 20260 39963 49977 83811 333 10377 59011 70000 82615 83458 85080==
41907,2024,06,23,15,00,AAXX 23154 41907 02440 60000 10340 20260 39982 49996 85510 333 59001 70000 83615 86458==
41907,2024,06,23,18,00,AAXX 23184 41907 02940 00000 10305 20270 39960 49974 333 59047 70000==
41907,2024,06,23,21,00,AAXX 23214 41907 02440 40000 10295 20270 39947 49961 82510 333 59051 70000 82615 84458==
41907,2024,06,24,00,00,AAXX 24004 41907 02440 71802 10283 20270 39999 40013 85510 333 59007 70000 85615 87458==
41907,2024,06,24,03,00,AAXX 24034 41907 02456 51802 10315 20270 30004 40018 85400 333 20277 59011 70000 82615 83825==
41907,2024,06,24,06,00,AAXX 24064 41907 02456 31802 10355 20260 39991 40005 83800 333 59012 70000 81615 83825==
41907,2024,06,24,09,00,AAXX 24094 41907 02456 41802 10375 20260 39967 49981 84800 333 59009 70000 82615 83825==
41907,2024,06,24,12,00,AAXX 24124 41907 02456 41302 10355 20260 39958 49972 84800 333 10380 59005 70000 82615==
41907,2024,06,24,15,00,AAXX 24154 41907 02940 00000 10315 20270 39983 49998 333 58001 70000==
41907,2024,06,24,18,00,AAXX 24184 41907 02440 20000 10300 20270 39995 40009 82500 333 58036 70000 82615==
41907,2024,06,24,21,00,AAXX 24214 41907 32440 50000 10296 20280 39987 40002 82510 333 56990 58040 70000 82615 85458=
41907,2024,06,25,00,00,AAXX 25004 41907 32345 81802 10286 20260 39984 49999 8662/ 333 56599 59015 70000 83709 85615 88458=
41907,2024,06,25,03,00,AAXX 25034 41907 02450 61802 10330 20280 39995 40010 84830 333 20285 59009 70000 82615 83362==
41907,2024,06,25,06,00,AAXX 25064 41907 02456 51802 10370 20250 39987 40001 85800 333 59004 70000 82615 83825==
41907,2024,06,25,09,00,AAXX 25094 41907 02456 61302 10372 20240 39961 49975 83801 333 59006 70000 82615 84080==
41907,2024,06,25,12,00,AAXX 25124 41907 02456 71302 10360 20250 39954 49968 82502 333 10380 59004 70000 82615 86080==
41907,2024,06,25,15,00,AAXX 25154 41907 02940 00000 10323 20260 39974 49988 333 59009 70000==
41907,2024,06,25,18,00,AAXX 25184 41907 02440 71303 10300 20270 39995 40010 85510 333 58000 70000 85615 85458==
41907,2024,06,25,21,00,AAXX 25214 41907 02440 81302 10295 20280 39990 40004 8552/ 333 58003 70000 85615 88458==
41907,2024,06,26,00,00,AAXX 26004 41907 02440 70000 10285 20280 39989 40003 85510 333 58005 70000 85615 85458==
41907,2024,06,26,03,00,AAXX 26034 41907 02450 51302 10325 20270 30003 40018 83811 333 20280 58008 70000 83615 85458==
41907,2024,06,26,06,00,AAXX 26064 41907 02456 51802 10365 20250 39996 40011 333 58009 70000 82615 83825==
41907,2024,06,26,09,00,AAXX 26094 41907 02356 81302 10325 20280 39981 49996 8662/ 333 58020 70000 82709 85615 88458==
41907,2024,06,26,12,00,AAXX 26124 41907 02456 60000 10320 20270 39971 49985 83510 333 10370 58017 70000 83615 86458==
41907,2024,06,26,15,00,AAXX 26154 41907 02340 81302 10300 20270 39995 40010 8662/ 333 58021 70000 82709 85615 88458==
41907,2024,06,26,18,00,AAXX 26184 41907 02340 81302 10298 20280 30016 40031 8662/ 333 58021 70000 82709 85615 88458==
41907,2024,06,26,21,00,AAXX 26214 41907 02440 40000 10290 20270 30002 40017 82530 333 58012 70000 82615 83362==
41907,2024,06,27,00,00,AAXX 27004 41907 02/50 50000 10280 20270 30005 40020 85030 333 58016 70000 85362==
41907,2024,06,27,03,00,AAXX 27034 41907 02450 61803 10315 20270 30022 40036 84510 333 20278 58019 70000 84615 85458==
41907,2024,06,27,06,00,AAXX 27064 41907 02450 81804 10340 20270 30018 40032 8551/ 333 58022 70000 85615 88458==
41907,2024,06,27,09,00,AAXX 27094 41907 02450 51305 10353 20250 39995 40009 85800 333 58014 70000 82615 83825==
41907,2024,06,27,12,00,AAXX 27124 41907 02450 60902 10330 20250 39991 40005 85810 333 10364 58020 70000 84615 85458==
41907,2024,06,27,15,00,AAXX 27154 41907 01440 40000 10290 20280 30003 40018 70162 84500 333 58008 70020 84615==
41907,2024,06,27,18,00,AAXX 27184 41907 11440 70000 10285 20280 30013 40027 60026 70362 85510 333 59003 70020 85615 87458==
41907,2024,06,27,21,00,AAXX 27214 41907 02440 60000 10277 20270 30005 40020 85510 333 58003 70020 85615 86458==
41909,2024,06,21,00,00,AAXX 21004 41909 02450 80000 10256 20250 30001 40012 8552/ 333 58015 70195 85614 88458==
41909,2024,06,21,03,00,AAXX 21034 41909 02350 81301 10273 20250 30017 40028 8552/ 333 20248 58012 70195 85614 88458==
41909,2024,06,21,06,00,AAXX 21064 41909 02456 61801 10324 20250 30007 40018 82510 333 58003 70015 82615 86458==
41909,2024,06,21,09,00,AAXX 21094 41909 02456 50000 10336 20260 39982 49994 82530 333 58002 70005 82615 85360==
41909,2024,06,21,12,00,AAXX 21124 41909 02956 00000 10331 20260 39973 49985 333 10341 58000 70005==
41909,2024,06,21,15,00,AAXX 21154 41909 02440 30000 10302 20260 39994 40005 81530 333 59002 70000 81615 83360==
41909,2024,06,21,18,00,AAXX 21184 41909 02430 81301 10292 20260 30001 40012 8552/ 333 59008 70000 85614 88458==
41909,2024,06,21,21,00,AAXX 21214 41909 02430 81301 10284 20260 39997 40008 8552/ 333 59004 70000 84614 88458==
41909,2024,06,22,00,00,AAXX 22004 41909 02450 81301 10278 20260 39993 40004 8552/ 333 59008 70000 85614 88458==
41909,2024,06,22,03,00,AAXX 22034 41909 02350 80000 10294 20260 30012 40023 8562/ 333 20264 59005 70000 84708 88458==
41909,2024,06,22,06,00,AAXX 22064 41909 21350 80000 10264 20260 30019 40030 79595 8672/ 333 58012 61017 71010 85708 88458 81928==
41909,2024,06,22,09,00,AAXX 22094 41909 01456 20000 10306 20280 39991 40002 70196 81530 333 58009 71080 81615 82360==
41909,2024,06,22,12,00,AAXX 22124 41909 11456 50000 10308 20270 39978 49989 60076 70396 83530 333 10324 58005 71080 83615 85360==
41909,2024,06,22,15,00,AAXX 22154 41909 02940 00000 10287 20270 30000 40011 333 58006 71080==
41909,2024,06,22,18,00,AAXX 22184 41909 02330 80000 10285 20260 30015 40026 8562/ 333 58014 71080 84708 88458==
41909,2024,06,22,21,00,AAXX 22214 41909 02330 80000 10282 20260 30013 40024 8562/ 333 58016 71080 84708 88458==
41909,2024,06,23,00,00,AAXX 23004 41909 02350 80000 10280 20260 30011 40022 8562/ 333 58018 71080 84708 88458==
41909,2024,06,23,03,00,AAXX 23034 41909 02456 51802 10321 20270 30021 40032 82530 333 20258 58009 70070 82615 85360==
41909,2024,06,23,06,00,AAXX 23064 41909 02456 51802 10344 20250 30009 40020 82530 333 59010 70070 82615 85360==
41909,2024,06,23,09,00,AAXX 23094 41909 02456 51802 10352 20250 39986 49998 82530 333 59005 70000 82615 85360==
41909,2024,06,23,12,00,AAXX 23124 41909 02450 80000 10330 20270 39969 49981 8562/ 333 10355 59009 70000 84708 88458==
41909,2024,06,23,15,00,AAXX 23154 41909 02940 00000 10305 20270 39994 40005 333 59006 70000==
41909,2024,06,23,18,00,AAXX 23184 41909 32940 00000 10285 20270 30011 40022 333 59002 70000=
41909,2024,06,23,19,00,AAXX 23194 41909 02940 00000 10285 20270 30011 40022 333 59002 70000==
41909,2024,06,23,21,00,AAXX 23214 41909 02940 00000 10285 20270 30011 40022 333 59002 70000==
41909,2024,06,24,00,00,AAXX 24004 41909 02450 50000 10280 20260 30002 40013 83530 333 59009 70000 83615 85360==
41909,2024,06,24,03,00,AAXX 24034 41909 02456 51802 10321 20260 30011 40022 82530 333 20275 59010 70000 82615 85360==
41909,2024,06,24,06,00,AAXX 24064 41909 02456 51802 10344 20260 30001 40012 82530 333 59008 70000 82615 85360==
41909,2024,06,24,09,00,AAXX 24094 41909 02456 60000 10360 20260 39973 49985 83310 333 59013 70000 83615 84460 81930==
41909,2024,06,24,12,00,AAXX 24124 41909 02/56 30000 10352 20250 39966 49978 83030 333 10370 59003 70000 83365==
41909,2024,06,24,15,00,AAXX 24154 41909 02450 10000 10315 20270 39987 49998 81500 333 59007 70000 81615==
41909,2024,06,24,18,00,AAXX 24184 41909 02440 40000 10298 20260 30002 40013 82530 333 59005 70000 82615 83365==
41909,2024,06,24,21,00,AAXX 24214 41909 32940 30000 10293 20260 39989 40000 83030 333 56090 59022 70000 83365=
41909,2024,06,25,00,00,AAXX 25004 41909 32456 10000 10285 20270 39991 40002 81500 333 56200 59011 70000 81615=
41909,2024,06,25,03,00,AAXX 25034 41909 02456 10000 10314 20270 30004 40015 81500 333 20280 59007 70000 81615==
41909,2024,06,25,06,00,AAXX 25064 41909 02456 51802 10350 20250 39997 40009 82530 333 59004 70000 82615 85360==
41909,2024,06,25,09,00,AAXX 25094 41909 02456 51802 10364 20250 39968 49979 83830 333 59005 70000 83615 84360==
41909,2024,06,25,12,00,AAXX 25124 41909 02456 50000 10339 20270 39965 49976 82310 333 10368 59001 70000 82615 85458 81930==
41909,2024,06,25,15,00,AAXX 25154 41909 02440 41802 10308 20270 39986 49997 82530 333 59001 70000 82615 83360==
41909,2024,06,25,18,00,AAXX 25184 41909 02440 40000 10298 20270 30006 40017 82530 333 58004 70000 82615 83360==
41909,2024,06,25,21,00,AAXX 25214 41909 02/40 20000 10292 20260 30000 40011 82030 333 58011 70000 82360==
41909,2024,06,26,00,00,AAXX 26004 41909 02456 40000 10289 20270 39998 40009 81530 333 58007 70000 81615 83360==
41909,2024,06,26,03,00,AAXX 26034 41909 02456 40000 10324 20260 30007 40018 81530 333 20280 58003 70000 81615 83360==
41909,2024,06,26,06,00,AAXX 26064 41909 02456 40000 10351 20250 30002 40014 81530 333 58005 70000 81615 83360==
41909,2024,06,26,09,00,AAXX 26094 41909 02456 50000 10330 20270 39990 40002 82530 333 58022 70000 82615 85360==
41909,2024,06,26,12,00,AAXX 26124 41909 02450 80000 10330 20260 39981 49993 8452/ 333 10360 58016 70000 83614 88458==
41909,2024,06,26,15,00,AAXX 26154 41909 02330 81301 10308 20260 30002 40013 8562/ 333 58016 70000 84708 88458==
41909,2024,06,26,18,00,AAXX 26184 41909 02330 81301 10300 20260 30023 40034 8562/ 333 58017 70000 84708 88458==
41909,2024,06,26,21,00,AAXX 26214 41909 02330 80000 10290 20270 30016 40027 8362/ 333 58016 70000 82708 84615 88458==
41909,2024,06,27,00,00,AAXX 27004 41909 02350 80000 10288 20270 30013 40024 8462/ 333 58015 70000 83708 84615 88458==
41909,2024,06,27,03,00,AAXX 27034 41909 02356 80000 10301 20270 30031 40042 8462/ 333 20275 58024 70000 83708 84615 88458==
41909,2024,06,27,06,00,AAXX 27064 41909 02356 81302 10327 20260 30028 40039 8462/ 333 58026 70000 83708 84615 88458==
41909,2024,06,27,09,00,AAXX 27094 41909 02356 81302 10348 20250 30007 40019 8462/ 333 58017 70000 83708 84515 88458==
41909,2024,06,27,12,00,AAXX 27124 41909 02350 80000 10340 20260 39994 40006 8462/ 333 10350 58013 70000 83708 84615 88458==
41909,2024,06,27,15,00,AAXX 27154 41909 02440 50000 10308 20270 30016 40027 82530 333 58014 70000 82615 85360==
41909,2024,06,27,18,00,AAXX 27184 41909 02440 50000 10293 20270 30025 40036 82530 333 58002 70000 82615 85360==
41909,2024,06,27,21,00,AAXX 27214 41909 02440 50000 10290 20270 30020 40031 82530 333 58004 70000 82615 85360==
41915,2024,06,21,00,00,AAXX 21004 41915 02450 80000 10262 20260 39998 40023 8562/ 333 58008 70018 82712 84615 88458==
41915,2024,06,21,03,00,AAXX 21034 41915 02456 60000 10295 20270 30008 40033 85410 333 20250 58001 70018 84616 85458==
41915,2024,06,21,06,00,AAXX 21064 41915 02456 70000 10318 20250 39998 40022 85470 333 59003 70018 84616 85458==
41915,2024,06,21,09,00,AAXX 21094 41915 02456 42804 10322 20270 39973 49997 84400 333 59002 70000 83616==
41915,2024,06,21,12,00,AAXX 21124 41915 02456 41503 10320 20270 39971 49995 84400 333 10330 59004 70000 83616==
41915,2024,06,21,15,00,AAXX 21154 41915 02450 60000 10285 20280 39992 40017 84470 333 59004 70000 83616 84458==
41915,2024,06,21,18,00,AAXX 21184 41915 NIL=
41915,2024,06,21,21,00,AAXX 21214 41915 02450 81302 10275 20270 39996 40021 8552/ 333 58000 70000 85616 88458==
41915,2024,06,22,00,00,AAXX 22004 41915 01456 80000 10270 20260 39998 40023 70262 8552/ 333 58000 70010 85616 88458==
41915,2024,06,22,03,00,AAXX 22034 41915 02456 41604 10290 20260 30008 40033 84400 333 20266 58000 70011 83616==
41915,2024,06,22,06,00,AAXX 22064 41915 02456 41303 10312 20260 39998 40023 84400 333 58000 70011 83615==
41915,2024,06,22,09,00,AAXX 22094 41915 02456 63602 10328 20270 39974 49999 86330 333 58001 70011 85615 81928==
41915,2024,06,22,12,00,AAXX 22124 41915 02456 30000 10310 20270 39970 49994 83401 333 10335 59001 70011 82616==
41915,2024,06,22,15,00,AAXX 22154 41915 02450 30000 10293 20260 39994 40019 83300 333 58002 70011 82615 81930==
41915,2024,06,22,18,00,AAXX 22184 41915 21350 80000 10270 20260 30009 40034 71792 8491/ 333 58010 60085 70095 83709 88460 81925==
41915,2024,06,22,21,00,AAXX 22214 41915 02450 80000 10270 20260 30006 40031 8441/ 333 58010 70095 83615 81860==
41915,2024,06,23,03,00,AAXX 23034 41915 02456 71302 10310 20270 30017 40042 86370 333 20264 58009 70084 85615 83460 81928==
41915,2024,06,23,06,00,AAXX 23064 41915 02456 72302 10323 20270 30007 40032 85370 333 58009 70084 84615 84460 81928==
41915,2024,06,23,09,00,AAXX 23094 41915 01456 60000 10300 20280 39981 40006 71762 85310 333 58007 70151 84616 81928==
41915,2024,06,23,12,00,AAXX 23124 41915 21456 60000 10322 20270 39968 49993 70296 84430 333 10344 59002 60078 70151 83616 85362==
41915,2024,06,23,15,00,AAXX 23154 41915 02450 70000 10292 20280 39989 40014 85420 333 59005 70151 84615 87458==
41915,2024,06,23,18,00,AAXX 23184 41915 31450 80000 10288 20280 39994 40019 71792 8591/ 333 56999 59015 70067 84615 81925 88460=
41915,2024,06,23,19,00,AAXX 23194 41915 01450 80000 10288 20280 39994 40019 71792 8591/ 333 59015 70067 84615 88460 81925==
41915,2024,06,23,21,00,AAXX 23214 41915 01450 60000 10282 20270 39995 40020 70192 83510 333 59011 70067 83616 85460==
41915,2024,06,24,00,00,AAXX 24004 41915 01/56 50000 10275 20270 30000 40025 70192 82032 333 59008 70067 82362 84080==
41915,2024,06,24,03,00,AAXX 24034 41915 02456 71502 10305 20260 30007 40032 85470 333 20272 59010 70067 84616 85458==
41915,2024,06,24,06,00,AAXX 24064 41915 02456 70000 10335 20260 39992 40017 85470 333 59014 70067 84616 85458==
41915,2024,06,24,09,00,AAXX 24094 41915 02356 70000 10340 20250 39967 49992 85310 333 59014 70000 84709 86460 81930==
41915,2024,06,24,12,00,AAXX 24124 41915 01456 70000 10290 20260 39973 49998 71792 84910 333 10357 58005 70000 84710 86460 81925==
41915,2024,06,24,18,00,AAXX 24184 41915 01450 80000 10277 20270 30002 40027 70392 8542/ 333 58008 70000 84616 88458==
41915,2024,06,24,21,00,AAXX 24214 41915 32456 70000 10275 20270 39999 40021 85420 333 56990 58004 70000 84616 86458=
41915,2024,06,25,00,00,AAXX 25004 41915 32456 60000 10269 20260 39996 40019 84471 333 56999 59006 70000 83616 83458=
41915,2024,06,25,03,00,AAXX 25034 41915 02456 61203 10314 20260 30002 40027 84430 333 20267 59005 70000 83616 85363==
41915,2024,06,25,06,00,AAXX 25064 41915 01356 61404 10322 20270 39998 40013 71722 84910 333 59004 70000 83709 85460 81925==
41915,2024,06,25,09,00,AAXX 25094 41915 01456 73403 10330 20260 39966 49990 70392 85370 333 59001 70000 84615 85460 81928==
41915,2024,06,25,12,00,AAXX 25124 41915 01450 70000 10276 20270 39970 49995 76196 85320 333 10340 59003 70080 84615 87458 81928==
41915,2024,06,25,15,00,AAXX 25154 41915 02450 70000 10280 20270 39984 40009 84410 333 59012 70078 83615 86460==
41915,2024,06,25,18,00,AAXX 25184 41915 02450 70000 10275 20270 39994 40019 84470 333 59008 70078 83616 85458==
41915,2024,06,25,21,00,AAXX 25214 41915 02450 70000 10275 20270 39990 40015 84470 333 59009 70078 83616 85458==
41915,2024,06,26,00,00,AAXX 26004 41915 02456 60000 10280 20270 39992 40017 84430 333 59002 70078 83616 85362==
41915,2024,06,26,03,00,AAXX 26034 41915 02456 60000 10316 20280 39996 40021 85401 333 20273 59006 70078 84616==
41915,2024,06,26,06,00,AAXX 26064 41915 02456 60000 10340 20260 39991 40015 85310 333 58002 70078 84616 81928==
41915,2024,06,26,09,00,AAXX 26094 41915 01456 71301 10285 20280 39984 40009 70396 84370 333 58018 70319 83616 85458 81928==
41915,2024,06,26,12,00,AAXX 26124 41915 01456 71302 10275 20270 39984 40009 70296 85370 333 10346 58014 70255 84616 85458 81928==
41915,2024,06,26,15,00,AAXX 26154 41915 02450 81302 10267 20260 30006 40031 8542/ 333 58022 70255 84616 88458==
41915,2024,06,26,18,00,AAXX 26184 41915 02450 80000 10265 20260 30016 40041 8542/ 333 58022 70255 84616 88458==
41915,2024,06,26,21,00,AAXX 26214 41915 02450 80000 10265 20260 30016 40041 8542/ 333 58026 70255 84616 88458==
41915,2024,06,27,00,00,AAXX 27004 41915 02456 70000 10270 20260 30016 40041 84570 333 58024 70255 84616 85458==
41915,2024,06,27,03,00,AAXX 27034 41915 02456 81401 10285 20260 30031 40056 8542/ 333 20262 58035 70255 84616 88458==
41915,2024,06,27,06,00,AAXX 27064 41915 NIL=
41915,2024,06,27,09,00,AAXX 27094 41915 02456 70000 10334 20260 39995 40020 85410 333 58011 70014 84616 86458==
41915,2024,06,27,12,00,AAXX 27124 41915 01456 80000 10280 20260 39994 40019 71722 8632/ 333 10337 58010 70001 85616 88458 81928==
41915,2024,06,27,18,00,AAXX 27184 41915 21440 80000 10265 20260 30026 40053 70262 8662/ 333 58014 60178 70166 86616 88458==
41915,2024,06,27,21,00,AAXX 27214 41915 02440 80000 10265 20260 30020 40045 8652/ 333 58004 70166 86616 88458==
41923,2024,06,21,00,00,AAXX 21004 41923 01340 70000 10264 20250 30007 40017 70522 84630 333 58010 70006 81709 83615 86360==
41923,2024,06,21,03,00,AAXX 21034 41923 02340 70000 10306 20250 30018 40028 84670 333 20254 58004 70006 82709 83615 86458==
41923,2024,06,21,06,00,AAXX 21064 41923 02440 70902 10337 20260 30007 40017 85330 333 58001 70006 82616 83824 85360 81930==
41923,2024,06,21,09,00,AAXX 21094 41923 42450 70902 10341 20250 39986 49996 84570 333 58005 84615 88460==
41923,2024,06,21,12,00,AAXX 21124 41923 41440 81802 10298 20250 39985 49995 71722 8532/ 333 10348 58004 85615 88459 81930==
41923,2024,06,21,15,00,AAXX 21154 41923 41440 82402 10297 20250 30003 40013 70592 8532/ 333 58003 85615 88459 81930==
41923,2024,06,21,18,00,AAXX 21184 41923 01440 82402 10294 20250 30008 40018 70592 8532/ 333 58000 70000 85615 88459 81930==
41923,2024,06,21,21,00,AAXX 21214 41923 01440 80000 10287 20260 30001 40011 70522 8532/ 333 59012 70000 85615 88460 81930==
41923,2024,06,22,00,00,AAXX 22004 41923 01440 82402 10285 20270 30001 40011 70562 8532/ 333 59006 70000 85615 88459 81930==
41923,2024,06,22,03,00,AAXX 22034 41923 01340 81202 10287 20270 30019 40029 79522 8692/ 333 20279 58001 70062 83708 84613 88458 81928==
41923,2024,06,22,06,00,AAXX 22064 41923 21340 82402 10278 20260 30017 40027 76196 8632/ 333 58010 60158 70146 83708 84613 88458 81928==
41923,2024,06,22,09,00,AAXX 22094 41923 02350 61802 10322 20250 39991 40001 84630 333 58005 70146 81709 83615 85360==
41923,2024,06,22,12,00,AAXX 22124 41923 11350 60000 10316 20270 39983 49993 60006 70262 84630 333 10331 59002 70146 81709 83615 85360==
41923,2024,06,22,15,00,AAXX 22154 41923 02/50 20000 10296 20270 30006 40016 82030 333 58003 70146 82360==
41923,2024,06,22,18,00,AAXX 22184 41923 02/40 20000 10290 20250 30025 40035 82030 333 58017 70146 82360==
41923,2024,06,22,21,00,AAXX 22214 41923 02440 50000 10280 20260 30015 40025 82530 333 58014 70146 82615 85360==
41923,2024,06,23,00,00,AAXX 23004 41923 02340 70000 10272 20260 30021 40031 84670 333 58020 70146 82709 83615 86458==
41923,2024,06,23,03,00,AAXX 23034 41923 02340 70000 10318 20260 30027 40037 84670 333 20270 58008 70084 82709 83615 86458==
41923,2024,06,23,06,00,AAXX 23064 41923 01350 70000 10334 20250 30014 40024 76122 84670 333 59003 70000 82709 83615 86458==
41923,2024,06,23,09,00,AAXX 23094 41923 42456 40000 10347 20250 39990 40000 83430 333 59001 82615 83360==
41923,2024,06,23,12,00,AAXX 23124 41923 42/56 31802 10332 20240 39976 49986 81030 333 10356 59007 81360 83080==
41923,2024,06,23,15,00,AAXX 23154 41923 42/50 30000 10310 20260 30003 40013 83030 333 59003 83360==
41923,2024,06,23,18,00,AAXX 23184 41923 42445 30000 10300 20260 30012 40022 81530 333 59013 81616 83360==
41923,2024,06,23,21,00,AAXX 23214 41923 42445 30000 10292 20260 30009 40019 81530 333 59006 81616 83360==
41923,2024,06,24,00,00,AAXX 24004 41923 42445 41802 10285 20270 30012 40022 81531 333 59009 81616 83360==
41923,2024,06,24,03,00,AAXX 24034 41923 42456 31803 10310 20260 30018 40028 83430 333 20284 59009 82616==
41923,2024,06,24,06,00,AAXX 24064 41923 02456 51802 10344 20240 30005 40015 83430 333 59009 70000 82615 83360==
41923,2024,06,24,09,00,AAXX 24094 41923 02456 52402 10349 20250 39980 49990 82530 333 59010 70000 82615 85365==
41923,2024,06,24,12,00,AAXX 24124 41923 01445 61802 10328 20250 39978 49988 70522 82530 333 10357 58002 70000 82615 86365==
41923,2024,06,24,15,00,AAXX 24154 41923 01440 82403 10312 20250 39996 40006 70522 8552/ 333 59007 70000 85615 88459==
41923,2024,06,24,18,00,AAXX 24184 41923 01440 81803 10301 20260 30007 40017 70522 8552/ 333 59005 70000 85615 88459==
41923,2024,06,24,21,00,AAXX 24214 41923 31440 80000 10295 20270 30000 40010 70522 8552/ 333 56999 59009 70000 85615 88459=
41923,2024,06,25,00,00,AAXX 25004 41923 31440 81802 10292 20270 30001 40011 70522 8552/ 333 56499 59011 70000 85615 88459=
41923,2024,06,25,03,00,AAXX 25034 41923 02456 62703 10332 20250 30012 40022 82530 333 20290 59006 70000 82615 86365==
41923,2024,06,25,06,00,AAXX 25064 41923 02/56 42402 10352 20240 30001 40011 84030 333 59004 70000 84365==
41923,2024,06,25,09,00,AAXX 25094 41923 02356 62202 10370 20230 39976 49985 84630 333 59004 70000 82709 83615 85360==
41923,2024,06,25,12,00,AAXX 25124 41923 01340 80602 10290 20260 39979 49989 79562 8592/ 333 10372 58001 70030 83709 84615 88458 81930==
41923,2024,06,25,15,00,AAXX 25154 41923 01440 50000 10288 20270 39997 40007 70162 82530 333 58001 70074 82615 85360==
41923,2024,06,25,18,00,AAXX 25184 41923 11/40 40000 10290 20260 30006 40016 60056 70162 84030 333 59001 70074 84360==
41923,2024,06,25,21,00,AAXX 25214 41923 02440 50000 10292 20260 30003 40013 82530 333 58003 70074 82615 85360==
41923,2024,06,26,00,00,AAXX 26004 41923 02340 80000 10296 20270 30012 40022 8632/ 333 58000 70074 83709 84615 88458 81930==
41923,2024,06,26,03,00,AAXX 26034 41923 02340 80000 10318 20270 30010 40020 8632/ 333 20277 59002 70074 83709 84615 88458 81930==
41923,2024,06,26,06,00,AAXX 26064 41923 01330 80000 10262 20250 30019 40029 79596 8692/ 333 58018 70610 83708 84614 88458 81930==
41923,2024,06,26,09,00,AAXX 26094 41923 01350 70000 10296 20270 39996 40006 70166 84670 333 59005 70616 82709 83615 86458==
41923,2024,06,26,12,00,AAXX 26124 41923 01350 80000 10302 20280 39991 40001 76062 8472/ 333 10320 58012 70690 82709 83615 88458==
41923,2024,06,26,15,00,AAXX 26154 41923 02350 70000 10296 20260 30013 40023 83670 333 58016 70642 81709 83615 85458==
41923,2024,06,26,18,00,AAXX 26184 41923 02445 60000 10290 20270 30031 40041 82530 333 58025 70642 82616 85360==
41923,2024,06,26,21,00,AAXX 26214 41923 02440 60000 10288 20270 30017 40027 82530 333 58014 70642 82615 85360==
41923,2024,06,27,00,00,AAXX 27004 41923 02340 61802 10285 20270 30022 40032 83630 333 58010 70642 81709 83615 85360==
41923,2024,06,27,03,00,AAXX 27034 41923 02456 61303 10313 20240 30037 40047 82530 333 20258 58027 70642 82616 85360==
41923,2024,06,27,06,00,AAXX 27064 41923 02356 70902 10322 20240 30033 40043 85370 333 58014 70030 82709 83615 88458 81930==
41923,2024,06,27,09,00,AAXX 27094 41923 42456 60902 10334 20230 30010 40020 83530 333 58014 83615 86365==
41923,2024,06,27,12,00,AAXX 27124 41923 02450 71202 10323 20240 30005 40015 84570 333 10342 58014 70000 83615 86365==
41923,2024,06,27,15,00,AAXX 27154 41923 01440 83302 10297 20250 30025 40035 71322 8532/ 333 58012 70000 85615 88459 81930==
41923,2024,06,27,18,00,AAXX 27184 41923 01340 83302 10288 20260 30028 40038 76022 8632/ 333 59003 70004 83708 84614 88458 81928==
41923,2024,06,27,21,00,AAXX 27214 41923 01440 83302 10287 20260 30019 40029 70562 8532/ 333 58002 70006 85615 88459 81930==
41926,2024,06,21,00,00,AAXX 21004 41926 02450 60000 10258 20250 39993 40007 83510 333 58019 70010 83618 85459==
41926,2024,06,21,03,00,AAXX 21034 41926 02450 70000 10282 20250 30011 40025 84510 333 20256 58016 70010 84615 87459==
41926,2024,06,21,06,00,AAXX 21064 41926 02450 70000 10306 20260 30003 40016 84510 333 58017 70010 84615 87459==
41926,2024,06,21,09,00,AAXX 21094 41926 02456 40000 10330 20260 39981 49994 84500 333 58013 70010 84615==
41926,2024,06,21,12,00,AAXX 21124 41926 02/50 30000 10317 20260 39974 49987 83030 333 10336 59002 70000 83362==
41926,2024,06,21,15,00,AAXX 21154 41926 02/50 50000 10295 20270 39991 40004 85030 333 59001 70000 85362==
41926,2024,06,21,18,00,AAXX 21184 41926 02450 60000 10285 20270 39996 40009 82510 333 58001 70000 82618 86459==
41926,2024,06,21,21,00,AAXX 21214 41926 02450 60000 10284 20260 39994 40007 81510 333 58001 70000 81618 86459==
41926,2024,06,22,00,00,AAXX 22004 41926 02450 60000 10280 20260 39989 40002 81510 333 59004 70000 81618 86459==
41926,2024,06,22,03,00,AAXX 22034 41926 02450 70000 10305 20280 30004 40017 84510 333 20276 59007 70000 84615 87459==
41926,2024,06,22,06,00,AAXX 22064 41926 01350 80000 10300 20280 30001 40014 79522 8492/ 333 59002 70020 82708 84615 88458 81930==
41926,2024,06,22,09,00,AAXX 22094 41926 41456 60000 10297 20270 39982 49995 70196 83310 333 58001 83617 86459 81930==
41926,2024,06,22,12,00,AAXX 22124 41926 11456 50000 10294 20260 39976 49989 60046 70196 82530 333 10335 58002 70058 82618 84362==
41926,2024,06,22,15,00,AAXX 22154 41926 02/50 30000 10280 20260 39996 40009 83030 333 58005 70058 83362==
41926,2024,06,22,18,00,AAXX 22184 41926 02450 60000 10278 20260 30009 40022 82510 333 58013 70058 82618 86459==
41926,2024,06,22,21,00,AAXX 22214 41926 02450 50000 10275 20260 30008 40022 81501 333 58014 70058 81618 85080==
41926,2024,06,23,00,00,AAXX 23004 41926 02950 30000 10270 20260 30009 40023 80001 333 58020 70058 83080==
41926,2024,06,23,03,00,AAXX 23034 41926 02456 50000 10323 20250 30018 40031 85400 333 20270 58014 70058 82618 83825==
41926,2024,06,23,06,00,AAXX 23064 41926 02457 51803 10352 20250 30005 40018 85400 333 58004 70040 82618 83825==
41926,2024,06,23,09,00,AAXX 23094 41926 02457 51801 10362 20260 39978 49991 85400 333 59004 70000 82618 83825==
41926,2024,06,23,12,00,AAXX 23124 41926 02456 50000 10330 20260 39969 49982 85400 333 10368 59007 70000 82618 83825==
41926,2024,06,23,15,00,AAXX 23154 41926 02450 30000 10315 20270 39992 40005 81530 333 59004 70000 81618 83362==
41926,2024,06,23,18,00,AAXX 23184 41926 32450 51801 10303 20270 39999 40012 81530 333 56990 59010 70000 81618 84362=
41926,2024,06,23,19,00,AAXX 23194 41926 02450 51801 10303 20270 39999 40012 81530 333 59010 70000 81618 84362==
41926,2024,06,23,21,00,AAXX 23214 41926 02/50 30000 10286 20270 39999 40012 83030 333 59009 70000 83362==
41926,2024,06,24,00,00,AAXX 24004 41926 02450 20000 10278 20270 30000 40013 82400 333 59009 70000 81618==
41926,2024,06,24,03,00,AAXX 24034 41926 02456 41801 10315 20270 30004 40017 84400 333 20277 59014 70000 82618 83820==
41926,2024,06,24,06,00,AAXX 24064 41926 02456 40000 10347 20230 39996 40009 84400 333 59009 70000 82618 83820==
41926,2024,06,24,09,00,AAXX 24094 41926 02456 40000 10366 20250 39969 49982 82401 333 59009 70000 81618 83080==
41926,2024,06,24,12,00,AAXX 24124 41926 02950 30000 10344 20250 39962 49975 80001 333 10375 59007 70000 83080==
41926,2024,06,24,15,00,AAXX 24154 41926 02950 31801 10307 20260 39985 49998 80001 333 59007 70000 83080==
41926,2024,06,24,18,00,AAXX 24184 41926 02950 21801 10290 20270 39997 40010 80001 333 59002 70000 82080==
41926,2024,06,24,21,00,AAXX 24214 41926 32950 20000 10285 20280 39992 40005 80001 333 56009 59007 70000 82080=
41926,2024,06,25,00,00,AAXX 25004 41926 02950 30000 10282 20270 39987 40000 80001 333 59013 70000 83080==
41926,2024,06,25,03,00,AAXX 25034 41926 02456 41801 10330 20260 39996 40009 81501 333 20282 59008 70000 81618 84080==
41926,2024,06,25,06,00,AAXX 25064 41926 02456 50000 10362 20250 39989 40002 84401 333 59007 70000 82618 83820==
41926,2024,06,25,09,00,AAXX 25094 41926 02457 51801 10368 20240 39959 49972 82401 333 59010 70000 81618 84080==
41926,2024,06,25,12,00,AAXX 25124 41926 02456 50000 10350 20250 39957 49970 81501 333 10375 59005 70000 81618 84080==
41926,2024,06,25,15,00,AAXX 25154 41926 02450 51802 10317 20270 39978 49991 82501 333 59007 70000 82618 85080==
41926,2024,06,25,18,00,AAXX 25184 41926 02450 31802 10300 20270 39996 40009 81501 333 59001 70000 81618 83080==
41926,2024,06,25,21,00,AAXX 25214 41926 02450 30000 10295 20280 39992 40005 81501 333 58000 70000 81618 83080==
41926,2024,06,26,00,00,AAXX 26004 41926 02450 50000 10289 20280 39991 40004 82501 333 58004 70000 82618 84080==
41926,2024,06,26,03,00,AAXX 26034 41926 02456 40000 10335 20260 30002 40015 82501 333 20284 58006 70000 82618 84080==
41926,2024,06,26,06,00,AAXX 26064 41926 02457 50000 10360 20230 30000 40013 84401 333 58011 70000 82618 83820==
41926,2024,06,26,09,00,AAXX 26094 41926 41456 70000 10355 20250 39980 49993 70362 85410 333 58021 82618 83820 87459==
41926,2024,06,26,12,00,AAXX 26124 41926 11456 50000 10323 20270 39977 49990 60006 70162 82510 333 10377 58020 82618 85459==
41926,2024,06,26,15,00,AAXX 26154 41926 42450 50000 10303 20260 30000 40013 82510 333 58022 82618 85459==
41926,2024,06,26,18,00,AAXX 26184 41926 42450 60000 10295 20270 30018 40031 83510 333 58022 83618 86459==
41926,2024,06,26,21,00,AAXX 26214 41926 42450 60000 10290 20270 30014 40027 82510 333 58022 82618 86459==
41926,2024,06,27,00,00,AAXX 27004 41926 42950 30000 10282 20220 30010 40023 80003 333 58019 83080==
41926,2024,06,27,03,00,AAXX 27034 41926 02456 60000 10318 20270 30019 40032 84430 333 20280 58017 70000 83618 85362==
41926,2024,06,27,06,00,AAXX 27064 41926 01456 61301 10336 20260 30018 40031 79522 84310 333 58018 70000 83618 86459 81930==
41926,2024,06,27,09,00,AAXX 27094 41926 42456 61502 10345 20260 39993 40006 85310 333 58013 84616 86459 81930==
41926,2024,06,27,12,00,AAXX 27124 41926 21450 51802 10315 20260 39992 40005 70162 82534 333 10375 58015 69965 70006 82618 83080==
41926,2024,06,27,15,00,AAXX 27154 41926 02/50 20000 10290 20260 30008 40021 82030 333 58008 70006 82362==
41926,2024,06,27,18,00,AAXX 27184 41926 02/50 20000 10285 20270 30012 40026 82030 333 58006 70006 82362==
41926,2024,06,27,21,00,AAXX 27214 41926 02450 20000 10282 20260 39992 40006 82500 333 59022 70006 82616==
41927,2024,06,21,00,00,AAXX 21004 41927 32456 80000 10250 20240 39992 40007 8452/ 333 56499 58013 70003 84616 88458=
41927,2024,06,21,06,00,AAXX 21064 41927 32456 81802 10304 20280 30006 40021 8452/ 333 56499 58009 84616 88458=
41927,2024,06,21,12,00,AAXX 21124 41927 32457 41801 10330 20250 39970 49984 82510 333 10344 56490 59003 70000 82618 84459=
41927,2024,06,21,18,00,AAXX 21184 41927 NIL=
41927,2024,06,22,00,00,AAXX 22004 41927 11430 81802 10268 20268 39992 40007 60214 76322 8452/ 333 56499 58000 70210 84616 88458=
41927,2024,06,22,06,00,AAXX 22064 41927 11457 61801 10315 20270 30001 40015 60086 70162 83510 333 56490 59005 70294 83617 85459=
41927,2024,06,22,12,00,AAXX 22124 41927 32457 50000 10310 20270 39976 49991 85400 333 10318 56500 58006 70294 82618 83825=
41927,2024,06,22,18,00,AAXX 22184 41927 32450 81001 10278 20260 39988 40003 8452/ 333 56499 59002 70294 84616 88458=
41927,2024,06,23,00,00,AAXX 23004 41927 32456 50000 10270 20260 30006 40021 82510 333 56490 58014 70084 82617 85459=
41927,2024,06,23,06,00,AAXX 23064 41927 32458 41801 10338 20260 30006 40020 82510 333 56490 58004 70000 82618 84459=
41927,2024,06,23,12,00,AAXX 23124 41927 32457 51801 10324 20260 39965 49979 83510 333 10357 56499 59011 70000 83617 84459=
41927,2024,06,23,18,00,AAXX 23184 41927 32956 31601 10295 20270 30000 40015 83010 333 56090 58012 70000 83459=
41927,2024,06,24,00,00,AAXX 24004 41927 32956 21901 10278 20270 30000 40015 80001 333 56009 59006 70000 82080=
41927,2024,06,24,06,00,AAXX 24064 41927 32458 41701 10340 20260 39993 40007 84400 333 56400 59013 70000 81618 83828=
41927,2024,06,24,12,00,AAXX 24124 41927 32457 61801 10328 20260 39963 49977 83510 333 10360 56490 59002 70000 83618 86459=
41927,2024,06,24,18,00,AAXX 24184 41927 32956 21701 10300 20270 39996 40011 82010 333 56090 59004 70000 82459=
41927,2024,06,25,00,00,AAXX 25004 41927 32956 30000 10287 20270 39995 40010 80001 333 56009 59005 70000 83080=
41927,2024,06,25,06,00,AAXX 25064 41927 32458 51802 10350 20250 39988 40002 85400 333 56400 59005 70000 82618 83828=
41927,2024,06,25,12,00,AAXX 25124 41927 32958 21601 10345 20270 39957 49971 82010 333 10368 56090 59006 70000 82459=
41927,2024,06,25,18,00,AAXX 25184 41927 32956 01501 10295 20270 39995 40010 333 59001 70000=
41927,2024,06,26,00,00,AAXX 26004 41927 32956 20000 10283 20270 39990 40005 80001 333 56009 59005 70000 82080=
41927,2024,06,26,06,00,AAXX 26064 41927 32458 51601 10347 20250 39999 40013 85400 333 56300 58011 70000 82618 83828=
41927,2024,06,26,12,00,AAXX 26124 41927 32457 61901 10315 20270 39978 49992 83510 333 10350 56490 58021 70000 83618 86459=
41927,2024,06,26,18,00,AAXX 26184 41927 NIL=
41927,2024,06,27,00,00,AAXX 27004 41927 32456 60000 10280 20270 30007 40022 83510 333 56490 58017 70000 83618 86459=
41927,2024,06,27,06,00,AAXX 27064 41927 32458 51601 10325 20260 30018 40032 83510 333 56490 58019 70000 83618 85459=
41927,2024,06,27,12,00,AAXX 27124 41927 32957 00000 10318 20260 39992 40007 333 10350 58014 70000=
41927,2024,06,27,18,00,AAXX 27184 41927 32956 00000 10286 20270 30012 40027 333 58009 70000=
41929,2024,06,21,00,00,AAXX 21004 41929 02456 60000 10258 20250 30005 40014 83570 333 58016 70084 83618==
41929,2024,06,21,03,00,AAXX 21034 41929 02456 80000 10286 20260 30006 40015 8351/ 333 20246 59001 70084 83618 88462==
41929,2024,06,21,06,00,AAXX 21064 41929 02456 60904 10335 20260 30003 40012 83570 333 59002 70084 83618==
41929,2024,06,21,09,00,AAXX 21094 41929 02456 33603 10348 20250 39983 49992 83510 333 58003 70000 83618==
41929,2024,06,21,12,00,AAXX 21124 41929 02456 41802 10311 20260 39984 49993 83510 333 10349 58001 70000 83618==
41929,2024,06,21,15,00,AAXX 21154 41929 02456 40000 10294 20260 39997 40006 83510 333 58000 70000 83618==
41929,2024,06,21,18,00,AAXX 21184 41929 02456 50000 10287 20270 30006 40015 83570 333 58002 70000 83618==
41929,2024,06,21,21,00,AAXX 21214 41929 02456 51303 10287 20270 39997 40006 83570 333 59008 70000 83618==
41929,2024,06,22,00,00,AAXX 22004 41929 02456 51303 10287 20270 39997 40006 83570 333 59008 70000 83618==
41929,2024,06,22,03,00,AAXX 22034 41929 02456 80000 10304 20270 30017 40026 8351/ 333 20271 58011 70000 83618 88462==
41929,2024,06,22,06,00,AAXX 22064 41929 02456 60905 10308 20270 30014 40023 83510 333 58011 70000 83618 85462==
41929,2024,06,22,09,00,AAXX 22094 41929 02456 40902 10338 20260 39991 40000 84410 333 58008 70000 82618==
41929,2024,06,22,12,00,AAXX 22124 41929 02556 30802 10326 20270 39982 49991 81240 333 10340 59002 70000 81825 83365==
41929,2024,06,22,15,00,AAXX 22154 41929 02/56 20000 10298 20280 30001 40010 82040 333 58004 70000 82365==
41929,2024,06,22,18,00,AAXX 22184 41929 02/56 20000 10289 20270 30020 40029 82040 333 58023 70000 82365==
41929,2024,06,22,21,00,AAXX 22214 41929 02/56 40000 10289 20270 30016 40025 84010 333 58019 70000 84462==
41929,2024,06,23,00,00,AAXX 23004 41929 02456 60000 10278 20270 30013 40022 83510 333 58015 70000 83618 85462==
41929,2024,06,23,03,00,AAXX 23034 41929 02456 52303 10333 20260 30025 40034 85410 333 20272 58008 70000 83825==
41929,2024,06,23,06,00,AAXX 23064 41929 02456 51304 10348 20260 30012 40021 85410 333 59002 70000 83825==
41929,2024,06,23,09,00,AAXX 23094 41929 02456 61304 10340 20270 39995 40004 85470 333 58004 70000 83825==
41929,2024,06,23,12,00,AAXX 23124 41929 02456 31802 10331 20260 39975 49984 83410 333 10353 59007 70000 82825==
41929,2024,06,23,15,00,AAXX 23154 41929 02/56 21802 10308 20270 39995 40004 82030 333 59006 70000 82365==
41929,2024,06,23,18,00,AAXX 23184 41929 32956 20000 10290 20270 30009 40018 82030 333 56090 59011 70000 82365=
41929,2024,06,23,19,00,AAXX 23194 41929 02/56 20000 10290 20270 30009 40018 82030 333 59011 70000 82365==
41929,2024,06,23,21,00,AAXX 23214 41929 02/56 20000 10290 20270 30004 40013 82030 333 59012 70000 82365==
41929,2024,06,24,00,00,AAXX 24004 41929 02/56 50000 10280 20270 30006 40015 85010 333 59007 70000 85462==
41929,2024,06,24,03,00,AAXX 24034 41929 02456 41802 10330 20270 30014 40023 84410 333 20274 59011 70000 83825==
41929,2024,06,24,06,00,AAXX 24064 41929 02456 50000 10341 20260 30007 40016 85410 333 59005 70000 83825==
41929,2024,06,24,09,00,AAXX 24094 41929 02456 51803 10359 20260 39978 49987 85410 333 59017 70000 83825==
41929,2024,06,24,12,00,AAXX 24124 41929 02456 61804 10338 20270 39974 49983 84410 333 10364 59001 70000 82618 83462==
41929,2024,06,24,15,00,AAXX 24154 41929 02/56 21802 10310 20270 39978 49987 82030 333 59017 70000 82365==
41929,2024,06,24,18,00,AAXX 24184 41929 02/56 20000 10295 20280 30005 40014 82030 333 59004 70000 82365==
41929,2024,06,24,21,00,AAXX 24214 41929 32956 21804 10295 20280 30000 40009 82030 333 56090 59004 70000 82365=
41929,2024,06,25,00,00,AAXX 25004 41929 32956 20000 10285 20280 39994 40003 82030 333 56090 59012 70000 82365=
41929,2024,06,25,03,00,AAXX 25034 41929 02456 61804 10315 20280 30009 40018 85470 333 20280 59005 70000 83618==
41929,2024,06,25,06,00,AAXX 25064 41929 02457 32702 10350 20250 30001 40010 83400 333 58006 70000 82618==
41929,2024,06,25,09,00,AAXX 25094 41929 02457 32302 10370 20240 39976 49985 83400 333 59002 70000 82618==
41929,2024,06,25,12,00,AAXX 25124 41929 02456 61804 10335 20280 39971 49980 85470 333 10372 59003 70000 83618==
41929,2024,06,25,15,00,AAXX 25154 41929 02/56 21802 10314 20280 39988 49997 82010 333 58010 70000 82462==
41929,2024,06,25,18,00,AAXX 25184 41929 02/56 20000 10298 20280 30004 40013 82010 333 59001 70000 82462==
41929,2024,06,25,21,00,AAXX 25214 41929 02/56 21802 10298 20280 30001 40010 82010 333 58001 70000 82462==
41929,2024,06,26,00,00,AAXX 26004 41929 02456 50000 10290 20280 39998 40007 82570 333 58004 70000 82618==
41929,2024,06,26,03,00,AAXX 26034 41929 02456 61804 10325 20270 30011 40020 85410 333 20285 58002 70000 83825==
41929,2024,06,26,06,00,AAXX 26064 41929 02456 71304 10339 20270 30010 40019 83510 333 58009 70000 83618 87462==
41929,2024,06,26,09,00,AAXX 26094 41929 02456 70902 10330 20260 39993 40002 83510 333 58017 70000 83618 87462==
41929,2024,06,26,12,00,AAXX 26124 41929 02/56 40904 10328 20270 39985 49994 84010 333 10340 58014 70000 84462==
41929,2024,06,26,15,00,AAXX 26154 41929 02/56 21302 10304 20270 30013 40022 82010 333 58025 70000 82462==
41929,2024,06,26,18,00,AAXX 26184 41929 02/56 50904 10292 20270 30027 40036 85010 333 58023 70000 85462==
41929,2024,06,26,21,00,AAXX 26214 41929 02/56 50902 10292 20270 30020 40029 85010 333 58019 70000 85462==
41929,2024,06,27,00,00,AAXX 27004 41929 02456 60902 10285 20270 30015 40024 83570 333 58017 70000 83618==
41929,2024,06,27,03,00,AAXX 27034 41929 02456 81402 10316 20270 30031 40040 8351/ 333 20282 58020 70000 83618 88462==
41929,2024,06,27,06,00,AAXX 27064 41929 02456 71402 10326 20270 30028 40037 83510 333 58018 70000 83618 87462==
41929,2024,06,27,09,00,AAXX 27094 41929 02456 71402 10342 20260 30009 40018 83410 333 58016 70000 82618 87462==
41929,2024,06,27,12,00,AAXX 27124 41929 02456 71503 10330 20240 30003 40013 83410 333 10345 58018 70000 82616 87462==
41929,2024,06,27,15,00,AAXX 27154 41929 02456 71702 10300 20250 30020 40030 84510 333 58017 70000 84618 87462==
41929,2024,06,27,18,00,AAXX 27184 41929 02456 71702 10294 20260 30024 40034 84510 333 59003 70000 84618 87462==
41929,2024,06,27,21,00,AAXX 27214 41929 02456 71402 10290 20270 30014 40024 84570 333 59006 70000 84618 84462==
41933,2024,06,21,00,00,AAXX 21004 41933 02440 80000 10265 20260 30007 40015 8452/ 333 58013 70300 84616 88458==
41933,2024,06,21,03,00,AAXX 21034 41933 02456 60000 10285 20270 30021 40029 84320 333 20244 58000 70300 84618 86458==
41933,2024,06,21,06,00,AAXX 21064 41933 02456 61801 10306 20270 30014 40022 84520 333 58000 70300 84618 86458==
41933,2024,06,21,09,00,AAXX 21094 41933 02456 80000 10315 20270 39993 40002 8451/ 333 59008 70292 84616 88457==
41933,2024,06,21,12,00,AAXX 21124 41933 42450 60000 10304 20260 39987 49996 83530 333 10320 58000 83616 85362==
41933,2024,06,21,15,00,AAXX 21154 41933 02/50 40000 10285 20270 30002 40100 84030 333 59001 70000 84362==
41933,2024,06,21,18,00,AAXX 21184 41933 02/50 50000 10276 20270 30007 40016 85030 333 59004 70000 85362==
41933,2024,06,21,21,00,AAXX 21214 41933 02450 70000 10272 20260 30002 40010 84520 333 59007 70000 84616 87458==
41933,2024,06,22,00,00,AAXX 22004 41933 02450 70000 10272 20260 30002 40010 84520 333 59007 70000 84616 87458==
41933,2024,06,22,03,00,AAXX 22034 41933 41350 80000 10275 20260 30015 40024 76162 8572/ 333 20260 59006 82709 83615 88458==
41933,2024,06,22,06,00,AAXX 22064 41933 21450 80000 10312 20260 30011 40020 70262 8452/ 333 59003 60045 70040 84616 88458==
41933,2024,06,22,09,00,AAXX 22094 41933 02456 61802 10312 20270 39996 40004 84520 333 58003 70040 84616 86458==
41933,2024,06,22,12,00,AAXX 22124 41933 02456 61802 10312 20270 39986 49994 84520 333 10324 59001 70040 84618 86458==
41933,2024,06,22,15,00,AAXX 22154 41933 02450 20000 10290 20280 30012 40021 82500 333 58010 70040 82618==
41933,2024,06,22,18,00,AAXX 22184 41933 02/50 20000 10281 20270 30024 40033 82030 333 58017 70040 82362==
41933,2024,06,22,21,00,AAXX 22214 41933 02/50 20000 10276 20270 30014 40023 82030 333 58012 70040 82362==
41933,2024,06,23,00,00,AAXX 23004 41933 02950 30000 10274 20260 30022 40031 80001 333 58021 70040 83074==
41933,2024,06,23,03,00,AAXX 23034 41933 02456 70000 10305 20280 30030 40039 84510 333 20270 58015 70040 84618 87459==
41933,2024,06,23,06,00,AAXX 23064 41933 02456 70000 10305 20280 30030 40039 84510 333 20270 58015 70040 84618 87459==
41933,2024,06,23,09,00,AAXX 23094 41933 02456 51803 10340 20260 39990 49999 84430 333 59006 70000 82618 83826==
41933,2024,06,23,12,00,AAXX 23124 41933 02456 41903 10330 20260 39979 49988 84400 333 10345 59007 70000 83618==
41933,2024,06,23,15,00,AAXX 23154 41933 02450 40000 10296 20270 30002 40010 84400 333 59010 70000 83618==
41933,2024,06,23,18,00,AAXX 23184 41933 NIL=
41933,2024,06,23,21,00,AAXX 23214 41933 02450 60000 10280 20270 30004 40012 84520 333 59010 70000 84618 86458==
41933,2024,06,24,00,00,AAXX 24004 41933 02450 61802 10276 20270 30006 40014 84520 333 59016 70000 84618 86458==
41933,2024,06,24,03,00,AAXX 24034 41933 02456 50000 10315 20270 30019 40028 84401 333 20275 59011 70000 83618==
41933,2024,06,24,06,00,AAXX 24064 41933 02456 51801 10334 20250 30008 40016 84430 333 59007 70000 82616 83822==
41933,2024,06,24,09,00,AAXX 24094 41933 01456 61802 10324 20260 39984 49993 70396 84440 333 59006 70084 82618 83826 85362==
41933,2024,06,24,12,00,AAXX 24124 41933 11450 50000 10310 20270 39979 49989 60086 70196 82530 333 10340 58000 70084 82616 85362==
41933,2024,06,24,15,00,AAXX 24154 41933 01450 50000 10290 20280 30003 40011 70296 84530 333 58001 70084 82618 85362==
41933,2024,06,24,18,00,AAXX 24184 41933 11450 50000 10290 20280 30010 40018 60006 70296 82530 333 58009 70084 82618 85362==
41933,2024,06,24,21,00,AAXX 24214 41933 32450 60000 10285 20280 30005 40013 83520 333 56990 58001 70084 83618 86458=
41933,2024,06,25,00,00,AAXX 25004 41933 32450 60000 10280 20260 30003 40011 83520 333 56990 59003 70084 83618 86458=
41933,2024,06,25,03,00,AAXX 25034 41933 02456 72202 10305 20280 30017 40025 86830 333 20277 59002 70084 83618 83827 85362==
41933,2024,06,25,06,00,AAXX 25064 41933 02456 62502 10335 20270 30005 40013 85831 333 59003 70084 82618 83827==
41933,2024,06,25,09,00,AAXX 25094 41933 41456 40000 10326 20280 39982 49991 70162 84400 333 59002 82616 83822==
41933,2024,06,25,12,00,AAXX 25124 41933 11456 20000 10324 20270 39979 49988 60006 70162 82500 333 10350 58000 82616==
41933,2024,06,25,15,00,AAXX 25154 41933 42940 00000 10300 20280 39999 40008 333 59008==
41933,2024,06,25,18,00,AAXX 25184 41933 42940 00000 10290 20280 30001 40010 333 59009==
41933,2024,06,25,21,00,AAXX 25214 41933 42440 50000 10286 20280 39999 40008 82530 333 59006 82616 85362==
41933,2024,06,26,00,00,AAXX 26004 41933 42450 60000 10287 20280 30000 40008 83530 333 59003 83618 85362==
41933,2024,06,26,03,00,AAXX 26034 41933 41350 80000 10300 20280 30010 40018 79596 8692/ 333 20285 59007 82708 83615 88456 81928==
41933,2024,06,26,06,00,AAXX 26064 41933 21350 80000 10280 20270 30013 40022 76196 8572/ 333 58008 60069 70060 82709 83615 88456==
41933,2024,06,26,09,00,AAXX 26094 41933 01350 72202 10292 20280 39997 40005 76162 8577/ 333 58015 70065 82708 83615 85456==
41933,2024,06,26,12,00,AAXX 26124 41933 01350 80000 10285 20280 39999 40007 76062 8577/ 333 10302 58020 70069 82708 83615 86456==
41933,2024,06,26,15,00,AAXX 26154 41933 01450 50000 10280 20270 30015 40023 70162 82510 333 58016 70069 82616 85457==
41933,2024,06,26,18,00,AAXX 26184 41933 11450 40000 10274 20250 30025 40034 60006 70161 82510 333 58024 70069 82616==
41933,2024,06,26,21,00,AAXX 26214 41933 02450 20000 10275 20270 30019 40028 81510 333 58020 70069 81616==
41933,2024,06,27,00,00,AAXX 27004 41933 02450 50000 10273 20260 30025 40034 83510 333 58025 70069 83617 85458==
41933,2024,06,27,03,00,AAXX 27034 41933 02456 70000 10284 20250 30036 40045 84510 333 20265 58026 70069 84616 87459==
41933,2024,06,27,06,00,AAXX 27064 41933 42456 51802 10324 20250 30032 40041 84440 333 58019 83618 83826==
41933,2024,06,27,09,00,AAXX 27094 41933 01456 51902 10325 20270 30011 40020 70262 83510 333 58014 70004 83618 85458==
41933,2024,06,27,12,00,AAXX 27124 41933 11456 52002 10305 20260 30006 40014 60006 70262 83520 333 10335 58007 83618 85458==
41933,2024,06,27,15,00,AAXX 27154 41933 42456 32005 10283 20250 30031 40040 82530 333 58016 82618==
41933,2024,06,27,18,00,AAXX 27184 41933 42456 62006 10276 20260 30031 40040 83520 333 58006 83617 86457==
41933,2024,06,27,21,00,AAXX 27214 41933 42356 71702 10273 20260 30022 40031 86610 333 58003 84710 83617 85458==
41936,2024,06,21,00,00,AAXX 21004 41936 01314 61403 10256 20250 39998 40005 70522 84630 333 58018 70140 83708 83615 86362==
41936,2024,06,21,03,00,AAXX 21034 41936 01314 61705 10282 20260 30016 40020 70522 84630 333 20254 59003 70140 83708 83615 86362==
41936,2024,06,21,06,00,AAXX 21064 41936 01320 71605 10312 20270 30016 40020 70522 84630 333 58018 70140 83710 83615 85362==
41936,2024,06,21,09,00,AAXX 21094 41936 01930 72003 10322 20270 39987 49994 70522 85630 333 58013 70060 83710 83615 85362 83710==
41936,2024,06,21,12,00,AAXX 21124 41936 01435 42203 10322 20280 39978 49985 70522 82830 333 10336 59006 70030 82615 83362==
41936,2024,06,21,15,00,AAXX 21154 41936 01430 50000 10294 20270 39998 40002 70522 83830 333 58001 70030 83615 84362==
41936,2024,06,21,18,00,AAXX 21184 41936 01430 50000 10290 20280 30002 40009 70522 82830 333 58010 70000 82615 84362==
41936,2024,06,21,21,00,AAXX 21214 41936 01425 50000 10284 20260 39992 49999 70522 82830 333 58007 70000 82615 84362==
41936,2024,06,22,00,00,AAXX 22004 41936 01416 70000 10282 20260 39994 40001 70562 84630 333 59004 70000 82710 83615 85362==
41936,2024,06,22,03,00,AAXX 22034 41936 41435 51704 10310 20280 30006 40013 70562 83830 333 20278 59007 83615 85362==
41936,2024,06,22,06,00,AAXX 22064 41936 41440 51604 10336 20280 30001 40008 70522 83830 333 59007 83615 84362==
41936,2024,06,22,09,00,AAXX 22094 41936 41430 62708 10346 20270 39983 49989 76062 84730 333 59005 82710 83615 85362==
41936,2024,06,22,12,00,AAXX 22124 41936 01440 53603 10300 20270 39978 49985 70562 83830 333 10356 58000 70050 83615 84362==
41936,2024,06,22,15,00,AAXX 22154 41936 01440 40000 10288 20270 30001 40008 70562 82830 333 58003 70050 82615 83362==
41936,2024,06,22,18,00,AAXX 22184 41936 01440 40000 10286 20270 30005 40012 70521 82830 333 58003 70050 82615 83362==
41936,2024,06,22,21,00,AAXX 22214 41936 01425 40000 10282 20270 39996 40003 70511 82830 333 58004 70050 82615 83362==
41936,2024,06,23,00,00,AAXX 23004 41936 01/20 20000 10274 20260 30006 40013 70511 82030 333 58012 70050 82362==
41936,2024,06,23,03,00,AAXX 23034 41936 01430 32003 10316 20270 30020 40027 70511 82530 333 20274 58014 70050 82615==
41936,2024,06,23,06,00,AAXX 23064 41936 01450 40403 10338 20260 30008 40015 70521 83830 333 58007 70050 83615 83362==
41936,2024,06,23,09,00,AAXX 23094 41936 01450 51705 10354 20250 39988 49994 70521 83830 333 58005 70050 83615 84362==
41936,2024,06,23,12,00,AAXX 23124 41936 01450 41908 10334 20260 39974 49980 70521 82830 333 10360 59005 70000 82615 83362==
41936,2024,06,23,15,00,AAXX 23154 41936 01/50 21904 10300 20270 39991 49998 70511 82030 333 59010 70000 82362==
41936,2024,06,23,18,00,AAXX 23184 41936 01/50 20000 10290 20270 30004 40011 70511 82030 333 59001 70000 82362==
41936,2024,06,23,21,00,AAXX 23214 41936 01/50 20000 10284 20260 39996 40003 70511 82030 333 58000 70000 82362==
41936,2024,06,24,00,00,AAXX 24004 41936 01/16 20000 10280 20270 30002 40009 70511 82030 333 59004 70000 82362==
41936,2024,06,24,03,00,AAXX 24034 41936 01430 21003 10314 20270 30010 40017 70511 82530 333 20278 59010 70000 82615==
41936,2024,06,24,06,00,AAXX 24064 41936 01440 32307 10362 20270 30001 40007 70511 82330 333 59006 70000 82615==
41936,2024,06,24,09,00,AAXX 24094 41936 01450 32407 10362 20260 39974 49981 70511 82830 333 59013 70000 82615==
41936,2024,06,24,12,00,AAXX 24124 41936 01450 42006 10332 20270 39968 49975 70521 83830 333 20366 59005 70000 83615==
41936,2024,06,24,15,00,AAXX 24154 41936 01450 31704 10304 20260 39984 49991 70511 82530 333 59007 70000 82615==
41936,2024,06,24,18,00,AAXX 24184 41936 01450 31504 10294 20260 39990 49997 70511 82530 333 59014 70000 82615==
41936,2024,06,24,21,00,AAXX 24214 41936 31450 30000 10284 20260 39982 49989 70511 82530 333 56990 59014 70000 82615=
41936,2024,06,25,00,00,AAXX 25004 41936 31916 20000 10278 20270 39990 49997 70511 82030 333 56090 59012 70000 82362=
41936,2024,06,25,03,00,AAXX 25034 41936 01435 32605 10330 20270 30002 40009 70522 82830 333 20276 59008 70000 82615==
41936,2024,06,25,06,00,AAXX 25064 41936 01440 32307 10352 20250 39995 40001 70522 82830 333 59006 70000 82615==
41936,2024,06,25,09,00,AAXX 25094 41936 01450 32106 10372 20250 39973 49980 70522 82830 333 59001 70000 82615==
41936,2024,06,25,12,00,AAXX 25124 41936 01450 32207 10366 20240 39964 49971 70522 82830 333 10376 59004 70000 82615==
41936,2024,06,25,15,00,AAXX 25154 41936 01450 31806 10312 20270 39978 49985 70522 82830 333 59006 70000 82615==
41936,2024,06,25,18,00,AAXX 25184 41936 01450 41903 10300 20270 39999 40006 70522 82530 333 58009 70000 82615 83362==
41936,2024,06,25,21,00,AAXX 25214 41936 01450 40000 10290 20270 39993 40000 70522 82530 333 58011 70000 82615 83362==
41936,2024,06,26,00,00,AAXX 26004 41936 01/20 20000 10284 20270 39990 49997 70521 82030 333 58000 70000 82362==
41936,2024,06,26,03,00,AAXX 26034 41936 01/40 21804 10334 20260 30003 40001 70511 82030 333 20280 58001 70000 82362==
41936,2024,06,26,06,00,AAXX 26064 41936 01450 51703 10354 20250 30002 40009 70522 83830 333 58008 70000 83615 84362==
41936,2024,06,26,09,00,AAXX 26094 41936 01330 71308 10320 20270 39988 49995 79596 84920 333 58015 70010 83708 83615 86362 81930==
41936,2024,06,26,12,00,AAXX 26124 41936 01440 41604 10330 20270 39977 49984 70596 82830 333 10362 58013 70010 82615 83362==
41936,2024,06,26,15,00,AAXX 26154 41936 01440 41603 10308 20270 31000 40007 70522 82830 333 58022 70010 82615 83362==
41936,2024,06,26,18,00,AAXX 26184 41936 01430 41903 10294 20260 30014 40021 70522 82830 333 58015 70010 82615 83362==
41936,2024,06,26,21,00,AAXX 26214 41936 01420 41804 20270 30007 40014 70522 82830 333 58014 70010 82615 83362==
41936,2024,06,27,00,00,AAXX 27004 41936 01/30 20000 10280 20270 30011 40018 70522 82030 333 58021 70010 82362==
41936,2024,06,27,03,00,AAXX 27034 41936 01435 51207 10320 20270 30020 40027 70521 83830 333 20278 58017 70010 83615 84362==
41936,2024,06,27,06,00,AAXX 27064 41936 01440 41410 10342 20260 30015 40022 70521 83830 333 58013 70010 83615 83362==
41936,2024,06,27,09,00,AAXX 27094 41936 01318 71206 10278 20270 30008 40015 79596 86920 333 58020 70030 85706 83615 87460 81930==
41936,2024,06,27,12,00,AAXX 27124 41936 01440 41804 10304 20270 39994 40001 70596 81530 333 10344 58017 70030 81615 84362==
41936,2024,06,27,15,00,AAXX 27154 41936 01340 51703 10288 20280 30009 40016 70521 84630 333 58009 70030 84610 84362==
41936,2024,06,27,18,00,AAXX 27184 41936 01340 51403 10282 20270 30014 40021 70522 84630 333 58000 70030 82710 83615==
41936,2024,06,27,21,00,AAXX 27214 41936 01430 41400 10276 20270 30001 40008 70522 83830 333 59006 70030 83615 83362==
41938,2024,06,21,00,00,AAXX 21004 41938 31945 70000 10258 20258 30003 40007 70522 84072 333 56099 58013 70534 84460 85078=
41938,2024,06,21,06,00,AAXX 21064 41938 32456 70000 10320 20260 30008 40012 81571 333 56399 58007 70534 81618 83460 85362=
41938,2024,06,21,12,00,AAXX 21124 41938 11456 81801 10275 20260 39990 49994 60034 72162 8252/ 333 10335 56399 58001 70032 82617 88459=
41938,2024,06,21,18,00,AAXX 21184 41938 32456 50000 10275 20280 30006 40009 85070 333 56090 58008 70028 83460=
41938,2024,06,22,00,00,AAXX 22004 41938 32456 80000 10276 20270 30003 40007 8252/ 333 56999 58000 70028 82617 88458=
41938,2024,06,22,06,00,AAXX 22064 41938 32456 61801 10322 20260 30010 40014 81570 333 56990 58002 70028 81618 84460=
41938,2024,06,22,12,00,AAXX 22124 41938 32456 32001 10311 20260 39989 49993 81511 333 10332 56999 59001 70000 81617=
41938,2024,06,22,18,00,AAXX 22184 41938 32956 21801 10278 20270 30012 40016 82010 333 56090 58004 70000 82460=
41938,2024,06,23,00,00,AAXX 23004 41938 32956 60000 10276 20270 30013 40017 83011 333 56099 58010 70000 83460 84082=
41938,2024,06,23,06,00,AAXX 23064 41938 32456 61801 10320 20260 30018 40022 83410 333 56490 58008 70000 83617 84460=
41938,2024,06,23,12,00,AAXX 23124 41938 32457 31802 10310 20260 39987 49991 82431 333 10353 56499 59002 70000 82618=
41938,2024,06,23,18,00,AAXX 23184 41938 32956 20000 10284 20260 30009 40013 80002 333 56009 59003 70000 82080=
41938,2024,06,24,00,00,AAXX 24004 41938 32956 40000 10278 20270 30006 40010 80002 333 56009 59007 70000 84080=
41938,2024,06,24,06,00,AAXX 24064 41938 32458 52103 10345 20270 30004 40008 84402 333 56509 59014 70000 83618=
41938,2024,06,24,12,00,AAXX 24124 41938 11457 62103 10328 20270 39982 49986 69904 72921 83302 333 10358 56509 79999 81618 81930=
41938,2024,06,24,18,00,AAXX 24184 41938 32456 52002 10298 20270 30005 40009 81532 333 56599 59004 79999 81618 83080=
41938,2024,06,25,00,00,AAXX 25004 41938 31450 50000 10285 20280 39998 40002 70521 81502 333 56509 59008 79999 81618 85080=
41938,2024,06,25,06,00,AAXX 25064 41938 32457 52003 10349 20260 39998 40002 83432 333 56599 59006 79999 82618=
41938,2024,06,25,12,00,AAXX 25124 41938 32456 70000 10326 20270 39982 49986 81512 333 10362 56599 58000 70000 81618 83460 85079=
41938,2024,06,25,18,00,AAXX 25184 41938 32956 51701 10295 20280 39999 40003 83011 333 56099 58005 70000 83460 83080=
41938,2024,06,26,00,00,AAXX 26004 41938 11945 60000 10282 20270 39998 40002 69915 70562 83012 333 56099 58000 70001 83460 84080=
41938,2024,06,26,06,00,AAXX 26064 41938 32456 80000 10342 20260 30005 40009 8441/ 333 56399 58007 70001 82618 83824 88460=
41938,2024,06,26,12,00,AAXX 26124 41938 32456 81701 10307 20270 39993 49997 8152/ 333 10350 56399 58010 70001 81618 88459=
41938,2024,06,26,18,00,AAXX 26184 41938 32456 41802 10292 20270 30019 40023 81511 333 56499 58020 70001 81618 83080=
41938,2024,06,27,00,00,AAXX 27004 41938 32456 51602 10287 20270 30018 40022 81471 333 56399 58020 70000 81617 83080=
41938,2024,06,27,06,00,AAXX 27064 41938 32457 50902 10332 20270 30019 40023 82471 333 56299 58014 70000 81617 83080=
41938,2024,06,27,12,00,AAXX 27124 41938 11457 61403 10310 20260 30003 40007 60083 70196 84472 333 10335 56399 58010 70082 82616 85080=
41938,2024,06,27,18,00,AAXX 27184 41938 11456 71401 10283 20260 30019 40023 69916 70162 82520 333 56390 58000 70083 82616 87460=
41939,2024,06,21,00,00,AAXX 21004 41939 02457 40000 10257 20250 30009 40017 82530 333 58018 70760==
41939,2024,06,21,03,00,AAXX 21034 41939 02458 50000 10285 20260 30022 40030 83530 333 20240 58004 70000 83618 83364==
41939,2024,06,21,06,00,AAXX 21064 41939 02459 30000 10340 20260 30010 40018 81530 333 59006 70760 81618 83364==
41939,2024,06,21,09,00,AAXX 21094 41939 02458 50000 10330 20260 39992 40000 83530 333 58003 70760 83617 83364==
41939,2024,06,21,12,00,AAXX 21124 41939 01456 80000 10285 20270 39991 49999 70362 8352/ 333 10340 58004 70010 83618 88459==
41939,2024,06,21,15,00,AAXX 21154 41939 02440 50000 10280 20260 30002 40010 82530 333 59001 70007 82618 83365==
41939,2024,06,21,18,00,AAXX 21184 41939 02440 40000 10275 20270 30006 40014 81530 333 59007 70007 81618 83365==
41939,2024,06,22,00,00,AAXX 22004 41939 01450 80000 10270 20260 30007 40015 76122 8352/ 333 59002 70110 83616 88459==
41939,2024,06,22,03,00,AAXX 22034 41939 01456 80000 10270 20260 30025 40033 70262 8352/ 333 20258 58003 70137 83616 88459==
41939,2024,06,22,06,00,AAXX 22064 41939 NIL=
41939,2024,06,22,09,00,AAXX 22094 41939 02460 60000 10318 20250 39998 40006 83530 333 58006 70137 83618 83365==
41939,2024,06,22,12,00,AAXX 22124 41939 02460 40000 10315 20270 39981 49989 82530 333 10323 59010 70130 82618 83364==
41939,2024,06,22,15,00,AAXX 22154 41939 02456 40000 10287 20270 30012 40020 82530 333 58010 70130 82617 83364==
41939,2024,06,22,18,00,AAXX 22184 41939 NIL=
41939,2024,06,22,21,00,AAXX 22214 41939 02950 00000 10273 20260 30030 40038 333 58019 70130==
41939,2024,06,23,00,00,AAXX 23004 41939 02456 40000 10275 20270 30024 40032 81530 333 58017 70016 81618 83365==
41939,2024,06,23,03,00,AAXX 23034 41939 02458 60000 10300 20260 30038 40046 83530 333 20266 58013 70000 83618 83365==
41939,2024,06,23,06,00,AAXX 23064 41939 01456 80000 10308 20280 30031 40039 76122 8352/ 333 58020 70020 83616 88459==
41939,2024,06,23,09,00,AAXX 23094 41939 02458 40000 10340 20270 30008 40016 82530 333 58010 70020 82618 83363==
41939,2024,06,23,12,00,AAXX 23124 41939 02956 00000 10328 20280 30014 40022 333 10340 58006 70020==
41939,2024,06,23,15,00,AAXX 23154 41939 02940 00000 10300 20270 30005 40013 333 59007 70020==
41939,2024,06,23,18,00,AAXX 23184 41939 32940 00000 10290 20270 30010 40018 333 59025 70020=
41939,2024,06,23,19,00,AAXX 23194 41939 02940 00000 10290 20270 30010 40018 333 59025 70020==
41939,2024,06,23,21,00,AAXX 23214 41939 02956 00000 10275 20260 30028 40036 333 58008 70000==
41939,2024,06,24,00,00,AAXX 24004 41939 02957 00000 10290 20270 30014 40022 333 59010 70000==
41939,2024,06,24,03,00,AAXX 24034 41939 02959 00000 10318 20290 30026 40034 333 20270 59012 70000==
41939,2024,06,24,06,00,AAXX 24064 41939 02460 40000 10350 20270 30011 40019 82530 333 59020 70000 82618 83365==
41939,2024,06,24,09,00,AAXX 24094 41939 02458 50000 10335 20280 39990 49998 83530 333 59018 70000 83618 83363==
41939,2024,06,24,12,00,AAXX 24124 41939 02456 30000 10325 20280 39996 40004 83500 333 10352 59012 70000 83618==
41939,2024,06,24,15,00,AAXX 24154 41939 02940 00000 10290 20270 30004 40012 333 59001 70000==
41939,2024,06,24,18,00,AAXX 24184 41939 02940 00000 10283 20260 30010 40018 333 58000 70000==
41939,2024,06,24,21,00,AAXX 24214 41939 32956 00000 10280 20260 30016 40024 333 59008 70000=
41939,2024,06,25,00,00,AAXX 25004 41939 32957 00000 10278 20270 30013 40021 333 58001 70000=
41939,2024,06,25,03,00,AAXX 25034 41939 02459 40000 10320 20280 30006 40014 333 20276 59020 70000 82618 83364==
41939,2024,06,25,06,00,AAXX 25064 41939 02460 20000 10350 20260 30006 40014 81530 333 59005 70000 81618==
41939,2024,06,25,09,00,AAXX 25094 41939 02458 50000 10340 20270 30000 40008 83530 333 58010 70000 83618 83364==
41939,2024,06,25,12,00,AAXX 25124 41939 02956 00000 10330 20260 39988 49996 333 10365 59008 70000==
41939,2024,06,25,15,00,AAXX 25154 41939 02940 00000 10308 20260 39996 40004 333 59008 70000==
41939,2024,06,25,18,00,AAXX 25184 41939 02940 00000 10297 20270 30006 40014 333 59004 70000==
41939,2024,06,25,21,00,AAXX 25214 41939 02956 00000 10283 20270 30005 40013 333 58001 70000==
41939,2024,06,26,00,00,AAXX 26004 41939 02956 00000 10282 20270 30004 40012 333 59009 70000==
41939,2024,06,26,03,00,AAXX 26034 41939 02958 00000 10315 20290 30016 40024 333 20278 58010 70000==
41939,2024,06,26,06,00,AAXX 26064 41939 02458 60000 10327 20270 30017 40024 83510 333 58011 70000 83617 86459==
41939,2024,06,26,09,00,AAXX 26094 41939 02458 40000 10333 20260 30001 40008 82530 333 58001 70000 82618 83365==
41939,2024,06,26,12,00,AAXX 26124 41939 02456 60000 10322 20260 30008 40016 83510 333 10340 58020 70000 83618 85459==
41939,2024,06,26,15,00,AAXX 26154 41939 02940 00000 10300 20260 30016 40024 333 58020 70000==
41939,2024,06,26,18,00,AAXX 26184 41939 02940 00000 10290 20260 30025 40033 333 58019 70000==
41939,2024,06,26,21,00,AAXX 26214 41939 02456 40000 10283 20270 30030 40038 82530 333 58025 70000==
41939,2024,06,27,00,00,AAXX 27004 41939 02457 50000 10288 20280 30020 40028 83530 333 58016 70000==
41939,2024,06,27,03,00,AAXX 27034 41939 02459 50000 10310 20300 30037 40045 83530 333 20282 58021 70000 83618 83365==
41939,2024,06,27,06,00,AAXX 27064 41939 02458 50000 10320 20260 30031 40039 83510 333 58014 70000 83617 85459==
41939,2024,06,27,09,00,AAXX 27094 41939 02460 30000 10336 20270 30024 40032 82530 333 58023 70000 82618==
41939,2024,06,27,12,00,AAXX 27124 41939 02456 61802 10318 20270 30032 40040 83510 333 10340 58024 70000 83618 85459==
41939,2024,06,27,15,00,AAXX 27154 41939 02440 60000 10285 20280 30030 40038 83510 333 58014 70000 83618 85459==
41939,2024,06,27,18,00,AAXX 27184 41939 02440 60000 10280 20270 30036 40044 83510 333 58011 70000 83618 85459==
41941,2024,06,21,00,00,AAXX 21004 41941 02450 70000 10270 20260 30008 40014 85520 333 58004 70010 85616 87458==
41941,2024,06,21,03,00,AAXX 21034 41941 02456 50000 10291 20260 30017 40023 82530 333 20263 59003 70010 82616 85362==
41941,2024,06,21,06,00,AAXX 21064 41941 02456 61803 10320 20270 30012 40017 85420 333 58000 70010 84616 86458==
41941,2024,06,21,09,00,AAXX 21094 41941 02456 72302 10326 20280 39990 49996 85420 333 58007 70010 84616 87458==
41941,2024,06,21,12,00,AAXX 21124 41941 02456 70000 10310 20270 39987 49993 85420 333 10305 58001 70000 84616 87458==
41941,2024,06,21,15,00,AAXX 21154 41941 02450 70000 10292 20270 30004 40010 85420 333 58007 70000 84616 87458==
41941,2024,06,21,18,00,AAXX 21184 41941 02440 70000 10286 20280 30014 40019 85420 333 58006 70000 84616 87458==
41941,2024,06,21,21,00,AAXX 21214 41941 01440 81803 10284 20260 30010 40016 71792 8692/ 333 58003 70000 85616 88458 81928==
41941,2024,06,22,00,00,AAXX 22004 41941 01450 71803 10285 20270 30010 40016 72992 8692/ 333 58003 70000 85616 88458 81930==
41941,2024,06,22,03,00,AAXX 22034 41941 01450 80000 10274 20260 30020 40026 76162 8692/ 333 20273 58003 70025 85612 88456 81924==
41941,2024,06,22,06,00,AAXX 22064 41941 21450 80000 10300 20280 30016 40021 72162 8632/ 333 58004 60435 70043 85616 88458 81930==
41941,2024,06,22,09,00,AAXX 22094 41941 02456 70000 10310 20260 39993 49999 85420 333 58003 70043 84616 87458==
41941,2024,06,22,12,00,AAXX 22124 41941 02450 40000 10297 20280 39989 49995 83530 333 10327 58002 70043 83618 84362==
41941,2024,06,22,15,00,AAXX 22154 41941 02440 61803 10285 20280 30010 40015 85420 333 58006 70043 84616 86458==
41941,2024,06,22,18,00,AAXX 22184 41941 02440 60000 10280 20270 30025 40031 85420 333 58011 70043 84616 86458==
41941,2024,06,22,21,00,AAXX 22214 41941 02440 60000 10280 20270 30025 40031 85420 333 58015 70043 84616 86458==
41941,2024,06,23,00,00,AAXX 23004 41941 02450 60000 10280 20270 30024 40030 85420 333 58014 70043 84616 86458==
41941,2024,06,23,03,00,AAXX 23034 41941 02450 80000 10300 20280 30032 40037 8632/ 333 20273 58012 70018 85616 88458 81930==
41941,2024,06,23,06,00,AAXX 23064 41941 02456 80000 10320 20270 30021 40027 8632/ 333 58005 70000 85616 88458 81930==
41941,2024,06,23,09,00,AAXX 23094 41941 02457 31803 10337 20270 39995 40001 83500 333 58002 70000 83618==
41941,2024,06,23,12,00,AAXX 23124 41941 02456 31802 10325 20280 39985 49991 83500 333 10345 59004 70000 83618==
41941,2024,06,23,15,00,AAXX 23154 41941 02440 61803 10295 20280 30003 40009 85420 333 59007 70000 84616 86458==
41941,2024,06,23,18,00,AAXX 23184 41941 32440 60000 10290 20280 30030 40035 85420 333 56990 59005 70000 84616 86458=
41941,2024,06,23,19,00,AAXX 23194 41941 02440 60000 10290 20280 30030 40035 85420 333 59005 70000 84616 86458==
41941,2024,06,23,21,00,AAXX 23214 41941 02440 61802 10285 20280 30022 40027 85420 333 59003 70000 84616 86458==
41941,2024,06,24,00,00,AAXX 24004 41941 02450 40000 10280 20270 30017 40022 84400 333 59007 70000 82616==
41941,2024,06,24,03,00,AAXX 24034 41941 02456 61803 10321 20270 30015 40020 85420 333 20276 59017 70000 84616 86458==
41941,2024,06,24,06,00,AAXX 24064 41941 02456 62303 10347 20250 30009 40014 85420 333 59012 70000 84616 86458==
41941,2024,06,24,09,00,AAXX 24094 41941 02457 41404 10348 20260 39985 49991 84400 333 59010 70000 83616==
41941,2024,06,24,12,00,AAXX 24124 41941 02456 60000 10337 20270 39988 49993 85420 333 10350 58003 70000 84616 86458==
41941,2024,06,24,15,00,AAXX 24154 41941 02440 61802 10300 20270 39999 40005 85420 333 59004 70000 84616 86458==
41941,2024,06,24,18,00,AAXX 24184 41941 02440 60000 10294 20260 30016 40021 85420 333 59014 70000 84616 86458==
41941,2024,06,24,21,00,AAXX 24214 41941 32440 71806 10286 20270 30011 40016 85420 333 56990 59011 70000 84616 87458=
41941,2024,06,25,00,00,AAXX 25004 41941 02450 80000 10285 20280 30004 40010 8632/ 333 59020 70000 85616 88458 81928==
41941,2024,06,25,03,00,AAXX 25034 41941 02456 61803 10325 20280 30013 40018 85420 333 20284 59002 70000 84616 86458==
41941,2024,06,25,06,00,AAXX 25064 41941 02456 60000 10331 20260 30007 40012 85420 333 59002 70000 84616 86458==
41941,2024,06,25,09,00,AAXX 25094 41941 02456 61802 10320 20270 39994 40000 85420 333 58009 70000 84616 86458==
41941,2024,06,25,12,00,AAXX 25124 41941 02450 60000 10322 20270 39988 49994 85420 333 10352 58009 70000 84616 86458==
41941,2024,06,25,15,00,AAXX 25154 41941 02440 60000 10300 20280 39999 40005 85420 333 58000 70000 84616 84458==
41941,2024,06,25,18,00,AAXX 25184 41941 02440 60000 10295 20280 30009 40015 85420 333 59007 70000 84616 86458==
41941,2024,06,25,21,00,AAXX 25214 41941 02440 60000 10290 20280 30005 40010 85420 333 59006 70000 84616 86458==
41941,2024,06,26,00,00,AAXX 26004 41941 02450 60000 10285 20285 30008 40013 85420 333 58004 70000 84616 86458==
41941,2024,06,26,03,00,AAXX 26034 41941 02450 60000 10312 20270 30014 40019 85420 333 20285 58001 70000 84616 86458==
41941,2024,06,26,06,00,AAXX 26064 41941 02450 80000 10310 20280 30015 40020 8632/ 333 58008 70000 85616 88458 81928==
41941,2024,06,26,09,00,AAXX 26094 41941 01450 80000 10320 20290 39998 40004 72162 8692/ 333 58004 70010 85612 88456 81924==
41941,2024,06,26,12,00,AAXX 26124 41941 21450 81802 10300 20290 39997 40003 70262 8632/ 333 10330 58009 60018 70010 85612 88456 81924==
41941,2024,06,26,15,00,AAXX 26154 41941 02440 61802 10290 20280 30013 40018 85420 333 58014 70010 84616 86458==
41941,2024,06,26,18,00,AAXX 26184 41941 01440 80000 10286 20286 30024 40029 71322 8692/ 333 58015 70010 85616 88458 81928==
41941,2024,06,26,21,00,AAXX 26214 41941 02440 71803 10284 20280 30017 40023 85420 333 58012 70010 84616 87458==
41941,2024,06,27,00,00,AAXX 27004 41941 02450 71803 10280 20270 30021 40026 85420 333 58013 70010 84616 87362==
41941,2024,06,27,03,00,AAXX 27034 41941 02456 61803 10305 20260 30035 40040 85420 333 20278 58021 70010 84616 86458==
41941,2024,06,27,06,00,AAXX 27064 41941 02456 51802 10327 20260 30030 40035 83530 333 58015 70010 83616 84362==
41941,2024,06,27,09,00,AAXX 27094 41941 02457 51802 10337 20260 30013 40019 82530 333 58015 70000 82616 85362==
41941,2024,06,27,12,00,AAXX 27124 41941 02457 61803 10304 20260 30008 40013 82550 333 10346 58011 70000 82616 86362==
41941,2024,06,27,15,00,AAXX 27154 41941 02456 51802 10285 20270 30028 40033 82530 333 58015 70000 82616 85362==
41941,2024,06,27,18,00,AAXX 27184 41941 02456 61803 10283 20260 30027 40032 83520 333 58003 70000 83616 86458==
41941,2024,06,27,21,00,AAXX 27214 41941 01350 81303 10278 20270 30020 40025 72122 8662/ 333 58003 70036 82708 84614 88458==
41943,2024,06,21,00,00,AAXX 21004 41943 02430 80000 10260 20250 30009 40016 8662/ 333 58004 70000 83710 84615 88457==
41943,2024,06,21,03,00,AAXX 21034 41943 02435 60000 10300 20250 30020 40027 83520 333 20260 59003 70000 83616 85458==
41943,2024,06,21,06,00,AAXX 21064 41943 02435 71601 10290 20250 30014 40021 84520 333 59004 70000 84616 86458==
41943,2024,06,21,09,00,AAXX 21094 41943 02440 61801 10325 20280 39989 49996 83520 333 59001 70000 83616 85458==
41943,2024,06,21,12,00,AAXX 21124 41943 02440 61801 10315 20240 39988 49995 83530 333 10330 59007 70000 83616 84362==
41943,2024,06,21,15,00,AAXX 21154 41943 02435 51201 10278 20260 30011 40018 82530 333 58003 70000 82616 83362==
41943,2024,06,21,18,00,AAXX 21184 41943 02430 71801 10275 20260 30014 40021 83570 333 58005 70000 83616 85458==
41943,2024,06,21,21,00,AAXX 21214 41943 01325 81801 10263 20250 30009 40016 76362 8672/ 333 58001 70090 84709 86615 88457==
41943,2024,06,22,00,00,AAXX 22004 41943 21330 81801 10258 20250 30006 40013 76166 8672/ 333 59003 60159 70152 84709 86615 88457==
41943,2024,06,22,03,00,AAXX 22034 41943 01330 81802 10295 20260 30022 40029 76266 8557/ 333 20258 58002 70162 85615 87458==
41943,2024,06,22,06,00,AAXX 22064 41943 01330 81802 10295 20260 30022 40029 76266 8557/ 333 20258 58002 70162 85615 87458==
41943,2024,06,22,09,00,AAXX 22094 41943 02440 51802 10330 20260 39992 49999 83510 333 59005 70162 83616 84458==
41943,2024,06,22,12,00,AAXX 22124 41943 02440 51802 10310 20250 39988 49995 83510 333 10335 58000 70162 83616 84458==
41943,2024,06,22,15,00,AAXX 22154 41943 02430 51802 10290 20260 30009 40016 83530 333 59002 70162 83616 83362==
41943,2024,06,22,18,00,AAXX 22184 41943 02430 40000 10284 20250 30026 40033 82530 333 58012 70162 82618 83362==
41943,2024,06,22,21,00,AAXX 22214 41943 02430 70000 10280 20260 30022 40029 84520 333 58013 70072 84615 86458==
41943,2024,06,23,00,00,AAXX 23004 41943 02335 80000 10274 20250 30019 40026 8662/ 333 58013 70010 83710 84614 88458==
41943,2024,06,23,03,00,AAXX 23034 41943 02435 72302 10290 20260 30031 40038 84520 333 20270 58009 70000 84615 86458==
41943,2024,06,23,06,00,AAXX 23064 41943 02440 61802 10324 20250 30024 40031 83520 333 58013 70000 83616 85458==
41943,2024,06,23,09,00,AAXX 23094 41943 02440 51802 10334 20250 39998 40005 83530 333 58006 70000 83616 84362==
41943,2024,06,23,12,00,AAXX 23124 41943 02440 61802 10326 20260 39984 49991 83510 333 10336 59004 70000 83616 85458==
41943,2024,06,23,15,00,AAXX 23154 41943 02430 61802 10294 20250 30007 40014 83510 333 59002 70000 83616 85458==
41943,2024,06,23,18,00,AAXX 23184 41943 02430 50000 10288 20260 30019 40026 83510 333 59007 70000 83616 84458==
41943,2024,06,23,21,00,AAXX 23214 41943 02430 60000 10284 20260 30015 40022 83530 333 59007 70000 83616 84362==
41943,2024,06,24,00,00,AAXX 24004 41943 02435 60000 10280 20260 30011 40018 83530 333 59008 70000 83616 84362==
41943,2024,06,24,03,00,AAXX 24034 41943 01435 70000 10290 20260 30025 40032 74520 333 20276 59006 70000 84616 87458==
41943,2024,06,24,06,00,AAXX 24064 41943 02440 61302 10296 20260 30020 40027 83520 333 59004 70000 83616 85458==
41943,2024,06,24,09,00,AAXX 24094 41943 02440 51302 10325 20260 39992 49999 82520 333 59006 70000 82616 85458==
41943,2024,06,24,12,00,AAXX 24124 41943 02440 40000 10315 20270 39986 49993 82530 333 10332 58002 70000 82618 84362==
41943,2024,06,24,15,00,AAXX 24154 41943 02430 40000 10287 20260 30004 40011 82520 333 58003 70000 82618 84458==
41943,2024,06,24,18,00,AAXX 24184 41943 02430 40000 10283 20260 30013 40020 81530 333 59006 70000 81618 84362==
41943,2024,06,24,21,00,AAXX 24214 41943 32430 60000 10280 20260 30005 40012 83520 333 56990 59010 83616 85458=
41943,2024,06,25,00,00,AAXX 25004 41943 32430 60000 10274 20260 30005 40012 82520 333 56990 59006 70000 82616 86458=
41943,2024,06,25,03,00,AAXX 25034 41943 02440 51802 10305 20260 30019 40026 83520 333 20272 59006 70000 83616 85458==
41943,2024,06,25,06,00,AAXX 25064 41943 02440 50000 10330 20240 30008 40015 83530 333 59012 70000 82618 84362==
41943,2024,06,25,09,00,AAXX 25094 41943 02440 40000 10333 20230 39983 49990 83530 333 59009 70000 82618 83362==
41943,2024,06,25,12,00,AAXX 25124 41943 02440 61802 10322 20260 39980 49987 83520 333 10352 59006 70000 83616 85458==
41943,2024,06,25,15,00,AAXX 25154 41943 01430 61802 10296 20280 30003 40010 70262 83520 333 59001 70010 83616 85458==
41943,2024,06,25,18,00,AAXX 25184 41943 01430 40000 10290 20270 30009 40016 70162 82520 333 59004 70010 82618 84458==
41943,2024,06,25,21,00,AAXX 25214 41943 02330 80000 10286 20280 30006 40013 8662/ 333 58001 70010 83710 84314 88458==
41943,2024,06,26,00,00,AAXX 26004 41943 21350 80000 10280 20270 30001 40008 76162 8772/ 333 59004 60049 70050 83709 84613 88458==
41943,2024,06,26,03,00,AAXX 26034 41943 01435 70000 10304 20260 30015 40022 70162 84520 333 59004 70060 84615 86458==
41943,2024,06,26,06,00,AAXX 26064 41943 11330 81803 10310 20260 30013 40020 60016 70362 8662/ 333 58005 70060 83710 84614 88458==
41943,2024,06,26,09,00,AAXX 26094 41943 01335 80000 10280 20270 39997 40005 76066 8772/ 333 58014 70470 84709 84614 88456==
41943,2024,06,26,12,00,AAXX 26124 41943 21430 81802 10280 20260 39995 40003 70266 8662/ 333 10335 58015 60428 70480 83710 84615 88458==
41943,2024,06,26,15,00,AAXX 26154 41943 02430 80000 10276 20260 30022 40029 8662/ 333 58019 70470 83710 84615 88458==
41943,2024,06,26,18,00,AAXX 26184 41943 02430 80000 10275 20260 30029 40037 8662/ 333 58020 70470 83710 84615 88458==
41943,2024,06,26,21,00,AAXX 26214 41943 02330 81302 10267 20260 30027 40034 8762/ 333 58021 70470 84709 84615 88458==
41943,2024,06,27,00,00,AAXX 27004 41943 01330 81302 10255 20250 30027 40035 76166 8772/ 333 58026 70040 84709 84614 88456==
41943,2024,06,27,03,00,AAXX 27034 41943 02440 51603 10300 20250 30039 40046 83520 333 20255 58024 70460 83618 84458==
41943,2024,06,27,06,00,AAXX 27064 41943 02440 51603 10325 20250 30033 40040 83520 333 58020 70460 83618 84458==
41943,2024,06,27,09,00,AAXX 27094 41943 02440 41803 10330 20250 30014 40021 82530 333 58017 70050 82618 84362==
41943,2024,06,27,12,00,AAXX 27124 41943 02435 81806 10300 20250 30014 40021 8662/ 333 10345 58019 70040 83710 84615 88458==
41943,2024,06,27,15,00,AAXX 27154 41943 02430 61803 10285 20260 30035 40042 84520 333 58013 70040 84616 86458==
41943,2024,06,27,18,00,AAXX 27184 41943 02430 81802 10270 20250 30035 40042 8662/ 333 58006 70040 83710 84615 88458==
41943,2024,06,27,21,00,AAXX 27214 41943 02430 81802 10270 20260 30026 40034 8662/ 333 59001 70040 83710 84615 88458==
41944,2024,06,21,00,00,AAXX 21004 41944 NIL=
41944,2024,06,21,06,00,AAXX 21064 41944 NIL=
41944,2024,06,21,12,00,AAXX 21124 41944 NIL=
41944,2024,06,21,18,00,AAXX 21184 41944 NIL=
41944,2024,06,22,00,00,AAXX 22004 41944 NIL=
41944,2024,06,22,06,00,AAXX 22064 41944 NIL=
41944,2024,06,22,12,00,AAXX 22124 41944 NIL=
41944,2024,06,22,18,00,AAXX 22184 41944 NIL=
41944,2024,06,23,06,00,AAXX 23064 41944 NIL=
41944,2024,06,23,12,00,AAXX 23124 41944 NIL=
41944,2024,06,23,18,00,AAXX 23184 41944 NIL=
41944,2024,06,24,00,00,AAXX 24004 41944 NIL=
41944,2024,06,24,06,00,AAXX 24064 41944 NIL=
41944,2024,06,24,18,00,AAXX 24184 41944 NIL=
41944,2024,06,25,00,00,AAXX 25004 41944 NIL=
41944,2024,06,25,06,00,AAXX 25064 41944 NIL=
41944,2024,06,25,12,00,AAXX 25124 41944 NIL=
41944,2024,06,26,00,00,AAXX 26004 41944 NIL=
41944,2024,06,26,06,00,AAXX 26064 41944 NIL=
41944,2024,06,26,12,00,AAXX 26124 41944 NIL=
41944,2024,06,26,18,00,AAXX 26184 41944 NIL=
41944,2024,06,27,06,00,AAXX 27064 41944 NIL=
41944,2024,06,27,12,00,AAXX 27124 41944 NIL=
41946,2024,06,21,00,00,AAXX 21004 41946 02456 80000 10265 20260 30012 40017 8352/ 333 58022 70220 83618 88459==
41946,2024,06,21,03,00,AAXX 21034 41946 02456 80000 10280 20260 30025 40030 8352/ 333 20256 58015 70220 83618 88459==
41946,2024,06,21,06,00,AAXX 21064 41946 02456 80000 10300 20260 30019 40024 8352/ 333 58021 70220 83618 88459==
41946,2024,06,21,09,00,AAXX 21094 41946 02/57 60000 10322 20250 39994 49998 86030 333 58004 70130 85362==
41946,2024,06,21,12,00,AAXX 21124 41946 02456 61902 10310 20260 39992 49996 81570 333 10326 59011 70090 81618 84460==
41946,2024,06,21,15,00,AAXX 21154 41946 02456 80000 10300 20270 30010 40015 8252/ 333 58002 70010 82618 88460==
41946,2024,06,21,18,00,AAXX 21184 41946 02/56 60000 10290 20270 30012 40017 86070 333 58007 70000 84460==
41946,2024,06,21,21,00,AAXX 21214 41946 02456 70000 10287 20280 30007 40012 82570 333 58003 70000 82618 86460==
41946,2024,06,22,00,00,AAXX 22004 41946 02456 70000 10287 20280 30007 40012 82570 333 58003 70000 82618 86460==
41946,2024,06,22,03,00,AAXX 22034 41946 02456 60000 10320 20270 30017 40021 85420 333 20275 59008 70000 84618 86460==
41946,2024,06,22,06,00,AAXX 22064 41946 02456 61805 10330 20270 30013 40017 85401 333 59006 70000 83618 83820==
41946,2024,06,22,09,00,AAXX 22094 41946 02456 61803 10350 20250 39989 49993 85401 333 59005 70000 83618 83820==
41946,2024,06,22,12,00,AAXX 22124 41946 02456 71802 10320 20270 39989 49993 85320 333 10352 59003 70000 84618 86460 81928==
41946,2024,06,22,15,00,AAXX 22154 41946 01456 60000 10300 20280 30005 40010 70262 8252/ 333 59005 70000 82618 86459==
41946,2024,06,22,18,00,AAXX 22184 41946 11456 60000 10298 20280 30026 40030 69996 70262 82520 333 58014 82618 86459==
41946,2024,06,22,21,00,AAXX 22214 41946 42456 50000 10288 20280 30020 40025 82520 333 58013 82618 84460==
41946,2024,06,23,00,00,AAXX 23004 41946 42456 50000 10285 20280 30022 40027 82520 333 58017 82618 84460==
41946,2024,06,23,03,00,AAXX 23034 41946 42456 50000 10335 20290 30031 40035 85420 333 20280 58014 84618 83460==
41946,2024,06,23,06,00,AAXX 23064 41946 42456 60000 10340 20270 30021 40025 85321 333 58008 84618 84460 81928==
41946,2024,06,23,09,00,AAXX 23094 41946 42456 72005 10316 20270 30002 40006 84320 333 58013 83618 87459 81928==
41946,2024,06,23,12,00,AAXX 23124 41946 42456 61804 10311 20270 39988 49992 84370 333 10345 59001 83618 84362 81928==
41946,2024,06,23,15,00,AAXX 23154 41946 02956 11802 10300 20270 30008 40013 80001 333 58003 70000 81080==
41946,2024,06,23,18,00,AAXX 23184 41946 32456 21702 10292 20270 30012 40017 81501 333 56409 59014 70000 81618=
41946,2024,06,23,19,00,AAXX 23194 41946 02456 21702 10292 20270 30012 40017 81501 333 59014 70000 81618==
41946,2024,06,23,21,00,AAXX 23214 41946 02956 40000 10290 20280 30015 40020 80001 333 59005 70000 84080==
41946,2024,06,24,00,00,AAXX 24004 41946 02456 70000 10288 20280 30014 40019 81501 333 59008 70000 81618 87080==
41946,2024,06,24,03,00,AAXX 24034 41946 02456 60000 10325 20280 30019 40023 85401 333 20285 59012 70000 84618 83080==
41946,2024,06,24,06,00,AAXX 24064 41946 02456 51802 10340 20260 30010 40014 85400 333 59011 70000 83618 83820==
41946,2024,06,24,09,00,AAXX 24094 41946 02557 61703 10354 20270 39985 49989 85401 333 59017 70000 83620 83822==
41946,2024,06,24,12,00,AAXX 24124 41946 02556 51702 10326 20280 39984 49988 82131 333 10357 59004 70000 82825 84360==
41946,2024,06,24,15,00,AAXX 24154 41946 02456 41802 10314 20270 30001 40006 84400 333 59007 70000 82618 83820==
41946,2024,06,24,18,00,AAXX 24184 41946 02/56 40000 10304 20280 30014 40019 84050 333 59002 70000 84362==
41946,2024,06,24,21,00,AAXX 24214 41946 32556 50000 10300 20280 30004 40009 85400 333 56900 59011 70000 84620=
41946,2024,06,25,00,00,AAXX 25004 41946 32556 51701 10296 20280 39995 40000 83530 333 56990 59019 70000 83620 85360=
41946,2024,06,25,03,00,AAXX 25034 41946 02556 62102 10320 20240 30015 40019 84570 333 20292 59004 70000 84620 83460==
41946,2024,06,25,06,00,AAXX 25064 41946 02556 51805 10350 20260 30005 40010 85400 333 59005 70000 83620 83822==
41946,2024,06,25,09,00,AAXX 25094 41946 02456 60000 10350 20250 39980 40084 83520 333 59005 70000 83618 85459==
41946,2024,06,25,12,00,AAXX 25124 41946 02456 71103 10330 20270 39979 40083 81510 333 10366 59005 70000 81618 87460==
41946,2024,06,25,15,00,AAXX 25154 41946 02956 21102 10314 20270 39993 49997 80001 333 59008 70000 82080==
41946,2024,06,25,18,00,AAXX 25184 41946 02456 51906 10304 20270 30009 40014 82530 333 59005 70000 82618 83362==
41946,2024,06,25,21,00,AAXX 25214 41946 02956 50000 10296 20280 30007 40012 80001 333 58003 70000 85080==
41946,2024,06,26,00,00,AAXX 26004 41946 02956 70000 10288 20280 30001 40006 80002 333 58006 70000 87080==
41946,2024,06,26,03,00,AAXX 26034 41946 02/56 50000 10340 20270 30016 40020 85070 333 20285 58001 70000 83460 83362==
41946,2024,06,26,06,00,AAXX 26064 41946 02456 60000 10345 20270 30013 40017 84402 333 58008 70000 83618 85080==
41946,2024,06,26,09,00,AAXX 26094 41946 02456 60000 10340 20260 39996 40000 84402 333 58016 70000 83618 85080==
41946,2024,06,26,12,00,AAXX 26124 41946 02456 61803 10318 20270 39992 49996 84402 333 10356 58013 70000 83618 85080==
41946,2024,06,26,15,00,AAXX 26154 41946 02956 30000 10305 20280 30019 40023 80001 333 58026 70000 83080==
41946,2024,06,26,18,00,AAXX 26184 41946 02456 51802 10300 20270 30027 40032 82520 333 58018 70000 82618 84459==
41946,2024,06,26,21,00,AAXX 26214 41946 02956 50000 10294 20270 30017 40022 80002 333 58010 70000 85080==
41946,2024,06,27,00,00,AAXX 27004 41946 02956 50000 10290 20280 30019 40024 80002 333 58018 70000 85080==
41946,2024,06,27,03,00,AAXX 27034 41946 02456 60907 10305 20270 30032 40037 84402 333 20285 58016 70000 83618 84080==
41946,2024,06,27,06,00,AAXX 27064 41946 02456 70905 10320 20270 30024 40028 85310 333 58011 70000 84618 86460 81928==
41946,2024,06,27,09,00,AAXX 27094 41946 41456 70000 10284 20260 30015 40020 79592 85920 333 58019 83618 87458 81928==
41946,2024,06,27,12,00,AAXX 27124 41946 21556 60000 10295 20270 30004 40009 70196 82570 333 10337 58012 69985 70008 82620 84459==
41946,2024,06,27,15,00,AAXX 27154 41946 02/56 30601 10292 20270 30017 40022 83030 333 59002 70008 83362==
41946,2024,06,27,18,00,AAXX 27184 41946 02456 40000 10288 20280 30022 40027 84400 333 59005 70008 83618==
41946,2024,06,27,21,00,AAXX 27214 41946 02/56 50000 10286 20280 30007 40012 85070 333 59010 70008 84459==
41947,2024,06,21,00,00,AAXX 21004 41947 02456 70502 10263 20250 30012 40014 83570 333 58017 70320 83618 86459==
41947,2024,06,21,03,00,AAXX 21034 41947 02450 81802 10280 20260 30028 40030 8662/ 333 20255 58015 70320 82710 83617 88458==
41947,2024,06,21,06,00,AAXX 21064 41947 02456 70000 10323 20240 30014 40016 85570 333 58011 70320 85617 84459==
41947,2024,06,21,09,00,AAXX 21094 41947 02456 70000 10322 20260 39993 49995 84530 333 59001 70000 84616 85362==
41947,2024,06,21,12,00,AAXX 21124 41947 02456 80000 10320 20270 39990 49992 8452/ 333 10335 59008 70000 84616 88458==
41947,2024,06,21,15,00,AAXX 21154 41947 02450 80000 10302 20270 30007 40009 8452/ 333 59001 70000 84616 88458==
41947,2024,06,21,18,00,AAXX 21184 41947 02450 80000 10300 20270 30010 40012 8452/ 333 58005 70000 84616 88458==
41947,2024,06,21,21,00,AAXX 21214 41947 02450 80000 10290 20280 30006 40008 8452/ 333 59011 70000 84616 88458==
41947,2024,06,22,00,00,AAXX 22004 41947 02450 80000 10290 20280 30006 40008 8452/ 333 59011 70000 84616 88458==
41947,2024,06,22,03,00,AAXX 22034 41947 02450 80000 10300 20270 30018 40021 8452/ 333 20274 59009 70000 84617 88458==
41947,2024,06,22,06,00,AAXX 22064 41947 02456 70000 10340 20260 30012 40015 83570 333 58000 70000 83618 86458==
41947,2024,06,22,09,00,AAXX 22094 41947 02456 80905 10340 20260 39992 49994 8532/ 333 59001 70000 84618 88459 81930==
41947,2024,06,22,12,00,AAXX 22124 41947 02456 61610 10318 20260 39990 49992 85310 333 10345 58000 70000 84618 86459 81930==
41947,2024,06,22,15,00,AAXX 22154 41947 02450 60000 10293 20260 30013 40015 84370 333 58006 70000 83618 85459 81930==
41947,2024,06,22,18,00,AAXX 22184 41947 02450 61802 10290 20270 30027 40029 82570 333 58017 70000 82618 85459==
41947,2024,06,22,21,00,AAXX 22214 41947 02450 60000 10285 20180 30023 40025 82570 333 58017 70000 82618 85362==
41947,2024,06,23,00,00,AAXX 23004 41947 02456 50000 10285 20280 30019 40021 82510 333 58015 70000 82618 85080==
41947,2024,06,23,03,00,AAXX 23034 41947 02456 60000 10335 20270 30029 40032 86400 333 20280 58011 70000 83618 83820==
41947,2024,06,23,06,00,AAXX 23064 41947 02456 70000 10340 20280 30021 40024 83570 333 58009 70000 83618 86458==
41947,2024,06,23,09,00,AAXX 23094 41947 02457 61302 10348 20260 39998 40000 84430 333 58006 70000 82618 83820==
41947,2024,06,23,12,00,AAXX 23124 41947 02456 40000 10318 20270 39988 49990 82402 333 10352 59002 70000 81618 83080==
41947,2024,06,23,15,00,AAXX 23154 41947 02456 22102 10302 20280 30008 40010 82500 333 59005 70000 82618==
41947,2024,06,23,18,00,AAXX 23184 41947 32956 41802 10292 20270 30014 40016 81031 333 56099 59013 70000 81362 83080=
41947,2024,06,23,19,00,AAXX 23194 41947 02/56 41802 10292 20270 30014 40016 81031 333 59013 70000 81362 83080==
41947,2024,06,23,21,00,AAXX 23214 41947 02456 60000 10288 20280 30016 40018 82510 333 59007 70000 82618 85459==
41947,2024,06,24,00,00,AAXX 24004 41947 02456 60000 10287 20280 30015 40017 82410 333 59004 70000 81618 85459==
41947,2024,06,24,03,00,AAXX 24034 41947 02456 62302 10330 20270 30020 40022 86400 333 20282 59010 70000 83618 83820==
41947,2024,06,24,06,00,AAXX 24064 41947 02457 52302 10350 20270 30011 40013 85400 333 59011 70000 82618 83820==
41947,2024,06,24,09,00,AAXX 24094 41947 02456 51805 10340 20260 39988 49990 83570 333 59010 70000 83618 84458==
41947,2024,06,24,12,00,AAXX 24124 41947 02456 21803 10330 20280 39985 49987 82500 333 10365 59003 70000 82618==
41947,2024,06,24,15,00,AAXX 24154 41947 02950 01802 10310 20280 30000 40002 333 59008 70000==
41947,2024,06,24,18,00,AAXX 24184 41947 02950 01802 10300 20280 30004 40006 333 59010 70000==
41947,2024,06,24,21,00,AAXX 24214 41947 32950 01801 10295 20290 30001 40003 333 59015 70000=
41947,2024,06,25,00,00,AAXX 25004 41947 32950 01802 10292 20280 30003 40005 333 59012 70000=
41947,2024,06,25,03,00,AAXX 25034 41947 02456 70000 10318 20280 30018 40020 83570 333 20286 59002 70000 83618 85459==
41947,2024,06,25,06,00,AAXX 25064 41947 02457 62302 10350 20270 30003 40005 82570 333 59008 70000 82618 85459==
41947,2024,06,25,09,00,AAXX 25094 41947 02456 81802 10328 20270 39985 49987 8352/ 333 59003 70000 83618 88458==
41947,2024,06,25,12,00,AAXX 25124 41947 02456 31802 10330 20280 39980 49982 83500 333 10370 59005 70000 83618==
41947,2024,06,25,15,00,AAXX 25154 41947 02950 00000 10308 20280 39999 40001 333 59001 70000==
41947,2024,06,25,18,00,AAXX 25184 41947 02950 01802 10302 20270 30008 40010 333 58004 70000==
41947,2024,06,25,21,00,AAXX 25214 41947 02950 00000 10295 20290 30005 40007 333 58004 70000==
41947,2024,06,26,00,00,AAXX 26004 41947 02956 00000 10290 20280 30003 40005 333 58000 70000==
41947,2024,06,26,03,00,AAXX 26034 41947 02456 60000 10340 20260 30015 40018 86400 333 20285 59002 70000 83618 83820==
41947,2024,06,26,06,00,AAXX 26064 41947 02456 70000 10340 20260 30014 40017 83570 333 58012 70000 83618 86458==
41947,2024,06,26,09,00,AAXX 26094 41947 02456 81808 10340 20270 39999 40001 8542/ 333 58014 70000 83618 83825 88459==
41947,2024,06,26,12,00,AAXX 26124 41947 02456 81802 10310 20270 39991 49993 8532/ 333 10345 58010 70000 83618 83825 88459 81930==
41947,2024,06,26,15,00,AAXX 26154 41947 02950 00000 10295 20280 30019 40021 333 58020 70000==
41947,2024,06,26,18,00,AAXX 26184 41947 02950 00000 10292 20270 30030 40032 333 58022 70000==
41947,2024,06,26,21,00,AAXX 26214 41947 02950 00000 10290 20280 30026 40028 333 58021 70000==
41947,2024,06,27,00,00,AAXX 27004 41947 02456 61304 10288 20280 30021 40023 83570 333 58018 70000 83618 85459==
41947,2024,06,27,03,00,AAXX 27034 41947 02456 71302 10303 20260 30033 40036 83570 333 20282 58018 70000 83618 86458==
41947,2024,06,27,06,00,AAXX 27064 41947 02456 71302 10330 20280 30025 40028 83570 333 58011 70000 83618 86458==
41947,2024,06,27,09,00,AAXX 27094 41947 01456 71302 10294 20270 30014 40016 76062 84820 333 58015 70042 83618 87459==
41947,2024,06,27,12,00,AAXX 27124 41947 11456 61303 10310 20270 30006 40008 60041 70162 83470 333 10335 58015 70042 82618 84459==
41947,2024,06,27,15,00,AAXX 27154 41947 02456 41802 10300 20270 30023 40025 84500 333 58004 70042 84618==
41947,2024,06,27,18,00,AAXX 27184 41947 02456 41302 10290 20280 30027 40029 84500 333 59003 70042 84618==
41947,2024,06,27,21,00,AAXX 27214 41947 01456 61302 10282 20270 30015 40017 70362 82570 333 59011 70050 82618 84459==
41950,2024,06,21,00,00,AAXX 21004 41950 02350 70000 10262 20260 30007 40010 85610 333 58002 70000 82708 84616 87459==
41950,2024,06,21,03,00,AAXX 21034 41950 02450 60000 10290 20270 30026 40028 83570 333 20250 58007 70000 83617 84459==
41950,2024,06,21,06,00,AAXX 21064 41950 02450 70000 10318 20250 30014 40016 83570 333 58003 70072 83617 85459==
41950,2024,06,21,09,00,AAXX 21094 41950 02450 80000 10322 20260 39992 49994 8562/ 333 58000 70072 82708 84616 88458==
41950,2024,06,21,12,00,AAXX 21124 41950 02450 50000 10308 20270 39994 49996 83530 333 10330 58000 70028 83617 84362==
41950,2024,06,21,15,00,AAXX 21154 41950 02450 40000 10282 20260 30016 40018 83530 333 58018 70000 83617 83362==
41950,2024,06,21,18,00,AAXX 21184 41950 02450 30000 10276 20270 30019 40021 83500 333 58015 70000 83617==
41950,2024,06,21,21,00,AAXX 21214 41950 02350 80000 10276 20276 30006 40008 8562/ 333 58001 70000 82708 84616 88458==
41950,2024,06,22,00,00,AAXX 22004 41950 02350 80000 10280 20280 30006 40008 8562/ 333 59001 70000 82708 84616 88458==
41950,2024,06,22,03,00,AAXX 22034 41950 02450 60000 10312 20260 30018 40020 84410 333 20275 59008 70000 83617 86459==
41950,2024,06,22,06,00,AAXX 22064 41950 02450 70602 10334 20270 30014 40016 85410 333 58000 70000 84617 86459==
41950,2024,06,22,09,00,AAXX 22094 41950 02450 40000 10324 20250 39993 49996 82530 333 58003 70000 82617 83362==
41950,2024,06,22,12,00,AAXX 22124 41950 02950 20000 10320 20250 39989 49992 80001 333 10334 59005 70000 82080==
41950,2024,06,22,15,00,AAXX 22154 41950 02950 20000 10286 20270 30016 40018 80001 333 58000 70000 82080==
41950,2024,06,22,18,00,AAXX 22184 41950 02950 20000 10282 20270 30026 40028 80001 333 58007 70000 82080==
41950,2024,06,22,21,00,AAXX 22214 41950 02/50 30000 10282 20270 30016 40018 82031 333 58010 70000 82362==
41950,2024,06,23,00,00,AAXX 23004 41950 02350 80000 10280 20280 30019 40021 8562/ 333 58013 70000 82708 84616 88458==
41950,2024,06,23,03,00,AAXX 23034 41950 02350 80000 10315 20270 30031 40033 8562/ 333 20275 58013 70000 81708 84616 88458==
41950,2024,06,23,06,00,AAXX 23064 41950 02450 70000 10330 20270 30021 40023 86310 333 58007 70000 84617 87459 81928==
41950,2024,06,23,09,00,AAXX 23094 41950 02450 60000 10336 20260 39996 49998 85410 333 58003 70000 84617 84459==
41950,2024,06,23,12,00,AAXX 23124 41950 02450 50000 10320 20270 39984 49987 81531 333 10342 59005 70000 81617 83362==
41950,2024,06,23,15,00,AAXX 23154 41950 02450 10000 10299 20270 30006 40009 81500 333 59010 70000 81617==
41950,2024,06,23,18,00,AAXX 23184 41950 02450 10000 10289 20270 30015 40017 81500 333 59011 70000 81617==
41950,2024,06,23,21,00,AAXX 23214 41950 02450 10000 10284 20270 30013 40015 81500 333 59003 70000 81617==
41950,2024,06,24,00,00,AAXX 24004 41950 02450 40000 10282 20270 30015 40017 82501 333 59004 70000 82617 83080==
41950,2024,06,24,03,00,AAXX 24034 41950 02450 50000 10320 20260 30025 40028 84430 333 20278 59006 70000 83617==
41950,2024,06,24,06,00,AAXX 24064 41950 01450 60000 10307 20260 30022 40025 72162 84410 333 58001 70040 83617 86459==
41950,2024,06,24,09,00,AAXX 24094 41950 02450 70000 10332 20250 39988 49991 82510 333 59006 70038 82617 86459==
41950,2024,06,24,12,00,AAXX 24124 41950 01330 80000 10290 20280 39990 49993 79522 8592/ 333 10346 58006 70030 82708 84616 88458 81928==
41950,2024,06,24,15,00,AAXX 24154 41950 01450 50000 10287 20280 30006 40008 70162 83510 333 58000 70096 83617 85459==
41950,2024,06,24,18,00,AAXX 24184 41950 11350 70000 10285 20280 30018 40020 60036 70362 85611 333 58003 70096 82708 84616 87459==
41950,2024,06,24,21,00,AAXX 24214 41950 32450 60000 10282 20270 30004 40006 83510 333 56990 59009 70096 83617 86459=
41950,2024,06,25,00,00,AAXX 25004 41950 32450 50000 10280 20280 30007 40009 82531 333 56999 59008 70096 82617 83362=
41950,2024,06,25,03,00,AAXX 25034 41950 02450 51802 10310 20270 30018 40020 84430 333 20277 59007 70096 83617==
41950,2024,06,25,06,00,AAXX 25064 41950 02450 50000 10340 20250 30008 40010 84330 333 59014 70058 83617 81928==
41950,2024,06,25,09,00,AAXX 25094 41950 02450 50000 10330 20260 39985 49988 82510 333 59003 70058 82617 85459==
41950,2024,06,25,12,00,AAXX 25124 41950 02450 50000 10322 20260 39983 49986 82531 333 10347 59007 70030 82617 83362==
41950,2024,06,25,15,00,AAXX 25154 41950 02450 30000 10300 20270 30004 40007 82530 333 59002 70000 82617==
41950,2024,06,25,18,00,AAXX 25184 41950 02450 30000 10293 20280 30007 40010 82530 333 59011 70000 82617==
41950,2024,06,25,21,00,AAXX 25214 41950 02/50 30000 10288 20280 30004 40006 82031 333 58000 70000 82362==
41950,2024,06,26,00,00,AAXX 26004 41950 02450 50000 10284 20270 30009 40011 82531 333 58002 70000 82617 83362==
41950,2024,06,26,03,00,AAXX 26034 41950 02350 80000 10301 20280 30012 40015 8562/ 333 20278 59006 70000 82708 84616 88458==
41950,2024,06,26,06,00,AAXX 26064 41950 01350 80000 10305 20270 30012 40015 71796 8692/ 333 58004 70002 82708 84616 88458 81928==
41950,2024,06,26,09,00,AAXX 26094 41950 01450 70000 10312 20270 39998 40001 70192 83410 333 58013 70002 82617 87459==
41950,2024,06,26,12,00,AAXX 26124 41950 01350 80000 10310 20280 39994 49997 70292 8462/ 333 10328 58011 70002 81708 84617 88458==
41950,2024,06,26,15,00,AAXX 26154 41950 02450 60000 10294 20280 30017 40020 83510 333 58013 70002 83617 86459==
41950,2024,06,26,18,00,AAXX 26184 41950 02450 20000 10290 20280 30028 40030 82530 333 58021 70002 82617==
41950,2024,06,26,21,00,AAXX 26214 41950 02350 80000 10274 20260 30024 40026 8562/ 333 58020 70002 82708 84616 88458==
41950,2024,06,27,00,00,AAXX 27004 41950 21350 80000 10276 20270 30022 40024 70262 8562/ 333 58013 60035 70034 82708 84616 88458==
41950,2024,06,27,03,00,AAXX 27034 41950 02350 80903 10302 20270 30034 40036 8562/ 333 20268 58020 70034 82708 84616 88458==
41950,2024,06,27,06,00,AAXX 27064 41950 01350 60904 10330 20270 30032 40035 70162 84670 333 58020 70010 81708 83617 84459==
41950,2024,06,27,09,00,AAXX 27094 41950 01450 51302 10330 20260 30012 40015 70162 85400 333 58014 70046 84617==
41950,2024,06,27,12,00,AAXX 27124 41950 01350 81202 10286 20280 30007 40010 70362 8562/ 333 10341 58013 70076 82708 84617 88459==
41950,2024,06,27,15,00,AAXX 27154 41950 02450 60000 10282 20270 30028 40030 83510 333 58011 70076 83617 84459==
41950,2024,06,27,18,00,AAXX 27184 41950 21350 80000 10278 20278 30034 40036 70362 8562/ 333 58006 60055 70126 82708 84616 88458==
41950,2024,06,27,21,00,AAXX 27214 41950 02350 80000 10272 20270 30014 40016 8562/ 333 59010 70126 82708 84616 88458==
41951,2024,06,21,00,00,AAXX 21004 41951 02340 80000 10268 20268 30014 40019 8562/ 333 58012 70078 81708 84618 88458==
41951,2024,06,21,03,00,AAXX 21034 41951 02340 80000 10298 20260 30020 40025 8562/ 333 20257 58000 70078 81709 84618 88458==
41951,2024,06,21,06,00,AAXX 21064 41951 02450 61302 10328 20270 30010 40015 83510 333 58001 70078 83618 85459==
41951,2024,06,21,09,00,AAXX 21094 41951 02450 70000 10327 20270 39991 49996 83510 333 58001 70078 83618 86459==
41951,2024,06,21,12,00,AAXX 21124 41951 02450 70000 10307 20270 39988 49993 83510 333 10330 58014 70068 83618 86459==
41951,2024,06,21,15,00,AAXX 21154 41951 02450 60000 10288 20280 30009 40014 83510 333 58009 70000 83618 85459==
41951,2024,06,21,18,00,AAXX 21184 41951 02340 80000 10285 20280 30012 40017 8562/ 333 58005 70000 81709 84618 88458==
41951,2024,06,21,21,00,AAXX 21214 41951 02340 80000 10280 20270 30007 40012 8562/ 333 59003 70000 81718 84618 88458==
41951,2024,06,22,00,00,AAXX 22004 41951 02440 70000 10287 20280 30002 40007 83510 333 59012 70000 83618 86459==
41951,2024,06,22,03,00,AAXX 22034 41951 01340 80000 10292 20270 30012 40017 70362 8562/ 333 20276 59008 70006 81708 84618 88458==
41951,2024,06,22,06,00,AAXX 22064 41951 01340 81502 10288 20280 30013 40018 70262 8562/ 333 58003 70027 81709 84618 88458==
41951,2024,06,22,09,00,AAXX 22094 41951 02456 60502 10318 20240 39994 49999 83510 333 58003 70027 83618 85459==
41951,2024,06,22,12,00,AAXX 22124 41951 02456 20000 10315 20270 39985 49990 82500 333 10325 59003 70027 82618==
41951,2024,06,22,15,00,AAXX 22154 41951 02450 60000 10283 20270 30010 40014 83510 333 58001 70027 83618 85459==
41951,2024,06,22,18,00,AAXX 22184 41951 02450 50000 10282 20280 30021 40025 82510 333 58009 70027 82618 84459==
41951,2024,06,22,21,00,AAXX 22214 41951 02440 70000 10280 20280 30018 40022 83510 333 58011 70027 83618 86459==
41951,2024,06,23,00,00,AAXX 23004 41951 02340 80000 10278 20278 30016 40021 8562/ 333 58014 70027 81709 84618 88458==
41951,2024,06,23,03,00,AAXX 23034 41951 02340 80000 10308 20290 30023 40028 8562/ 333 20270 58011 70021 81709 84618 88458==
41951,2024,06,23,06,00,AAXX 23064 41951 02450 70000 10320 20270 30021 40026 83510 333 58008 70000 83618 86459==
41951,2024,06,23,09,00,AAXX 23094 41951 02456 60502 10332 20270 39999 40004 83510 333 58005 70000 83618 85459==
41951,2024,06,23,12,00,AAXX 23124 41951 02456 31302 10322 20270 39982 49987 83500 333 10342 59003 70000 83618==
41951,2024,06,23,15,00,AAXX 23154 41951 02450 21402 10294 20260 30011 40016 82500 333 58006 70000 82618==
41951,2024,06,23,18,00,AAXX 23184 41951 32450 60000 10284 20270 30013 40018 83510 333 56990 59008 70000 83618 85459=
41951,2024,06,23,19,00,AAXX 23194 41951 02450 60000 10284 20270 30013 40018 83510 333 59008 70000 83618 85459==
41951,2024,06,23,21,00,AAXX 23214 41951 02450 60000 10278 20270 30008 40013 83510 333 59010 70000 83618 85459==
41951,2024,06,24,00,00,AAXX 24004 41951 02450 60000 10276 20276 30021 40026 83510 333 58005 70000 83618 85459==
41951,2024,06,24,03,00,AAXX 24034 41951 02456 50000 10318 20280 30016 40021 82510 333 20272 59007 70000 82618 84459==
41951,2024,06,24,06,00,AAXX 24064 41951 02456 61302 10328 20270 30009 40014 83510 333 59012 70000 83618 85459==
41951,2024,06,24,09,00,AAXX 24094 41951 02456 61302 10322 20280 39990 49995 83510 333 59009 70000 83618 85459==
41951,2024,06,24,12,00,AAXX 24124 41951 02456 61302 10322 20270 39983 49988 83510 333 10342 58001 70000 83618 85459==
41951,2024,06,24,15,00,AAXX 24154 41951 02450 30000 10294 20260 30011 40016 83500 333 58000 70000 83618==
41951,2024,06,24,18,00,AAXX 24184 41951 02450 60000 10288 20280 30012 40017 83510 333 59001 70000 83618 85459==
41951,2024,06,24,21,00,AAXX 24214 41951 32450 50000 10285 20280 30002 40007 82510 333 56990 59006 70000 82618 84459=
41951,2024,06,25,00,00,AAXX 25004 41951 32450 30000 10280 20280 39991 49995 83500 333 56900 59030 70000 83618=
41951,2024,06,25,03,00,AAXX 25034 41951 02456 62703 10314 20260 30012 40017 83510 333 20275 59004 70000 83618 85459==
41951,2024,06,25,06,00,AAXX 25064 41951 02340 81302 10300 20260 30011 40016 8562/ 333 58002 70000 81708 84618 88458==
41951,2024,06,25,09,00,AAXX 25094 41951 01456 60000 10336 20270 39987 49992 70162 83510 333 59003 70056 83618 85459==
41951,2024,06,25,12,00,AAXX 25124 41951 01456 60000 10320 20270 39991 49996 70262 83510 333 10344 58008 70060 83618 85459==
41951,2024,06,25,15,00,AAXX 25154 41951 02450 20000 10290 20260 30002 40007 82500 333 59010 70056 82618==
41951,2024,06,25,18,00,AAXX 25184 41951 02340 80000 10292 20280 30007 40012 8562/ 333 59005 70056 81709 84618 88458==
41951,2024,06,25,21,00,AAXX 25214 41951 02440 60000 10285 20280 39999 40004 83510 333 59003 70056 83618 85459==
41951,2024,06,26,00,00,AAXX 26004 41951 02440 60000 10282 20280 39989 49993 83510 333 59002 70056 83618 85459==
41951,2024,06,26,03,00,AAXX 26034 41951 01456 60502 10324 20280 30008 40013 70262 83510 333 20276 59004 70059 83618 85459==
41951,2024,06,26,06,00,AAXX 26064 41951 11340 80000 10334 20270 30008 40013 69936 70362 8562/ 333 59003 70059 81709 84618 88458==
41951,2024,06,26,09,00,AAXX 26094 41951 02340 80000 10320 20280 39995 40000 8562/ 333 58008 70003 81708 84618 88458==
41951,2024,06,26,12,00,AAXX 26124 41951 02340 80000 10308 20290 39997 40002 8562/ 333 10340 58010 70003 81708 84618 88458==
41951,2024,06,26,15,00,AAXX 26154 41951 02340 80000 10292 20280 30019 40024 8562/ 333 58017 70003 81708 84618 88458==
41951,2024,06,26,18,00,AAXX 26184 41951 02340 80000 10296 20280 30031 40036 8562/ 333 58024 70003 81708 84618 88458==
41951,2024,06,26,21,00,AAXX 26214 41951 02340 80000 10293 20280 30024 40029 8562/ 333 58025 70003 81709 84618 88458==
41951,2024,06,27,00,00,AAXX 27004 41951 02340 80802 10288 20270 30014 40019 8562/ 333 58025 70003 81709 84618 88458==
41951,2024,06,27,03,00,AAXX 27034 41951 02440 70803 10305 20270 30028 40033 83510 333 20284 58020 70000 83618 86459==
41951,2024,06,27,06,00,AAXX 27064 41951 02456 61208 10330 20260 30028 40033 83510 333 58020 70000 83618 85459==
41951,2024,06,27,09,00,AAXX 27094 41951 02456 51307 10334 20260 30013 40018 85400 333 58018 70000 83618 83825==
41951,2024,06,27,12,00,AAXX 27124 41951 11330 81304 10278 20270 30002 40007 60022 76262 8672/ 333 10337 58005 70022 82706 84616 88458==
41951,2024,06,27,15,00,AAXX 27154 41951 01340 80000 10282 20270 30024 40029 70262 8562/ 333 58004 70026 81708 84618 88458==
41951,2024,06,27,18,00,AAXX 27184 41951 11440 70000 10288 20280 30027 40032 69946 70162 83510 333 59004 70026 83618 86459==
41951,2024,06,27,21,00,AAXX 27214 41951 01440 71303 10285 20280 30016 40021 70262 83510 333 59008 70043 83618 86459==
41953,2024,06,21,00,00,AAXX 21004 41953 02440 80000 10265 20260 30010 40015 8352/ 333 58005 70000 83616 88458==
41953,2024,06,21,03,00,AAXX 21034 41953 02450 60000 10295 20270 30023 40028 84410 333 20260 59002 70000 83616 86458==
41953,2024,06,21,06,00,AAXX 21064 41953 02450 60000 10320 20250 30013 40018 84410 333 59007 70000 83616 86458==
41953,2024,06,21,09,00,AAXX 21094 41953 02450 60000 10325 20260 39997 40002 84410 333 58000 70000 83616 86458==
41953,2024,06,21,12,00,AAXX 21124 41953 02450 60000 10312 20250 39991 49996 83510 333 10330 59010 70000 83616 86458==
41953,2024,06,21,15,00,AAXX 21154 41953 02440 50000 10290 20270 30008 40013 82510 333 58003 70000 82616 85458==
41953,2024,06,21,18,00,AAXX 21184 41953 02440 80000 10280 20260 30018 40023 8352/ 333 58008 70000 83616 88458==
41953,2024,06,21,21,00,AAXX 21214 41953 02440 80000 10276 20270 30010 40015 8352/ 333 58005 70000 83616 88458==
41953,2024,06,22,00,00,AAXX 22004 41953 02440 80000 10276 20270 30010 40015 8352/ 333 58005 70000 83616 88458==
41953,2024,06,22,03,00,AAXX 22034 41953 01440 80000 10275 20270 30023 40028 72166 8352/ 333 20255 58000 70270 83616 88458==
41953,2024,06,22,06,00,AAXX 22064 41953 01440 81802 10273 20260 30022 40027 76162 8452/ 333 58009 70380 84616 88458==
41953,2024,06,22,09,00,AAXX 22094 41953 02450 60000 10310 20260 39995 40000 82510 333 59002 70380 82618 85458==
41953,2024,06,22,12,00,AAXX 22124 41953 02445 60000 10310 20260 39992 49997 83410 333 10320 59001 70380 82616 85458==
41953,2024,06,22,15,00,AAXX 22154 41953 02435 20000 10285 20280 30007 40012 82500 333 59001 70380 82618==
41953,2024,06,22,18,00,AAXX 22184 41953 02430 20000 10280 20270 30024 40029 82500 333 58006 70380 82618==
41953,2024,06,22,21,00,AAXX 22214 41953 02430 20000 10280 20270 30025 40030 82500 333 58015 70380 82618==
41953,2024,06,23,00,00,AAXX 23004 41953 02440 70000 10282 20280 30029 40034 83510 333 58021 70180 83616 86458==
41953,2024,06,23,03,00,AAXX 23034 41953 02445 61304 10300 20270 30034 40039 83510 333 20270 58011 70110 83616 85458==
41953,2024,06,23,06,00,AAXX 23064 41953 02445 61804 10315 20270 30027 40032 83510 333 58005 70000 83616 85458==
41953,2024,06,23,09,00,AAXX 23094 41953 02450 51302 10336 20250 39999 40004 85400 333 58004 70000 83618==
41953,2024,06,23,12,00,AAXX 23124 41953 02450 41803 10320 20250 39998 40003 84400 333 10340 58006 70000 83618==
41953,2024,06,23,15,00,AAXX 23154 41953 02435 21802 10296 20260 30011 40016 82500 333 58004 70000 82618==
41953,2024,06,23,18,00,AAXX 23184 41953 32430 20000 10295 20270 30022 40027 82500 333 56900 59002 70000 82618=
41953,2024,06,23,19,00,AAXX 23194 41953 02430 20000 10295 20270 30022 40027 82500 333 59002 70000 82618==
41953,2024,06,23,21,00,AAXX 23214 41953 02430 20000 10290 20270 30004 40009 82500 333 59021 70000 82618==
41953,2024,06,24,00,00,AAXX 24004 41953 02440 20000 10285 20280 30013 40018 82500 333 59016 70000 82618==
41953,2024,06,24,03,00,AAXX 24034 41953 02445 70000 10310 20260 30025 40030 83510 333 20280 59009 70000 83616 86458==
41953,2024,06,24,06,00,AAXX 24064 41953 02445 80000 10330 20250 30017 40022 8352/ 333 59010 70000 83616 88458==
41953,2024,06,24,09,00,AAXX 24094 41953 02445 61803 10320 20250 39996 40001 83510 333 59003 70000 83616 85458==
41953,2024,06,24,12,00,AAXX 24124 41953 02450 41304 10310 20260 39990 49995 84400 333 10333 59008 70000 83618==
41953,2024,06,24,15,00,AAXX 24154 41953 02435 30000 10295 20270 30011 40016 83500 333 58000 70000 83618==
41953,2024,06,24,18,00,AAXX 24184 41953 02435 20000 10290 20270 30015 40020 82500 333 59007 70000 82618==
41953,2024,06,24,21,00,AAXX 24214 41953 32435 20000 10288 20270 30012 40017 82500 333 56900 58008 70000 82618=
41953,2024,06,25,00,00,AAXX 25004 41953 32440 60000 10286 20280 30017 40022 83510 333 56990 58004 70000 83616 85458=
41953,2024,06,25,03,00,AAXX 25034 41953 02445 60000 10315 20280 30020 40025 82510 333 20284 59005 70000 82618 85458==
41953,2024,06,25,06,00,AAXX 25064 41953 02450 41804 10346 20250 30011 40016 84400 333 59006 70000 83618==
41953,2024,06,25,09,00,AAXX 25094 41953 01450 40000 10326 20260 39989 49994 70262 84400 333 59007 70020 83618==
41953,2024,06,25,12,00,AAXX 25124 41953 11450 50000 10328 20260 39986 49991 60026 70362 82530 333 10348 59004 70020 82618 84361==
41953,2024,06,25,15,00,AAXX 25154 41953 02435 40000 10304 20260 30006 40011 84400 333 59005 70020 83618==
41953,2024,06,25,18,00,AAXX 25184 41953 02430 40000 10297 20270 30010 40015 84400 333 59005 70020 83618==
41953,2024,06,25,21,00,AAXX 25214 41953 02430 60000 10290 20270 30009 40014 83510 333 59003 70020 83616 85458==
41953,2024,06,26,00,00,AAXX 26004 41953 02440 80000 10286 20280 30008 40013 8352/ 333 59009 70020 83616 88458==
41953,2024,06,26,03,00,AAXX 26034 41953 01445 60000 10310 20270 30016 40021 70162 83510 333 20280 59004 70230 83616 85458==
41953,2024,06,26,06,00,AAXX 26064 41953 11440 80000 10323 20250 30016 40021 60216 70362 8352/ 333 58005 70230 83616 88458==
41953,2024,06,26,09,00,AAXX 26094 41953 01440 80000 10294 20240 30003 40008 70262 8352/ 333 58014 70310 83616 88458==
41953,2024,06,26,12,00,AAXX 26124 41953 11440 80000 10290 20260 39999 40004 60106 70262 8352/ 333 10330 58016 70310 83616 88458==
41953,2024,06,26,15,00,AAXX 26154 41953 02430 80503 10288 20270 30023 40028 8352/ 333 58017 70310 83616 88458==
41953,2024,06,26,18,00,AAXX 26184 41953 02430 80000 10286 20270 30029 40034 8352/ 333 58019 70310 83616 88458==
41953,2024,06,26,21,00,AAXX 26214 41953 02430 80502 10278 20260 30024 40029 8352/ 333 58015 70310 83616 88458==
41953,2024,06,27,00,00,AAXX 27004 41953 02440 80503 10274 20250 30028 40033 8352/ 333 58020 70310 83616 88458==
41953,2024,06,27,03,00,AAXX 27034 41953 02440 80000 10294 20250 30040 40045 8352/ 333 20269 58024 70100 83616 88458==
41953,2024,06,27,06,00,AAXX 27064 41953 02450 51303 10334 20250 30034 40039 85400 333 58018 70100 82618 83825==
41953,2024,06,27,09,00,AAXX 27094 41953 02450 51304 10335 20260 30025 40030 85400 333 58022 70000 82616 83825==
41953,2024,06,27,12,00,AAXX 27124 41953 21450 81303 10290 20260 30015 40020 70362 8352/ 333 10340 58016 60075 70070 83616 88458==
41953,2024,06,27,15,00,AAXX 27154 41953 02440 81503 10285 20270 30035 40040 8352/ 333 58012 70070 83616 88458==
41953,2024,06,27,18,00,AAXX 27184 41953 01430 81503 10282 20260 30036 40041 76122 8352/ 333 58007 70070 83615 88458==
41953,2024,06,27,21,00,AAXX 27214 41953 01430 81503 10276 20270 30030 40035 76166 8352/ 333 58006 70120 83615 88458==
41955,2024,06,21,00,00,AAXX 21004 41955 NIL=
41955,2024,06,21,06,00,AAXX 21064 41955 NIL=
41955,2024,06,21,12,00,AAXX 21124 41955 NIL=
41955,2024,06,21,18,00,AAXX 21184 41955 NIL=
41955,2024,06,22,00,00,AAXX 22004 41955 NIL=
41955,2024,06,22,06,00,AAXX 22064 41955 NIL=
41955,2024,06,22,12,00,AAXX 22124 41955 NIL=
41955,2024,06,22,18,00,AAXX 22184 41955 NIL=
41955,2024,06,23,06,00,AAXX 23064 41955 NIL=
41955,2024,06,23,12,00,AAXX 23124 41955 NIL=
41955,2024,06,23,18,00,AAXX 23184 41955 NIL=
41955,2024,06,24,00,00,AAXX 24004 41955 NIL=
41955,2024,06,24,06,00,AAXX 24064 41955 NIL=
41955,2024,06,24,18,00,AAXX 24184 41955 NIL=
41955,2024,06,25,00,00,AAXX 25004 41955 NIL=
41955,2024,06,25,06,00,AAXX 25064 41955 NIL=
41955,2024,06,25,12,00,AAXX 25124 41955 NIL=
41955,2024,06,26,00,00,AAXX 26004 41955 NIL=
41955,2024,06,26,06,00,AAXX 26064 41955 NIL=
41955,2024,06,26,12,00,AAXX 26124 41955 NIL=
41955,2024,06,26,18,00,AAXX 26184 41955 NIL=
41955,2024,06,27,06,00,AAXX 27064 41955 NIL=
41955,2024,06,27,12,00,AAXX 27124 41955 NIL=
41958,2024,06,21,00,00,AAXX 21004 41958 32450 80901 10262 20260 30007 40009 8542/ 333 56399 58013 70850 84616 88459=
41958,2024,06,21,03,00,AAXX 21034 41958 32456 80000 10270 20270 30025 40027 85410 333 20250 56399 58014 70850 84616 88459=
41958,2024,06,21,06,00,AAXX 21064 41958 32457 70901 10316 20270 30014 40016 85410 333 56990 58015 70840 84616 87459=
41958,2024,06,21,09,00,AAXX 21094 41958 32458 60000 10332 20270 39995 49997 85410 333 56990 58013 70640 84616 86459=
41958,2024,06,21,12,00,AAXX 21124 41958 32456 80000 10304 20280 39990 49992 8542/ 333 10340 56499 59014 70060 84616 88459=
41958,2024,06,21,15,00,AAXX 21154 41958 32450 50000 10283 20270 30006 40008 85400 333 56900 58000 70000 84617=
41958,2024,06,21,18,00,AAXX 21184 41958 32440 60000 10274 20260 30012 40014 85410 333 56990 58013 70000 84616 86459=
41958,2024,06,21,21,00,AAXX 21214 41958 32440 60000 10275 20270 39997 49999 85410 333 56990 59005 70000 84616 86459=
41958,2024,06,22,00,00,AAXX 22004 41958 32440 60000 10275 20270 39997 49999 85410 333 56990 59005 70000 84616 86459=
41958,2024,06,22,03,00,AAXX 22034 41958 32456 70000 10314 20280 30013 40015 85410 333 20269 56490 59012 70000 84616 87459=
41958,2024,06,22,06,00,AAXX 22064 41958 32457 60000 10342 20270 30009 40012 85410 333 56490 59005 70000 84616 86459=
41958,2024,06,22,09,00,AAXX 22094 41958 32457 60000 10349 20270 39991 49993 85410 333 56490 59004 70000 84616 86459=
41958,2024,06,22,12,00,AAXX 22124 41958 32456 60000 10300 20270 39989 49991 85410 333 10353 56490 59001 70000 84616 86459=
41958,2024,06,22,15,00,AAXX 22154 41958 32450 50000 10289 20280 30010 40012 85400 333 56400 58004 70000 84617=
41958,2024,06,22,18,00,AAXX 22184 41958 32440 30000 10287 20280 30025 40027 83400 333 56900 58013 70000 82617=
41958,2024,06,22,21,00,AAXX 22214 41958 32440 30000 10284 20280 30013 40015 83500 333 56900 58015 70000 83617=
41958,2024,06,23,00,00,AAXX 23004 41958 32450 32201 10280 20280 30014 40016 83500 333 56900 58014 70000 83617=
41958,2024,06,23,03,00,AAXX 23034 41958 32457 53601 10333 20280 30026 40028 85400 333 20276 56400 58013 70000 84617=
41958,2024,06,23,06,00,AAXX 23064 41958 32458 60000 10347 20270 30018 40020 85410 333 56490 58009 70000 84616 86459=
41958,2024,06,23,09,00,AAXX 23094 41958 21457 70000 10305 20280 30000 40002 76162 85410 333 56490 58009 6991/ 70001 84616 87459=
41958,2024,06,23,12,00,AAXX 23124 41958 11456 60000 10315 20280 39987 49989 69915 70162 85410 333 10348 56990 59002 70001 84616 86459=
41958,2024,06,23,15,00,AAXX 23154 41958 32450 00000 10290 20280 30006 40008 333 59004 70001=
41958,2024,06,23,18,00,AAXX 23184 41958 32440 30000 10284 20270 30011 40013 83500 333 56900 59014 70001 83617=
41958,2024,06,23,21,00,AAXX 23214 41958 32440 30000 10283 20270 30007 40009 83500 333 56900 59006 70001 83617=
41958,2024,06,24,00,00,AAXX 24004 41958 32450 40000 20280 20282 30010 40013 84500 333 56900 59004 70001 84617=
41958,2024,06,24,03,00,AAXX 24034 41958 32457 50000 10340 20280 30019 40021 85400 333 20278 56400 59007 70001 84617=
41958,2024,06,24,06,00,AAXX 24064 41958 32458 50000 10353 20270 30010 40012 85400 333 56400 59008 70001 84617=
41958,2024,06,24,09,00,AAXX 24094 41958 21457 60000 10304 20290 39989 49991 79596 85910 333 56990 59011 6010/ 70098 84616 81930 86459=
41958,2024,06,24,12,00,AAXX 24124 41958 11456 60000 10310 20290 39981 49984 60108 70296 85410 333 10360 56990 59006 70100 84616 86459=
41958,2024,06,24,15,00,AAXX 24154 41958 32950 00000 10299 20280 39999 40001 333 59007 70100=
41958,2024,06,24,18,00,AAXX 24184 41958 32440 50000 10284 20270 30011 40014 85400 333 56900 58000 70100 84617=
41958,2024,06,24,21,00,AAXX 24214 41958 32440 50000 10288 20280 39996 49999 85400 333 56900 59011 70100 84617=
41958,2024,06,25,00,00,AAXX 25004 41958 32450 30000 10286 20286 39998 40000 83500 333 56900 59012 70100 83617=
41958,2024,06,25,03,00,AAXX 25034 41958 32457 30000 10335 20280 30013 40015 83500 333 20281 56900 59006 70100 83617=
41958,2024,06,25,06,00,AAXX 25064 41958 32458 50000 10355 20280 30005 40007 85400 333 56400 59005 70100 84617=
41958,2024,06,25,09,00,AAXX 25094 41958 21456 60000 10317 20290 39983 49985 70362 84410 333 56990 59006 6996/ 70008 83616 85459=
41958,2024,06,25,12,00,AAXX 25124 41958 11456 60000 10320 20280 39978 49980 69966 70262 83410 333 10356 56990 59003 70008 83616 85459=
41958,2024,06,25,15,00,AAXX 25154 41958 32950 00000 10300 20280 39998 40000 333 59001 70008=
41958,2024,06,25,18,00,AAXX 25184 41958 32440 61701 10294 20280 30005 40007 83410 333 56490 59006 70006 83616 85459=
41958,2024,06,25,21,00,AAXX 25214 41958 32440 60000 10290 20290 39998 40000 83410 333 56990 58001 70006 83616 85459=
41958,2024,06,26,00,00,AAXX 26004 41958 32450 60000 10282 20280 39999 40001 83410 333 56990 58001 70006 83616 85459=
41958,2024,06,26,03,00,AAXX 26034 41958 32456 80000 10323 20280 30012 40014 8542/ 333 20277 56999 59001 70006 84616 88458=
41958,2024,06,26,06,00,AAXX 26064 41958 32456 80000 10317 20280 30013 40015 8542/ 333 56999 58008 70006 84616 88458=
41958,2024,06,26,09,00,AAXX 26094 41958 32450 80000 10297 20270 39999 40001 8542/ 333 56999 58016 70000 84616 88458=
41958,2024,06,26,12,00,AAXX 26124 41958 11450 60000 10305 20270 39992 49994 69945 70162 83410 333 10334 56990 58014 70004 83616 85459=
41958,2024,06,26,15,00,AAXX 26154 41958 32450 60000 10295 20290 30014 40016 83410 333 56990 58016 70004 83616 85459=
41958,2024,06,26,18,00,AAXX 26184 41958 32440 61701 10291 20280 30025 40027 83410 333 56490 58020 70004 83616 85459=
41958,2024,06,26,21,00,AAXX 26214 41958 32440 61701 10290 20280 30017 40019 83410 333 56490 58019 70004 83616 85459=
41958,2024,06,27,00,00,AAXX 27004 41958 32450 61701 10288 20280 30015 40017 83410 333 56490 58016 70004 83616 85459=
41958,2024,06,27,03,00,AAXX 27034 41958 21440 81701 10290 20280 30027 40029 76162 8542/ 333 20276 56499 58015 6998/ 70012 84616 88458=
41958,2024,06,27,06,00,AAXX 27064 41958 11456 80501 10302 20280 30021 40023 60023 70262 8542/ 333 56199 58008 70022 84616 88458=
41958,2024,06,27,09,00,AAXX 27094 41958 21456 60000 10296 20280 30008 40010 72162 83410 333 56990 58009 6008/ 70100 83616 85459=
41958,2024,06,27,12,00,AAXX 27124 41958 11450 60000 10300 20270 30001 40003 60113 70262 83410 333 10325 56990 58009 70130 83616 85459=
41958,2024,06,27,15,00,AAXX 27154 41958 21440 80000 10285 20285 30020 40022 70362 8542/ 333 56999 58006 6003/ 70156 84616 88458=
41958,2024,06,27,18,00,AAXX 27184 41958 11440 81701 10278 20278 30022 40024 60036 70262 8542/ 333 56499 59003 70156 84616 88458=
41958,2024,06,27,21,00,AAXX 27214 41958 21440 60000 10280 20280 30009 40011 70262 83410 333 56990 59008 6002/ 70176 83616 85458=
41960,2024,06,21,00,00,AAXX 21004 41960 02450 30000 10259 20259 30010 40011 83401 333 58008 70272 82618==
41960,2024,06,21,03,00,AAXX 21034 41960 02456 60000 10298 20280 30025 40026 83410 333 20251 58006 70272 82618 86459==
41960,2024,06,21,06,00,AAXX 21064 41960 02456 60000 10318 20270 30017 40019 83510 333 58005 70262 83618 85459==
41960,2024,06,21,09,00,AAXX 21094 41960 02456 80000 10320 20270 39997 49999 8642/ 333 58006 70130 84618 83822 88459==
41960,2024,06,21,12,00,AAXX 21124 41960 02456 80000 10306 20270 39991 49993 8352/ 333 10336 59019 70042 83618 88458==
41960,2024,06,21,15,00,AAXX 21154 41960 02450 60000 10290 20280 30012 40014 84410 333 58009 70000 83618 86459==
41960,2024,06,21,18,00,AAXX 21184 41960 02450 60000 10288 20280 30017 40019 85410 333 58008 70000 83618 86459==
41960,2024,06,21,21,00,AAXX 21214 41960 02450 60000 10283 20280 30013 40015 85410 333 58003 70000 83618 86459==
41960,2024,06,22,00,00,AAXX 22004 41960 02450 40000 10280 20280 30009 40010 83470 333 59001 70000 82618 83363==
41960,2024,06,22,03,00,AAXX 22034 41960 01456 60000 10303 20260 30019 40021 70362 84411 333 20276 59006 70002 83618 86459==
41960,2024,06,22,06,00,AAXX 22064 41960 11456 51801 10340 20270 30013 40015 69926 70162 84410 333 59004 70002 83618 85459==
41960,2024,06,22,09,00,AAXX 22094 41960 02457 50000 10337 20270 39997 49998 85310 333 58000 70002 82618 81930==
41960,2024,06,22,12,00,AAXX 22124 41960 02456 30000 10319 20280 39992 49993 83400 333 10343 58001 70002 82618==
41960,2024,06,22,15,00,AAXX 22154 41960 02450 20000 10299 20280 30012 40014 82500 333 58000 70000 82618==
41960,2024,06,22,18,00,AAXX 22184 41960 02450 20000 10290 20280 30028 40030 82500 333 58011 70002 82618==
41960,2024,06,22,21,00,AAXX 22214 41960 02450 70000 10282 20270 30029 40031 85410 333 58016 70002 83618 87459==
41960,2024,06,23,00,00,AAXX 23004 41960 01450 50000 10278 20270 30026 40028 70162 85410 333 58017 70010 83618 85459==
41960,2024,06,23,03,00,AAXX 23034 41960 02456 50000 10318 20280 30028 40030 85400 333 20275 58009 70010 83618==
41960,2024,06,23,06,00,AAXX 23064 41960 02456 50000 10340 20270 30023 40025 85410 333 58010 70010 83618 84459==
41960,2024,06,23,09,00,AAXX 23094 41960 02456 41802 10342 20260 30004 40005 84401 333 58007 70010 82618 83078==
41960,2024,06,23,12,00,AAXX 23124 41960 02456 40000 10322 20270 39989 49991 83530 333 10352 59003 70010 83618==
41960,2024,06,23,15,00,AAXX 23154 41960 02950 00000 10300 20270 30010 40012 333 59002 70010==
41960,2024,06,23,18,00,AAXX 23184 41960 32450 60000 10290 20280 30018 40020 84410 333 56990 59010 70010 83618 86459=
41960,2024,06,23,19,00,AAXX 23194 41960 02450 60000 10290 20280 30018 40020 84410 333 59010 70010 83618 86459==
41960,2024,06,23,21,00,AAXX 23214 41960 02450 40000 10288 20280 30019 40021 84410 333 59010 70010 82618 84460==
41960,2024,06,24,00,00,AAXX 24004 41960 02450 20000 10286 20280 30018 40020 82301 333 59008 70000 81618 81930==
41960,2024,06,24,03,00,AAXX 24034 41960 02456 50000 10320 20270 30029 40031 85410 333 20280 58001 70000 83618 85459==
41960,2024,06,24,06,00,AAXX 24064 41960 02456 50000 10340 20260 30022 40024 83401 333 59001 70000 82618 83080==
41960,2024,06,24,09,00,AAXX 24094 41960 02450 61802 10350 20280 39994 49996 86401 333 59010 70000 84617 83822==
41960,2024,06,24,12,00,AAXX 24124 41960 02450 61802 10313 20270 39992 49994 83501 333 10360 58003 70000 83618 83080==
41960,2024,06,24,15,00,AAXX 24154 41960 02950 00000 10300 20280 30008 40010 333 59002 70000==
41960,2024,06,24,18,00,AAXX 24184 41960 02450 70000 10297 20290 30015 40017 85470 333 59003 70000 83618 87459==
41960,2024,06,24,21,00,AAXX 24214 41960 32450 50000 10292 20280 30011 40013 85430 333 56990 59008 70000 83618 84362=
41960,2024,06,25,00,00,AAXX 25004 41960 32450 30000 10287 20280 30007 40008 83441 333 56499 59011 70000 81618=
41960,2024,06,25,03,00,AAXX 25034 41960 02456 50000 10324 20270 30022 40024 83410 333 20282 59007 70000 82618 84459==
41960,2024,06,25,06,00,AAXX 25064 41960 01340 80000 10278 20270 30014 40015 79592 8692/ 333 59008 70080 82708 84616 88458 81925==
41960,2024,06,25,09,00,AAXX 25094 41960 01557 20000 10335 20290 39992 49994 70196 82301 333 59002 70094 81825 81930==
41960,2024,06,25,12,00,AAXX 25124 41960 11456 50000 10310 20270 39992 49994 60016 70362 82501 333 10342 58000 70094 82618 83080==
41960,2024,06,25,15,00,AAXX 25154 41960 02950 00000 10299 20290 30006 40007 333 59002 70094==
41960,2024,06,25,18,00,AAXX 25184 41960 02450 80000 10292 20280 30009 40011 8542/ 333 59006 70094 84617 88459==
41960,2024,06,25,21,00,AAXX 25214 41960 02450 70000 10290 20280 30008 40010 85410 333 59003 70094 83618 87459==
41960,2024,06,26,00,00,AAXX 26004 41960 02450 60000 10290 20290 30007 40009 83470 333 58000 70094 82618 85460==
41960,2024,06,26,03,00,AAXX 26034 41960 01456 60000 10308 20290 30013 40015 70262 83470 333 20284 59009 70120 82618 84459==
41960,2024,06,26,06,00,AAXX 26064 41960 01450 80000 10306 20300 30016 40018 72162 8452/ 333 58002 70054 84618 88459==
41960,2024,06,26,09,00,AAXX 26094 41960 01456 50000 10318 20280 30002 40003 70162 85310 333 58010 70048 83618 85459 81929==
41960,2024,06,26,12,00,AAXX 26124 41960 11450 80000 10311 20270 30001 40002 60016 70362 8352/ 333 10335 58009 70048 83618 88458==
41960,2024,06,26,15,00,AAXX 26154 41960 02450 80000 10298 20270 30018 40020 8542/ 333 58012 70048 84617 88459==
41960,2024,06,26,18,00,AAXX 26184 41960 02450 60000 10291 20270 30031 40033 84410 333 58022 70048 83618 86459==
41960,2024,06,26,21,00,AAXX 26214 41960 02340 80000 10280 20280 30028 40030 8662/ 333 58020 70048 82709 84615 88458==
41960,2024,06,27,00,00,AAXX 27004 41960 21440 80000 10270 20270 30025 40027 72162 8542/ 333 58018 60057 70100 83617 88459==
41960,2024,06,27,03,00,AAXX 27034 41960 02456 51403 10296 20280 30031 40033 83470 333 20267 58018 70074 82618 83362==
41960,2024,06,27,06,00,AAXX 27064 41960 02456 81405 10298 20280 30028 40030 8352/ 333 58012 70058 83618 88459==
41960,2024,06,27,09,00,AAXX 27094 41960 01457 31404 10320 20270 30014 40016 70162 83440 333 58012 70070 81618 83364==
41960,2024,06,27,12,00,AAXX 27124 41960 01356 80000 10291 20270 30012 40014 76062 8672/ 333 10325 58011 70075 83708 84615 88456==
41960,2024,06,27,15,00,AAXX 27154 41960 01440 80000 10282 20270 30033 40035 76122 8542/ 333 58015 70109 84617 88458==
41960,2024,06,27,18,00,AAXX 27184 41960 21450 81804 10287 20280 30029 40031 70262 8542/ 333 59002 60035 70109 84617 88459==
41960,2024,06,27,21,00,AAXX 27214 41960 02450 80000 10284 20270 30022 40024 8542/ 333 59006 70109 83617 83822 88459==
41963,2024,06,21,00,00,AAXX 21004 41963 02457 70000 10270 20270 30028 40031 82570 333 58011 70100 82618 84458==
41963,2024,06,21,06,00,AAXX 21064 41963 02457 40902 10310 20270 30019 40021 84430 333 59005 70090 82618 84363==
41963,2024,06,21,09,00,AAXX 21094 41963 02/57 40000 10314 20260 30006 40009 84040 333 59004 70060 84363==
41963,2024,06,21,12,00,AAXX 21124 41963 02/57 40000 10304 20260 30011 40013 84060 333 10316 58001 70020 84363==
41963,2024,06,21,15,00,AAXX 21154 41963 02/50 40000 10284 20260 30019 40022 84040 333 58004 70000 84363==
41963,2024,06,21,18,00,AAXX 21184 41963 NIL=
41963,2024,06,21,21,00,AAXX 21214 41963 02350 60000 10270 20260 30015 40018 84730 333 59006 70110 82710 84363==
41963,2024,06,22,00,00,AAXX 22004 41963 01457 50000 10274 20274 30017 40020 70162 83530 333 59008 70150 83617 83363==
41963,2024,06,22,03,00,AAXX 22034 41963 01457 41001 10290 20280 30029 40031 72122 82560 333 20267 59003 70170 82618 83363==
41963,2024,06,22,06,00,AAXX 22064 41963 21457 41601 10314 20270 30028 40031 70262 84400 333 58009 60025 70170 83618==
41963,2024,06,22,09,00,AAXX 22094 41963 02457 31802 10327 20280 30008 40010 83400 333 58002 70170 82618==
41963,2024,06,22,12,00,AAXX 22124 41963 02457 20000 10310 20270 30007 40009 82500 333 10327 59002 70170 82618==
41963,2024,06,22,15,00,AAXX 22154 41963 02450 20000 10293 20290 30033 40036 82500 333 58014 70170 82618==
41963,2024,06,22,18,00,AAXX 22184 41963 02450 11802 10287 20280 30039 40042 81500 333 58018 70170 81618==
41963,2024,06,22,21,00,AAXX 22214 41963 02/50 30000 10280 20270 30034 40036 83030 333 58019 70060 83363==
41963,2024,06,23,00,00,AAXX 23004 41963 02457 40000 10280 20280 30034 40036 81530 333 58017 70020 81618 83363==
41963,2024,06,23,03,00,AAXX 23034 41963 01457 40000 10295 20290 30046 40048 72062 83430 333 20277 58017 70000 82618 83363==
41963,2024,06,23,06,00,AAXX 23064 41963 11/57 31001 10320 20270 30042 40044 60006 70162 83030 333 58014 70000 83363==
41963,2024,06,23,09,00,AAXX 23094 41963 02457 52103 10325 20290 30008 40012 83430 333 58004 70000 82618 83363==
41963,2024,06,23,12,00,AAXX 23124 41963 02457 42103 10313 20270 30005 40008 83430 333 10330 59002 70000 81618 83363==
41963,2024,06,23,15,00,AAXX 23154 41963 02/50 20000 10300 20290 30028 40031 82030 333 59005 70000 82364==
41963,2024,06,23,18,00,AAXX 23184 41963 NIL=
41963,2024,06,23,21,00,AAXX 23214 41963 02450 30000 10287 20287 30028 40030 82530 333 59006 70000 82618 83363==
41963,2024,06,24,00,00,AAXX 24004 41963 02457 70000 10280 20280 30031 40034 83570 333 59003 70000 83618 84458==
41963,2024,06,24,03,00,AAXX 24034 41963 02457 50000 10306 20280 30034 40037 82540 333 20274 59012 70000 82618 84362==
41963,2024,06,24,06,00,AAXX 24064 41963 01457 50000 10295 20280 30035 40038 72122 83530 333 59007 70020 83618 83363==
41963,2024,06,24,09,00,AAXX 24094 41963 02457 31601 10313 20280 30010 40012 83500 333 59002 70020 82618==
41963,2024,06,24,12,00,AAXX 24124 41963 02457 41802 10308 20280 30009 40011 81540 333 10320 58004 70020 81618 84363==
41963,2024,06,24,18,00,AAXX 24184 41963 NIL=
41963,2024,06,24,21,00,AAXX 24214 41963 32450 20000 10280 20280 30023 40026 82500 333 56400 59005 70020 82618=
41963,2024,06,25,00,00,AAXX 25004 41963 32957 40000 10280 20280 30021 40023 84030 333 56090 59010 70020 84363=
41963,2024,06,25,03,00,AAXX 25034 41963 02457 41002 10310 20280 30031 40033 83930 333 20275 59003 70020 82618 81928==
41963,2024,06,25,06,00,AAXX 25064 41963 02457 51802 10330 20280 30014 40017 83460 333 59021 70000 82618 83363==
41963,2024,06,25,09,00,AAXX 25094 41963 02557 40000 10330 20270 30001 40004 82260 333 59009 70000 82828 83363==
41963,2024,06,25,12,00,AAXX 25124 41963 02/57 40000 10315 20290 30001 40004 84060 333 10332 59008 70000 84362==
41963,2024,06,25,15,00,AAXX 25154 41963 02950 00000 10293 20290 30012 40015 333 59017 70000==
41963,2024,06,25,21,00,AAXX 25214 41963 01450 40000 10282 20282 30013 40016 72122 83560 333 59010 70010 83617 83363==
41963,2024,06,26,00,00,AAXX 26004 41963 21/57 30000 10284 20280 30020 40023 70162 83040 333 59001 60015 70010 83363==
41963,2024,06,26,03,00,AAXX 26034 41963 02457 40000 10310 20270 30025 40027 84400 333 20278 59006 70010 82618 83825==
41963,2024,06,26,06,00,AAXX 26064 41963 02557 41201 10324 20280 30020 40023 81230 333 58006 70010 81825 83364==
41963,2024,06,26,09,00,AAXX 26094 41963 02457 41803 10332 20280 30012 40015 82560 333 58011 70010 82618 84364==
41963,2024,06,26,12,00,AAXX 26124 41963 02457 70000 10307 20280 30011 40014 82560 333 10338 58010 70010 82618 86362==
41963,2024,06,26,15,00,AAXX 26154 41963 01350 80000 10295 20280 30026 40029 70162 8472/ 333 58014 70020 82710 83617 88458==
41963,2024,06,26,18,00,AAXX 26184 41963 NIL=
41963,2024,06,26,21,00,AAXX 26214 41963 02350 80000 10290 20270 30029 40032 8472/ 333 58016 70010 82710 83618 88458==
41963,2024,06,27,00,00,AAXX 27004 41963 02457 71803 10290 20260 30036 40038 83570 333 58016 70010 83618 85458==
41963,2024,06,27,03,00,AAXX 27034 41963 02457 51605 10300 20260 30045 40048 83530 333 20285 58020 70010 83617 84363==
41963,2024,06,27,06,00,AAXX 27064 41963 02457 41408 10317 20270 30039 40042 82560 333 58019 70010 82618 83363==
41963,2024,06,27,09,00,AAXX 27094 41963 02457 51412 10314 20270 30026 40029 83540 333 58014 70010 83617 84363==
41963,2024,06,27,12,00,AAXX 27124 41963 01357 81308 10274 20260 30035 40037 72122 8472/ 333 10325 58024 70020 82710 83617 88458==
41963,2024,06,27,15,00,AAXX 27154 41963 02450 71805 10290 20260 30033 40036 83570 333 58007 70020 83617 85458==
41963,2024,06,27,18,00,AAXX 27184 41963 02350 80000 10295 20270 30038 40041 8472/ 333 58008 70020 82710 83616 88458==
41963,2024,06,27,21,00,AAXX 27214 41963 01350 81404 10295 20270 30035 40038 70262 8472/ 333 58006 70040 82710 83617 88458==
41964,2024,06,21,00,00,AAXX 21004 41964 02456 70000 10282 20270 30013 40016 83520 333 58007 70020 83618 86460==
41964,2024,06,21,03,00,AAXX 21034 41964 01350 80000 10284 20270 30019 40022 76162 8672/ 333 20261 59002 70048 84708 83617 88458==
41964,2024,06,21,06,00,AAXX 21064 41964 21457 61701 10310 20270 30013 40016 70162 83510 333 58002 60038 70052 83618 85460==
41964,2024,06,21,09,00,AAXX 21094 41964 02457 50000 10316 20270 39992 49994 83410 333 59006 70032 82618 85460==
41964,2024,06,21,12,00,AAXX 21124 41964 02457 60000 10297 20270 39994 49996 83512 333 10324 59007 70032 83618 84460==
41964,2024,06,21,15,00,AAXX 21154 41964 02356 80000 10282 20280 30012 40015 8662/ 333 58005 70032 84709 83617 88459==
41964,2024,06,21,18,00,AAXX 21184 41964 21440 71801 10278 20278 30018 40021 70162 83520 333 58011 60105 70136 83618 86460==
41964,2024,06,21,21,00,AAXX 21214 41964 02440 70000 10276 20276 30017 40019 83520 333 58006 70140 83618 86460==
41964,2024,06,22,00,00,AAXX 22004 41964 11450 70000 10288 20270 30010 40013 69946 70262 83520 333 59003 70140 83618 86460==
41964,2024,06,22,03,00,AAXX 22034 41964 02457 61803 10306 20270 30017 40020 84510 333 20264 59002 70112 84618 84460==
41964,2024,06,22,06,00,AAXX 22064 41964 02457 41703 10327 20270 30011 40013 84500 333 59002 70108 84618==
41964,2024,06,22,09,00,AAXX 22094 41964 02558 41802 10328 20270 39996 49998 84400 333 58004 70108 83625==
41964,2024,06,22,12,00,AAXX 22124 41964 02457 51702 10305 20270 39991 49993 83502 333 10330 59003 70108 83618 83080==
41964,2024,06,22,15,00,AAXX 22154 41964 02456 51601 10294 20280 30012 40015 83502 333 58000 70108 83618 83080==
41964,2024,06,22,18,00,AAXX 22184 41964 02450 61701 10292 20280 30025 40028 83510 333 58007 70004 83618 85460==
41964,2024,06,22,21,00,AAXX 22214 41964 02450 60000 10290 20280 30030 40033 83520 333 58013 70000 83618 85460==
41964,2024,06,23,00,00,AAXX 23004 41964 02450 60000 10292 20270 30037 40040 83520 333 58027 70000 83618 85460==
41964,2024,06,23,03,00,AAXX 23034 41964 02456 81801 10306 20280 30029 40032 8652/ 333 20275 58012 70000 86617 88459==
41964,2024,06,23,06,00,AAXX 23064 41964 02457 61702 10327 20280 30023 40025 84510 333 58012 70000 84618 85460==
41964,2024,06,23,09,00,AAXX 23094 41964 02457 62302 10324 20270 39998 40001 82512 333 58002 70000 82618 84080==
41964,2024,06,23,12,00,AAXX 23124 41964 02456 60000 10305 20270 39992 49995 82512 333 10340 58001 70000 82618 84460==
41964,2024,06,23,15,00,AAXX 23154 41964 02456 40000 10298 20280 30004 40006 82510 333 59008 70000 82618 83460==
41964,2024,06,23,18,00,AAXX 23184 41964 32450 60000 10292 20280 30016 40018 83520 333 56490 59009 70000 83618 85460=
41964,2024,06,23,19,00,AAXX 23194 41964 02450 60000 10292 20280 30016 40018 83520 333 59009 70000 83618 85460==
41964,2024,06,23,21,00,AAXX 23214 41964 02450 60000 10292 20280 30013 40015 83520 333 59017 70000 83618 85460==
41964,2024,06,24,00,00,AAXX 24004 41964 02450 70000 10293 20280 30009 40011 84520 333 59028 70000 84618 86460==
41964,2024,06,24,03,00,AAXX 24034 41964 01345 80000 10290 20280 30021 40023 76162 8672/ 333 20276 59008 70008 84708 83617 88458==
41964,2024,06,24,06,00,AAXX 24064 41964 21456 61803 10317 20280 30022 40024 70162 83510 333 59001 60079 70072 83618 85460==
41964,2024,06,24,09,00,AAXX 24094 41964 02/57 52002 10311 20270 39996 49998 80012 333 59002 70072 84460 83080==
41964,2024,06,24,12,00,AAXX 24124 41964 02456 60000 10305 20290 39991 49994 85510 333 10320 59001 70072 85618 83460==
41964,2024,06,24,15,00,AAXX 24154 41964 02456 40000 10289 20280 30004 40006 82510 333 58000 70072 82618 83460==
41964,2024,06,24,18,00,AAXX 24184 41964 02450 60000 10287 20280 30016 40019 83520 333 58000 70072 83618 85460==
41964,2024,06,25,00,00,AAXX 25004 41964 21450 60000 10300 20280 30015 40017 70162 84510 333 58006 60018 70080 84618 85460==
41964,2024,06,25,03,00,AAXX 25034 41964 02556 51601 10310 20270 30016 40018 84410 333 20266 59005 70080 83625==
41964,2024,06,25,06,00,AAXX 25064 41964 02457 51803 10328 20270 30011 40013 83510 333 59011 70008 83618 84460==
41964,2024,06,25,09,00,AAXX 25094 41964 02457 52302 10336 20290 39984 49987 83510 333 59012 70008 83618 84460==
41964,2024,06,25,12,00,AAXX 25124 41964 02457 60000 10310 20280 39985 49988 81512 333 10338 59006 70008 81618 84460 84080==
41964,2024,06,25,15,00,AAXX 25154 41964 02456 60000 10294 20280 30000 40002 82510 333 59004 70008 82618 86460==
41964,2024,06,25,18,00,AAXX 25184 41964 02450 51701 10292 20280 30008 40010 83510 333 59008 70008 83618 84460==
41964,2024,06,25,21,00,AAXX 25214 41964 02450 50000 10290 20280 30009 40011 83510 333 59006 70008 83618 84460==
41964,2024,06,26,00,00,AAXX 26004 41964 21456 60000 10303 20280 30010 40012 70362 83510 333 59005 60017 70006 83618 85460==
41964,2024,06,26,03,00,AAXX 26034 41964 02457 71601 10322 20270 30012 40014 84510 333 20278 59004 70006 84618 86460==
41964,2024,06,26,06,00,AAXX 26064 41964 02457 71702 10325 20280 30011 40013 84510 333 58000 70006 84618 85460==
41964,2024,06,26,09,00,AAXX 26094 41964 02557 51702 10329 20280 39996 49999 84410 333 58012 70006 83625 83460==
41964,2024,06,26,12,00,AAXX 26124 41964 02457 80000 10305 20280 39994 49997 8552/ 333 10338 58009 70006 85618 88459==
41964,2024,06,26,15,00,AAXX 26154 41964 02456 80000 10299 20280 30021 40023 8552/ 333 58021 70006 85617 88459==
41964,2024,06,26,18,00,AAXX 26184 41964 NIL=
41964,2024,06,27,03,00,AAXX 27034 41964 02457 61603 10315 20260 30033 40035 82512 333 20268 58021 70020 82618 83460 83080==
41964,2024,06,27,06,00,AAXX 27064 41964 02457 41803 10320 20260 30028 40030 84510 333 58017 70020 84618 83460==
41964,2024,06,27,09,00,AAXX 27094 41964 02357 81606 10291 20260 30019 40021 8562/ 333 58023 70020 83709 83617 88459==
41964,2024,06,27,12,00,AAXX 27124 41964 02356 81404 10290 20260 30019 40021 8562/ 333 10337 58025 70020 83709 83617 88459==
41964,2024,06,27,15,00,AAXX 27154 41964 02456 71604 10287 20270 30033 40035 85510 333 58012 70020 85616 87460==
41964,2024,06,27,18,00,AAXX 27184 41964 02356 81608 10293 20260 30033 40035 8662/ 333 58005 70010 82709 85616 88460==
41964,2024,06,27,21,00,AAXX 27214 41964 02456 71506 10284 20260 30027 40029 85410 333 59003 70000 84616 86460==
41965,2024,06,21,00,00,AAXX 21004 41965 02430 80000 10280 20250 30017 40026 8461/ 333 58010 70020 83618 88460==
41965,2024,06,21,03,00,AAXX 21034 41965 02450 30000 10298 20240 30020 40029 83600 333 20260 59005 70020 83618==
41965,2024,06,21,06,00,AAXX 21064 41965 02440 61402 10295 20260 30012 40021 84610 333 59008 70020 83618 84460==
41965,2024,06,21,09,00,AAXX 21094 41965 02456 60000 10330 20260 39993 40002 84610 333 59018 70020 83618 84460==
41965,2024,06,21,12,00,AAXX 21124 41965 02440 60000 10280 20260 39994 40003 84610 333 10330 59004 70020 83618 84460==
41965,2024,06,21,15,00,AAXX 21154 41965 02430 61402 10280 20260 30011 40020 84610 333 58003 70020 83618 84460==
41965,2024,06,21,18,00,AAXX 21184 41965 NIL=
41965,2024,06,21,21,00,AAXX 21214 41965 02430 60000 10270 20250 30014 40023 84610 333 58003 70000 83618 84460==
41965,2024,06,22,00,00,AAXX 22004 41965 02440 50000 10265 20270 30004 40013 84610 333 59013 70000 83618 84460==
41965,2024,06,22,03,00,AAXX 22034 41965 02450 61401 10305 20270 30020 40029 84610 333 20262 58000 70000 83618 84460==
41965,2024,06,22,06,00,AAXX 22064 41965 02456 61301 10315 20260 30009 40018 84610 333 58003 70000 83618 84460==
41965,2024,06,22,09,00,AAXX 22094 41965 02456 52601 10330 20270 39992 40001 84610 333 59001 70000 83618 84460==
41965,2024,06,22,12,00,AAXX 22124 41965 02450 31401 10302 20280 39990 40999 83600 333 10336 59004 70000 83618==
41965,2024,06,22,15,00,AAXX 22154 41965 02430 30000 10287 20270 30013 40022 83600 333 58002 70000 83618==
41965,2024,06,22,18,00,AAXX 22184 41965 02430 30000 10280 20270 30015 40024 83600 333 58002 70000 83618==
41965,2024,06,22,21,00,AAXX 22214 41965 02430 51401 10280 20240 30017 40026 84610 333 58003 70000 83618==
41965,2024,06,23,00,00,AAXX 23004 41965 02440 71402 10275 20270 30025 40034 84610 333 58021 70000 83618 86460==
41965,2024,06,23,03,00,AAXX 23034 41965 02450 71301 10306 20280 30030 40039 84610 333 20268 58010 70000 83618 86460==
41965,2024,06,23,06,00,AAXX 23064 41965 01450 71401 10326 20280 30020 40029 70262 84610 333 58011 70050 83618 86460==
41965,2024,06,23,09,00,AAXX 23094 41965 02456 51301 10330 20280 39995 40004 84610 333 58003 70050 83618 84460==
41965,2024,06,23,12,00,AAXX 23124 41965 02450 51401 10303 20260 39989 49998 84610 333 10335 59001 70050 83618 84460==
41965,2024,06,23,15,00,AAXX 23154 41965 02430 81301 10290 20260 30011 40020 8461/ 333 59002 70050 81710 83618 88460==
41965,2024,06,23,18,00,AAXX 23184 41965 NIL=
41965,2024,06,23,21,00,AAXX 23214 41965 01430 81301 10275 20270 30014 40023 70262 8461/ 333 59003 70150 81710 83618 88460==
41965,2024,06,24,00,00,AAXX 24004 41965 11440 60000 10275 20260 30016 40025 60106 70262 84610 333 59009 70150 83618 84460==
41965,2024,06,24,03,00,AAXX 24034 41965 01440 80000 10305 20260 30025 40034 70362 8461/ 333 20270 59005 70020 81710 83618 88460==
41965,2024,06,24,06,00,AAXX 24064 41965 21450 81402 10316 20250 30017 40026 70266 84610 333 59003 60079 70170 83618 86460==
41965,2024,06,24,09,00,AAXX 24094 41965 02456 52201 10324 20260 39993 40002 84610 333 59002 70170 83618 84460==
41965,2024,06,24,12,00,AAXX 24124 41965 02450 51401 10306 20250 39989 49998 84610 333 10330 58000 70170 83618 84460==
41965,2024,06,24,15,00,AAXX 24154 41965 02430 50000 10284 20260 30004 40013 84610 333 59007 70170 83618 84460==
41965,2024,06,24,18,00,AAXX 24184 41965 NIL=
41965,2024,06,24,21,00,AAXX 24214 41965 32430 60000 10275 20250 30005 40014 84610 333 56990 59009 70070 83618 84460=
41965,2024,06,25,00,00,AAXX 25004 41965 32440 80000 10270 20250 30007 40016 8461/ 333 56999 59009 70070 83618 88460=
41965,2024,06,25,03,00,AAXX 25034 41965 02450 50000 10325 20260 30020 40029 84610 333 20266 59005 70020 83618 84460==
41965,2024,06,25,06,00,AAXX 25064 41965 02456 62601 10332 20260 30007 40016 84610 333 59010 70000 83618 84460==
41965,2024,06,25,09,00,AAXX 25094 41965 02456 61401 10330 20240 39982 49991 84610 333 59011 70000 83618 84460==
41965,2024,06,25,12,00,AAXX 25124 41965 02450 60000 10310 20260 39984 49993 84610 333 10340 59005 70000 83618 84460==
41965,2024,06,25,15,00,AAXX 25154 41965 02430 50000 10285 20270 30002 40011 84610 333 59002 70000 83618 84460==
41965,2024,06,25,21,00,AAXX 25214 41965 02430 30000 10276 20260 30001 40009 83600 333 59004 70000 83618==
41965,2024,06,26,00,00,AAXX 26004 41965 02440 60000 10278 20260 30003 40012 84610 333 59004 70000 83618 84460==
41965,2024,06,26,03,00,AAXX 26034 41965 02450 61401 10315 20260 30013 40022 84610 333 20273 59007 70000 83618 84460==
41965,2024,06,26,06,00,AAXX 26064 41965 02450 61301 10325 20260 30004 40005 84610 333 59002 70000 83618 84460==
41965,2024,06,26,09,00,AAXX 26094 41965 02456 61301 10325 20230 39980 49990 84610 333 59001 70000 83618 84460==
41965,2024,06,26,12,00,AAXX 26124 41965 02440 80000 10300 20230 39994 40003 8461/ 333 10344 58010 70000 83618 88460==
41965,2024,06,26,15,00,AAXX 26154 41965 02430 80000 10285 20230 30024 40033 8461/ 333 58022 70000 83618 88460==
41965,2024,06,26,18,00,AAXX 26184 41965 NIL=
41965,2024,06,27,00,00,AAXX 27004 41965 11440 81401 10264 20210 30026 40035 60056 70262 8461/ 333 58023 70050 83618 88460==
41965,2024,06,27,03,00,AAXX 27034 41965 02450 50000 10260 20210 30036 40045 84610 333 58023 70050 83618 84460==
41965,2024,06,27,06,00,AAXX 27064 41965 02456 61401 10335 20190 30028 40037 84610 333 58023 70050 83618 84460==
41965,2024,06,27,09,00,AAXX 27094 41965 02450 72601 10318 20200 30015 40024 8461/ 333 58034 70050 83618 88460==
41965,2024,06,27,12,00,AAXX 27124 41965 02440 81402 10282 20200 30022 40031 8461/ 333 58028 70050 81710 83618 88460==
41965,2024,06,27,15,00,AAXX 27154 41965 02430 81301 10275 20190 30036 40045 8461/ 333 58012 70050 83618 88460==
41965,2024,06,27,18,00,AAXX 27184 41965 02430 81402 10275 20190 30037 40046 8461/ 333 58012 70050 83618 88460==
41965,2024,06,27,21,00,AAXX 27214 41965 02430 81301 10275 20180 30037 40046 8461/ 333 58011 70000 83618 88460==
41966,2024,06,21,00,00,AAXX 21004 41966 02440 60901 10265 20250 39943 40022 83510 333 59005 70024 83616 85460==
41966,2024,06,21,03,00,AAXX 21034 41966 02450 41301 10310 20230 39958 40036 82510 333 20250 59009 70024 82616 83460==
41966,2024,06,21,06,00,AAXX 21064 41966 02450 41301 10325 20210 39946 40023 82510 333 59007 70024 82616 83460==
41966,2024,06,21,09,00,AAXX 21094 41966 01450 72201 10275 20260 39931 40008 72162 83510 333 58005 70044 83616 86460==
41966,2024,06,21,12,00,AAXX 21124 41966 21440 61201 10285 20260 39928 40006 70162 82510 333 10330 59009 60045 70044 82616 85460==
41966,2024,06,21,15,00,AAXX 21154 41966 02430 61501 10270 20250 39943 40022 82510 333 59004 70044 82616 85460==
41966,2024,06,21,18,00,AAXX 21184 41966 NIL=
41966,2024,06,21,21,00,AAXX 21214 41966 02420 51701 10267 20250 39942 40021 82510 333 58001 70044 82616 84460==
41966,2024,06,22,00,00,AAXX 22004 41966 02440 50901 10270 20240 39939 40017 82510 333 59005 70044 82616 84460==
41966,2024,06,22,03,00,AAXX 22034 41966 02450 41201 10320 20240 39950 40027 82510 333 20260 59009 70044 82616 83460==
41966,2024,06,22,06,00,AAXX 22064 41966 02550 41501 10340 20200 39941 40017 82130 333 59006 70044 82826 83362==
41966,2024,06,22,12,00,AAXX 22124 41966 02/40 31201 10305 20250 39927 40004 83030 333 10347 59002 70000 83362==
41966,2024,06,22,15,00,AAXX 22154 41966 02/30 31501 10285 20250 39934 40012 83030 333 59010 70000 83362==
41966,2024,06,22,18,00,AAXX 22184 41966 02420 41601 10280 20250 39948 40026 82510 333 59001 70000 82616 83460==
41966,2024,06,22,21,00,AAXX 22214 41966 02420 41801 10278 20250 39951 40029 82510 333 58008 70000 82616 83460==
41966,2024,06,23,00,00,AAXX 23004 41966 02440 61201 10275 20260 39961 40039 82510 333 58022 70000 82616 85460==
41966,2024,06,23,03,00,AAXX 23034 41966 02/50 31501 10305 20240 39955 40033 83030 333 20268 58006 70000 83362==
41966,2024,06,23,06,00,AAXX 23064 41966 02/50 31802 10340 20230 39955 40031 83030 333 58014 70000 83362==
41966,2024,06,23,09,00,AAXX 23094 41966 02450 41501 10330 20240 39931 40007 82510 333 58012 70000 82616 83460==
41966,2024,06,23,12,00,AAXX 23124 41966 02440 41201 10305 20250 39928 40005 82510 333 10345 58001 70000 82616 83460==
41966,2024,06,23,15,00,AAXX 23154 41966 02430 41301 10295 20240 39937 40014 82510 333 58002 70000 82616 83460==
41966,2024,06,23,18,00,AAXX 23184 41966 NIL=
41966,2024,06,23,21,00,AAXX 23214 41966 02420 41501 10280 20260 39943 40022 82510 333 59007 70000 82616 83460==
41966,2024,06,24,00,00,AAXX 24004 41966 02440 60901 10275 20260 39950 40028 83510 333 59011 70000 83616 85460==
41966,2024,06,24,03,00,AAXX 24034 41966 02350 81301 10285 20260 39965 40043 8472/ 333 20268 58010 70080 82709 83615 88460==
41966,2024,06,24,06,00,AAXX 24064 41966 01350 80801 10280 20260 39957 40035 76162 8472/ 333 58004 70110 82709 83615 88460==
41966,2024,06,24,09,00,AAXX 24094 41966 01450 71801 10310 20240 39931 40008 70162 83510 333 58001 70112 83616 86460==
41966,2024,06,24,12,00,AAXX 24124 41966 11440 71501 10305 20250 39929 40006 69926 70262 83510 333 10315 58001 70112 83616 86460==
41966,2024,06,24,15,00,AAXX 24154 41966 02430 61402 10290 20250 39940 40018 83510 333 58004 70112 83616 85460==
41966,2024,06,24,18,00,AAXX 24184 41966 NIL=
41966,2024,06,24,21,00,AAXX 24214 41966 32420 61301 10276 20260 39949 40027 83510 333 56990 58005 70112 83616 85460=
41966,2024,06,25,00,00,AAXX 25004 41966 02440 70901 10270 20250 39951 40029 83510 333 58001 70112 83616 86460==
41966,2024,06,25,03,00,AAXX 25034 41966 02450 71301 10295 20260 39959 40036 83510 333 20266 59007 70032 83616 86460==
41966,2024,06,25,06,00,AAXX 25064 41966 02450 61501 10328 20210 39945 40021 83510 333 59014 70002 83616 85460==
41966,2024,06,25,09,00,AAXX 25094 41966 02450 61301 10330 20200 39919 49995 83510 333 59013 70000 83616 85460==
41966,2024,06,25,12,00,AAXX 25124 41966 02440 61501 10320 20250 39920 49997 83510 333 10335 59009 70000 83616 85460==
41966,2024,06,25,15,00,AAXX 25154 41966 02430 61201 10298 20260 39938 40016 83510 333 59002 70000 83616 85460==
41966,2024,06,25,21,00,AAXX 25214 41966 01420 71801 10280 20260 39948 40026 70362 83510 333 59001 70005 83616 86460==
41966,2024,06,26,00,00,AAXX 26004 41966 11440 70901 10276 20260 39943 40021 69956 70262 83510 333 59008 70005 83616 86460==
41966,2024,06,26,03,00,AAXX 26034 41966 02450 51301 10315 20230 39949 40026 82510 333 20270 59010 70005 82616 84460==
41966,2024,06,26,06,00,AAXX 26064 41966 02450 72001 10320 20240 39946 40023 83510 333 58002 70005 83616 86460==
41966,2024,06,26,09,00,AAXX 26094 41966 02450 52201 10345 20230 39926 40001 82510 333 58006 70005 83616 86460==
41966,2024,06,26,12,00,AAXX 26124 41966 01440 72101 10272 20250 39938 40017 72162 83510 333 10350 58020 70300 83616 86460==
41966,2024,06,26,15,00,AAXX 26154 41966 02430 71801 10272 20250 39948 40027 83510 333 58011 70305 83616 86460==
41966,2024,06,26,18,00,AAXX 26184 41966 NIL=
41966,2024,06,26,21,00,AAXX 26214 41966 01320 81801 10265 20250 39954 40033 79596 8492/ 333 58007 70465 82709 83615 88460 81930==
41966,2024,06,27,00,00,AAXX 27004 41966 21440 70901 10260 20240 39965 40043 70196 83510 333 58022 60218 70510 83616 86460==
41966,2024,06,27,03,00,AAXX 27034 41966 02450 51801 10310 20210 39976 40054 82510 333 20255 58028 70510 82616 84460==
41966,2024,06,27,06,00,AAXX 27064 41966 02450 52201 10335 20190 39965 40041 82510 333 58018 70510 82616 84460==
41966,2024,06,27,09,00,AAXX 27094 41966 02450 61301 10335 20200 39947 40024 83510 333 58023 70510 83616 85460==
41966,2024,06,27,12,00,AAXX 27124 41966 01440 71201 10280 20250 39953 40031 72996 83510 333 10343 58014 70020 83616 86460==
41966,2024,06,27,18,00,AAXX 27184 41966 02420 61201 10275 20260 39963 40041 83510 333 58009 70232 83616 85460==
41966,2024,06,27,21,00,AAXX 27214 41966 02420 61301 10270 20250 39961 40039 83510 333 58006 70067 83616 85460==
41977,2024,06,21,00,00,AAXX 21004 41977 01340 80000 10268 20260 39996 40034 76162 8632/ 333 58006 70194 82708 84615 88458 81928==
41977,2024,06,21,03,00,AAXX 21034 41977 01345 80000 10299 20270 30023 40061 70561 8662/ 333 20263 58014 70204 81708 84615 88482==
41977,2024,06,21,06,00,AAXX 21064 41977 01350 80000 10306 20270 39995 40033 70561 8662/ 333 59014 70154 81710 84616 88460==
41977,2024,06,21,09,00,AAXX 21094 41977 01450 30000 10324 20260 39975 40012 70521 83500 333 59005 70050 83618==
41977,2024,06,21,12,00,AAXX 21124 41977 01450 80000 10290 20270 39980 40018 72121 8432/ 333 10329 59007 70002 82616 88460 81930==
41977,2024,06,21,15,00,AAXX 21154 41977 01450 71803 10279 20270 30000 40038 70522 83570 333 58001 70052 83617 85459==
41977,2024,06,21,18,00,AAXX 21184 41977 01450 71302 10274 20250 30004 40042 70522 83570 333 58007 70052 83617 85459==
41977,2024,06,21,21,00,AAXX 21214 41977 01450 70000 10266 20260 39991 40029 70522 84570 333 59003 70052 84617 85459==
41977,2024,06,22,00,00,AAXX 22004 41977 01450 70000 10266 20260 39991 40029 70522 84570 333 59003 70052 84617 85459==
41977,2024,06,22,03,00,AAXX 22034 41977 01456 62202 10310 20260 30005 40043 70522 83570 333 20262 59018 70002 83617 86460==
41977,2024,06,22,06,00,AAXX 22064 41977 01456 71303 10320 20260 39995 40032 70362 84570 333 58000 70000 84616 85459==
41977,2024,06,22,09,00,AAXX 22094 41977 01456 42105 10330 20260 39980 40017 70522 82530 333 58005 70002 82618 84362==
41977,2024,06,22,12,00,AAXX 22124 41977 41450 52506 10308 20270 39978 40015 70522 83530 333 10335 59002 83618 85362==
41977,2024,06,22,15,00,AAXX 22154 41977 41450 60000 10300 20270 39997 40034 70522 83530 333 59003 83618 85362==
41977,2024,06,22,18,00,AAXX 22184 41977 41450 70000 10291 20270 30011 40048 70522 84510 333 58007 84618 86460==
41977,2024,06,22,21,00,AAXX 22214 41977 41450 70000 10279 20260 39998 40036 70522 84510 333 58007 84618 87460==
41977,2024,06,23,00,00,AAXX 23004 41977 41450 70000 10281 20260 30009 40046 70522 84430 333 58013 83618 86362==
41977,2024,06,23,03,00,AAXX 23034 41977 41450 60000 10316 20250 30022 40059 70522 84510 333 20275 58017 84618 84460==
41977,2024,06,23,06,00,AAXX 23064 41977 01450 62004 10325 20280 30021 40058 70522 84520 333 58026 70000 84618 86460==
41977,2024,06,23,09,00,AAXX 23094 41977 01450 52105 10332 20270 39986 40023 70522 83530 333 58006 70000 83618 85362==
41977,2024,06,23,12,00,AAXX 23124 41977 01450 72504 10306 20280 39979 40016 70522 84570 333 10334 58001 70000 84617 85460==
41977,2024,06,23,15,00,AAXX 23154 41977 01450 62004 10302 20270 39998 40035 70522 84520 333 58001 70000 84618 86460==
41977,2024,06,23,18,00,AAXX 23184 41977 31450 70000 10293 20270 39997 40034 70522 84570 333 56990 59014 70000 84617 85460=
41977,2024,06,23,19,00,AAXX 23194 41977 01450 70000 10293 20270 39997 40034 70522 84570 333 59014 70000 84617 85460==
41977,2024,06,23,21,00,AAXX 23214 41977 01450 60000 10290 20280 39994 40031 70562 83530 333 59004 70060 83618 86362==
41977,2024,06,24,00,00,AAXX 24004 41977 11450 80000 10282 20280 30000 40038 60066 70562 8452/ 333 59009 70060 84618 88460==
41977,2024,06,24,03,00,AAXX 24034 41977 01450 80000 10303 20260 30021 40059 70522 8452/ 333 20274 59001 70060 84618 88460==
41977,2024,06,24,06,00,AAXX 24064 41977 01450 72405 10315 20270 30018 40056 70522 84520 333 59003 70060 84617 86460==
41977,2024,06,24,09,00,AAXX 24094 41977 01450 62202 10309 20260 39977 40015 70522 83510 333 59009 70060 83618 86460==
41977,2024,06,24,12,00,AAXX 24124 41977 01450 70000 10306 20270 39976 40014 70522 84510 333 10330 59003 70060 84618 87460==
41977,2024,06,24,15,00,AAXX 24154 41977 01450 61302 10295 20280 39995 40032 70522 83510 333 59003 70060 83617 86459==
41977,2024,06,24,18,00,AAXX 24184 41977 01440 81803 10288 20270 30003 40040 71322 8532/ 333 58006 70060 84617 88458 81928==
41977,2024,06,24,21,00,AAXX 24214 41977 31440 71502 10280 20260 39988 40025 71722 85970 333 56990 59006 70000 84617 81928 85460=
41977,2024,06,25,00,00,AAXX 25004 41977 11450 70000 10270 20270 39996 40034 69924 70595 84570 333 56990 59006 70002 84618 85460=
41977,2024,06,25,03,00,AAXX 25034 41977 01450 60000 10313 20260 30021 40058 70522 84530 333 20265 58000 70002 84618 84362==
41977,2024,06,25,06,00,AAXX 25064 41977 01450 70000 10318 20270 30002 40040 70522 84570 333 59016 70002 84617 86460==
41977,2024,06,25,09,00,AAXX 25094 41977 01450 70000 10338 20260 39966 40003 70522 84570 333 59011 70002 84617 86460==
41977,2024,06,25,12,00,AAXX 25124 41977 01450 70000 10310 20260 39972 40010 70522 84570 333 10340 59004 70002 84617 86460==
41977,2024,06,25,15,00,AAXX 25154 41977 01450 70000 10289 20280 39988 40025 71722 84310 333 59007 70002 83618 87460 81930==
41977,2024,06,25,21,00,AAXX 25214 41977 02450 80000 10280 20270 39979 40017 8452/ 333 59009 70006 84618 88460==
41977,2024,06,26,00,00,AAXX 26004 41977 02450 70000 10275 20270 39986 40023 84510 333 59010 70004 84618 87460==
41977,2024,06,26,03,00,AAXX 26034 41977 02450 70000 10310 20260 30004 40042 84510 333 20272 59017 70004 84618 86460==
41977,2024,06,26,06,00,AAXX 26064 41977 02450 82703 10330 20270 30011 40047 8452/ 333 58009 70004 84617 88460==
41977,2024,06,26,09,00,AAXX 26094 41977 02450 62305 10324 20260 39984 40021 83570 333 58018 70004 83618 85362==
41977,2024,06,26,12,00,AAXX 26124 41977 11450 81503 10304 20270 39980 40017 60002 75152 8452/ 333 10338 58008 70004 84615 88458==
41977,2024,06,26,15,00,AAXX 26154 41977 02450 81503 10294 20270 30012 40049 8452/ 333 58024 70004 84617 88460==
41977,2024,06,26,18,00,AAXX 26184 41977 21450 82703 10270 20270 30014 40052 76161 8452/ 333 58020 60057 70050 84615 88458==
41977,2024,06,26,21,00,AAXX 26214 41977 02450 80000 10270 20270 30012 40049 8452/ 333 58033 70050 84617 88460==
41977,2024,06,27,00,00,AAXX 27004 41977 02450 70000 10272 20260 30008 40045 84510 333 58022 70050 84618 87460==
41977,2024,06,27,03,00,AAXX 27034 41977 02450 61203 10320 20250 30025 40063 84510 333 20265 58021 70050 84618 86460==
41977,2024,06,27,06,00,AAXX 27064 41977 02450 51603 10334 20250 30031 40068 84520 333 58020 70050 84617 84460==
41977,2024,06,27,09,00,AAXX 27094 41977 02450 61302 10327 20250 39999 40036 83510 333 58015 70050 83618 85460==
41977,2024,06,27,12,00,AAXX 27124 41977 11450 80000 10280 20260 30008 40045 69962 70362 8432/ 333 10345 70056 85028 82710 88460 81930==
41977,2024,06,27,18,00,AAXX 27184 41977 02450 71802 10278 20260 30022 40059 84570 333 58008 70006 84618 86460==
41977,2024,06,27,21,00,AAXX 27214 41977 02450 70000 10277 20260 30020 40057 84570 333 58008 70006 84618 86460==
41978,2024,06,21,00,00,AAXX 21004 41978 01440 80903 10270 20270 30011 40018 72162 8432/ 333 58001 70010 83614 88459 81928==
41978,2024,06,21,03,00,AAXX 21034 41978 01456 71706 10290 20280 30024 40031 70522 84320 333 20266 59002 70028 83616 87460 81930==
41978,2024,06,21,06,00,AAXX 21064 41978 02457 71904 10308 20270 30016 40022 84320 333 59006 70028 83618 87460 81930==
41978,2024,06,21,09,00,AAXX 21094 41978 02456 62408 10322 20270 39995 40001 83520 333 58001 70010 83618 85460==
41978,2024,06,21,12,00,AAXX 21124 41978 02456 71902 10303 20270 39994 40000 84320 333 10327 59009 70010 83618 87460 81930==
41978,2024,06,21,15,00,AAXX 21154 41978 01450 51203 10280 20270 30016 40023 70562 83520 333 58001 70094 83616 84460==
41978,2024,06,21,18,00,AAXX 21184 41978 11450 51303 10280 20270 30019 40026 60086 70562 83520 333 58008 70094 83616 84460==
41978,2024,06,21,21,00,AAXX 21214 41978 01450 51004 10280 20270 30010 40017 70522 83520 333 58000 70094 83616 84460==
41978,2024,06,22,00,00,AAXX 22004 41978 01450 51203 10270 20260 30011 40017 70522 83520 333 58000 70084 83618 84460==
41978,2024,06,22,03,00,AAXX 22034 41978 02457 61506 10313 20270 30020 40027 83520 333 20262 59004 70084 83618 85460==
41978,2024,06,22,06,00,AAXX 22064 41978 02457 52010 10332 20280 30013 40019 83520 333 59003 70084 83618 84460==
41978,2024,06,22,09,00,AAXX 22094 41978 02457 32212 10328 20280 39995 40001 83530 333 46990 58000 70084 83618==
41978,2024,06,22,12,00,AAXX 22124 41978 02457 52208 10314 20280 39994 40000 83530 333 10335 58000 70084 83618 83360==
41978,2024,06,22,15,00,AAXX 22154 41978 02556 31804 10300 20280 30017 40023 83200 333 70000 83826==
41978,2024,06,22,18,00,AAXX 22184 41978 02556 21502 10293 20280 30030 40037 82100 333 58011 70000 82826==
41978,2024,06,22,21,00,AAXX 22214 41978 02556 31603 10284 20270 30020 40026 83200 333 58010 70000 83826==
41978,2024,06,23,00,00,AAXX 23004 41978 41450 60903 10278 20270 30027 40033 70521 83520 333 58016 83618 85460==
41978,2024,06,23,03,00,AAXX 23034 41978 02457 61406 10318 20280 30034 40040 84910 333 20277 58014 70000 83618 85460 81930==
41978,2024,06,23,06,00,AAXX 23064 41978 02457 62010 10321 20280 30323 40029 83520 333 58010 70000 83618 85460==
41978,2024,06,23,09,00,AAXX 23094 41978 02457 62309 10324 20290 30003 40009 83530 333 58008 70000 83618 86360==
41978,2024,06,23,12,00,AAXX 23124 41978 02457 62108 10308 20290 39992 49998 83530 333 10330 59002 70000 83618 86360==
41978,2024,06,23,15,00,AAXX 23154 41978 02457 32204 10301 20270 30015 40021 83500 333 59002 70000 83618==
41978,2024,06,23,18,00,AAXX 23184 41978 02457 71202 10297 20290 30018 40024 84520 333 59012 70000 84617 86460==
41978,2024,06,23,21,00,AAXX 23214 41978 02457 82802 10290 20280 30012 40018 8432/ 333 59008 70000 84617 88460 81929==
41978,2024,06,24,00,00,AAXX 24004 41978 02450 80000 10276 20270 30022 40028 8432/ 333 59005 70044 84616 88459 81928==
41978,2024,06,24,03,00,AAXX 24034 41978 01457 61406 10300 20270 30030 40036 70262 84910 333 20273 59004 70054 83616 85460 81930==
41978,2024,06,24,06,00,AAXX 24064 41978 11457 52010 10320 20270 30021 40027 60011 70262 83520 333 59002 70054 83618 84460==
41978,2024,06,24,09,00,AAXX 24094 41978 02457 52209 10328 20280 39996 40002 83501 333 59007 70054 83618 82080==
41978,2024,06,24,12,00,AAXX 24124 41978 02457 52105 10306 20280 39994 40000 83520 333 10333 58002 70054 83618 84460==
41978,2024,06,24,15,00,AAXX 24154 41978 02456 62003 10300 20280 30009 40016 83530 333 59006 70054 83618 86360==
41978,2024,06,24,18,00,AAXX 24184 41978 01456 81104 10282 20270 30020 40026 76162 8432/ 333 58002 70020 83614 88459 81928==
41978,2024,06,24,21,00,AAXX 24214 41978 21456 81804 10276 20270 30009 40015 70262 8432/ 333 56999 59003 6994/ 70078 83614 81928 88459=
41978,2024,06,25,00,00,AAXX 25004 41978 11450 80703 10266 20260 30008 40014 60096 72166 8432/ 333 56999 59014 70124 83614 81926 88459=
41978,2024,06,25,03,00,AAXX 25034 41978 02457 51204 10310 20270 30021 40027 83520 333 20264 59009 70114 83618 84460==
41978,2024,06,25,06,00,AAXX 25064 41978 02457 52106 10322 20270 30012 40018 83520 333 59009 70114 83618 84460==
41978,2024,06,25,09,00,AAXX 25094 41978 02457 42507 10328 20260 39988 49994 82520 333 59008 70114 82618 83460==
41978,2024,06,25,12,00,AAXX 25124 41978 02557 62205 10319 20260 39989 49995 81110 333 10331 59005 70114 81828 85460==
41978,2024,06,25,15,00,AAXX 25154 41978 02457 62103 10300 20280 30010 40016 82310 333 58001 70114 81618 85460 81929==
41978,2024,06,25,18,00,AAXX 25184 41978 11440 81503 10283 20280 30011 40017 60026 76122 8432/ 333 59009 70116 84616 88459 81928==
41978,2024,06,25,21,00,AAXX 25214 41978 02457 70000 10282 20270 39997 40003 83520 333 59012 70112 83617 86460==
41978,2024,06,26,00,00,AAXX 26004 41978 01256 60802 10274 20260 30005 40011 70522 83526 333 59003 70022 83617 85460==
41978,2024,06,26,03,00,AAXX 26034 41978 02456 61504 10306 20270 30016 40023 83520 333 20272 59005 70022 83618 85460==
41978,2024,06,26,06,00,AAXX 26064 41978 02456 62106 10333 20270 30016 40022 83520 333 58004 70022 83618 85460==
41978,2024,06,26,09,00,AAXX 26094 41978 02457 72412 10328 20270 30000 40006 84320 333 58012 70022 83618 89130 86460==
41978,2024,06,26,12,00,AAXX 26124 41978 02457 72107 10302 20270 39995 40001 84320 333 10338 58006 70022 83618 86460 81930==
41978,2024,06,26,15,00,AAXX 26154 41978 01456 80000 10286 20280 30028 40034 76122 8432/ 333 58018 70042 83616 88458 81929==
41978,2024,06,26,18,00,AAXX 26184 41978 21456 81103 10272 20260 30029 40036 76196 8432/ 333 58018 60067 70082 83615 88460 81930==
41978,2024,06,26,21,00,AAXX 26214 41978 02456 70604 10267 20260 30026 40033 83520 333 58029 70060 83616 87460==
41978,2024,06,27,00,00,AAXX 27004 41978 02456 50704 10271 20260 30029 40036 83520 333 58024 70060 83616 84460==
41978,2024,06,27,03,00,AAXX 27034 41978 02457 41406 10317 20260 30040 40046 82520 333 20267 58024 70060 82618 83460==
41978,2024,06,27,06,00,AAXX 27064 41978 02457 41612 10332 20260 30033 40039 82520 333 58017 70060 82618 83460==
41978,2024,06,27,09,00,AAXX 27094 41978 01457 72007 10310 20270 30020 40026 72121 83320 333 58020 70060 83618 87460 81930==
41978,2024,06,27,12,00,AAXX 27124 41978 01440 81304 10280 20270 30025 40031 72166 8432/ 333 10350 58030 70084 83616 88459 81928==
41978,2024,06,27,15,00,AAXX 27154 41978 02450 71205 10278 20260 30039 40045 84320 333 58011 70064 83618 87460 81928==
41978,2024,06,27,18,00,AAXX 27184 41978 02450 71204 10275 20270 30038 40044 84320 333 58009 70024 83616 87460 81928==
41978,2024,06,27,21,00,AAXX 27214 41978 02450 71105 10274 20260 30032 40038 84320 333 58006 70024 83616 87460 81928==
41980,2024,06,21,00,00,AAXX 21004 41980 11340 80000 10252 20230 39914 40026 60027 72162 8662/ 333 59006 70060 83708 84614 88456=
41980,2024,06,21,06,00,AAXX 21064 41980 NIL=
41980,2024,06,21,12,00,AAXX 21124 41980 11440 80000 10268 20260 39900 40011 60225 70362 8452/ 333 10329 56999 59007 70440 84616 88458=
41980,2024,06,21,18,00,AAXX 21184 41980 NIL=
41980,2024,06,22,00,00,AAXX 22004 41980 32950 00000 10266 20250 39910 40021 333 59004 70240=
41980,2024,06,22,06,00,AAXX 22064 41980 NIL=
41980,2024,06,22,12,00,AAXX 22124 41980 11450 30000 10286 20250 39896 40001 60016 70362 83500 333 10332 56900 59004 70010 83618=
41980,2024,06,22,18,00,AAXX 22184 41980 NIL=
41980,2024,06,23,00,00,AAXX 23004 41980 32450 20000 10270 20250 39903 40014 82500 333 56900 59007 70010 83618=
41980,2024,06,23,06,00,AAXX 23064 41980 NIL=
41980,2024,06,23,12,00,AAXX 23124 41980 11450 61302 10292 20240 39890 40010 60028 70362 83520 333 10326 56990 59006 70020 83616 86458=
41980,2024,06,23,18,00,AAXX 23184 41980 NIL=
41980,2024,06,24,00,00,AAXX 24004 41980 11340 80000 10254 20240 39925 40037 60109 76166 8662/ 333 56999 58024 70120 83709 84614 88456=
41980,2024,06,24,06,00,AAXX 24064 41980 NIL=
41980,2024,06,24,12,00,AAXX 24124 41980 32450 80000 10282 20270 39903 40013 8352/ 333 10325 56999 58013 70100 83616 88458=
41980,2024,06,24,18,00,AAXX 24184 41980 NIL=
41980,2024,06,25,00,00,AAXX 25004 41980 32450 60000 10260 20250 39913 40024 83520 333 56990 59012 70170 83616 86458=
41980,2024,06,25,06,00,AAXX 25064 41980 NIL=
41980,2024,06,25,12,00,AAXX 25124 41980 32450 70000 10302 20260 39890 49998 83520 333 10330 56990 59013 70070 83616 87458=
41980,2024,06,26,00,00,AAXX 26004 41980 32450 60000 10260 20240 39907 40018 83520 333 56990 59006 70090 83616 86458=
41980,2024,06,26,06,00,AAXX 26064 41980 NIL=
41980,2024,06,26,12,00,AAXX 26124 41980 11450 60000 10286 20270 39896 40006 60026 70296 83520 333 10332 56990 58006 70110 83616 86459=
41980,2024,06,26,18,00,AAXX 26184 41980 NIL=
41980,2024,06,27,06,00,AAXX 27064 41980 NIL=
41980,2024,06,27,12,00,AAXX 27124 41980 11440 81804 10276 20260 39929 40040 60013 76621 8452/ 333 10334 56999 58033 70110 84616 88458=
41984,2024,06,21,00,00,AAXX 21004 41984 02440 80000 10256 20256 30002 40004 8542/ 333 58011 70750 84616 88459==
41984,2024,06,21,03,00,AAXX 21034 41984 02450 80000 10274 20260 30016 40018 8542/ 333 20245 58006 70750 84618 88459==
41984,2024,06,21,06,00,AAXX 21064 41984 21458 60000 10325 20260 30007 40009 70162 85410 333 58006 60015 70700 84618 86459==
41984,2024,06,21,09,00,AAXX 21094 41984 02457 80000 10305 20270 39993 49995 8542/ 333 58005 70170 84618 88459==
41984,2024,06,21,12,00,AAXX 21124 41984 02456 80000 10300 20270 39989 49991 8542/ 333 10335 70040 84618 88459==
41984,2024,06,21,15,00,AAXX 21154 41984 02430 61801 10285 20280 39995 49997 85410 333 59005 70010 84618 86459==
41984,2024,06,21,18,00,AAXX 21184 41984 02430 60000 10280 20270 30009 40011 84410 333 58009 70010 83618 86459==
41984,2024,06,21,21,00,AAXX 21214 41984 02430 80000 10275 20270 30003 40005 8542/ 333 58002 70010 84616 88459==
41984,2024,06,22,00,00,AAXX 22004 41984 01450 70000 10265 20260 30000 40002 70162 85410 333 59002 70020 84616 87459==
41984,2024,06,22,03,00,AAXX 22034 41984 02457 70000 10323 20270 30009 40011 84510 333 20260 70030 84618 87459==
41984,2024,06,22,06,00,AAXX 22064 41984 02458 71302 10344 20270 30004 40006 85410 333 59003 70020 82618 83823 87459==
41984,2024,06,22,09,00,AAXX 22094 41984 01450 80000 10274 20260 39988 49990 76122 8542/ 333 59005 70250 84616 88459==
41984,2024,06,22,12,00,AAXX 22124 41984 21456 60000 10310 20280 39983 49985 70162 86400 333 10350 59006 60235 70250 83616 83823==
41984,2024,06,22,15,00,AAXX 22154 41984 02430 40000 10290 20280 30004 40006 84400 333 58009 70250 83618==
41984,2024,06,22,18,00,AAXX 22184 41984 02930 00000 10282 20270 30018 40020 333 58009 70250==
41984,2024,06,22,21,00,AAXX 22214 41984 02430 60000 10280 20270 30016 40018 84410 333 58013 70250 83618 86459==
41984,2024,06,23,00,00,AAXX 23004 41984 01440 80000 10276 20275 30014 40016 76122 8542/ 333 58014 70060 84616 88459==
41984,2024,06,23,03,00,AAXX 23034 41984 02458 61801 10332 20270 30019 40021 84410 333 20268 58010 70290 83618 86459==
41984,2024,06,23,06,00,AAXX 23064 41984 NIL=
41984,2024,06,23,09,00,AAXX 23094 41984 02458 61804 10330 20270 39999 40001 85410 333 58011 70060 82618 83823 86459==
41984,2024,06,23,12,00,AAXX 23124 41984 02456 41802 10315 20270 39989 49991 84400 333 10345 58006 70060 83618==
41984,2024,06,23,15,00,AAXX 23154 41984 02930 01902 10290 20260 39994 49996 333 59010 70060==
41984,2024,06,23,18,00,AAXX 23184 41984 32930 00000 10285 20280 30002 40004 333 59016 70060=
41984,2024,06,23,19,00,AAXX 23194 41984 02930 00000 10285 20280 30002 40004 333 59016 70060==
41984,2024,06,23,21,00,AAXX 23214 41984 02430 40000 10283 20270 30002 40004 84400 333 59014 70060 83618==
41984,2024,06,24,00,00,AAXX 24004 41984 02450 60000 10280 20270 30009 40011 84410 333 59005 70000 83618 86459==
41984,2024,06,24,03,00,AAXX 24034 41984 02458 80000 10315 20280 30016 40018 8542/ 333 20275 59003 70000 84618 88459==
41984,2024,06,24,06,00,AAXX 24064 41984 02458 51803 10345 20270 30007 40009 85400 333 59012 70000 82618 83823==
41984,2024,06,24,09,00,AAXX 24094 41984 02458 51803 10340 20280 39991 49993 85400 333 59008 70000 82618 83823==
41984,2024,06,24,12,00,AAXX 24124 41984 02456 51804 10315 20270 39985 49987 85400 333 10355 59014 70000 84618==
41984,2024,06,24,15,00,AAXX 24154 41984 02930 01803 10300 20270 30000 40002 333 58006 70000==
41984,2024,06,24,18,00,AAXX 24184 41984 02930 00000 10295 20280 30006 40008 333 58004 70000==
41984,2024,06,24,21,00,AAXX 24214 41984 32930 00000 10293 20280 30001 40003 333 59001 70000=
41984,2024,06,25,00,00,AAXX 25004 41984 32450 40000 10290 20280 39995 49997 84400 333 56900 59014 70000 83618=
41984,2024,06,25,03,00,AAXX 25034 41984 02457 80000 10328 20270 30012 40014 8442/ 333 20284 59004 70000 83618 88459==
41984,2024,06,25,06,00,AAXX 25064 41984 02458 72302 10338 20270 30004 40006 84410 333 59003 70000 83618 87459==
41984,2024,06,25,09,00,AAXX 25094 41984 02458 82303 10328 20270 39983 49985 8442/ 333 59008 70000 83618 88459==
41984,2024,06,25,12,00,AAXX 25124 41984 02456 60000 10320 20270 39981 49983 86400 333 10360 59004 70000 83618 83823==
41984,2024,06,25,15,00,AAXX 25154 41984 42430 60000 10300 20290 39998 40000 84410 333 59002 83618 86459==
41984,2024,06,25,18,00,AAXX 25184 41984 02430 60000 10296 20290 30004 40006 84410 333 59002 70000 83618 86459==
41984,2024,06,25,21,00,AAXX 25214 41984 02430 80000 10290 20280 30001 40003 8542/ 333 58000 70000 84618 88459==
41984,2024,06,26,00,00,AAXX 26004 41984 01440 80000 10282 20270 39997 49999 76122 8542/ 333 58002 70010 84616 88459==
41984,2024,06,26,03,00,AAXX 26034 41984 01456 80000 10326 20280 30007 40009 70262 8542/ 333 20275 59005 70040 84618 88459==
41984,2024,06,26,06,00,AAXX 26064 41984 11457 71802 10320 20270 30011 40013 60036 70162 84410 333 58007 70040 83618 87459==
41984,2024,06,26,09,00,AAXX 26094 41984 02457 61802 10331 20270 39984 49986 83510 333 58001 70040 83618 85458==
41984,2024,06,26,12,00,AAXX 26124 41984 02456 80000 10308 20270 39984 49986 8352/ 333 10341 58003 70040 83618 88458==
41984,2024,06,26,15,00,AAXX 26154 41984 02440 50000 10298 20270 30005 40007 83510 333 58007 70040 83618 85458==
41984,2024,06,26,18,00,AAXX 26184 41984 02440 50000 10297 20270 30012 40014 83510 333 58008 70040 83618 85458==
41984,2024,06,26,21,00,AAXX 26214 41984 02430 80000 10293 20280 30011 40013 8442/ 333 58010 70040 83618 88459==
41984,2024,06,27,00,00,AAXX 27004 41984 01430 80000 10272 20270 30009 40011 76162 8542/ 333 58011 70260 84616 88459==
41984,2024,06,27,03,00,AAXX 27034 41984 01456 71804 10298 20270 30018 40020 76166 85410 333 20266 58012 70300 84616 87459==
41984,2024,06,27,06,00,AAXX 27064 41984 21456 71408 10320 20270 30017 40019 76166 86410 333 58006 60059 70310 83616 83823 87459==
41984,2024,06,27,09,00,AAXX 27094 41984 02457 51304 10320 20270 39996 49998 83510 333 58012 70310 83618 85458==
41984,2024,06,27,12,00,AAXX 27124 41984 02456 81302 10301 20270 39994 49997 8352/ 333 10330 58010 70310 83618 88458==
41984,2024,06,27,15,00,AAXX 27154 41984 02440 80000 10288 20280 30011 40013 8352/ 333 58006 70310 83618 88458==
41984,2024,06,27,18,00,AAXX 27184 41984 02440 51804 10297 20270 30012 40014 83510 333 58000 70310 83618 85458==
41984,2024,06,27,21,00,AAXX 27214 41984 02430 81803 10293 20270 30007 40009 8542/ 333 59004 70310 84616 88459==
41989,2024,06,21,00,00,AAXX 21004 41989 01430 61803 10268 20260 30015 40018 72162 83530 333 59007 70030 83618 83460==
41989,2024,06,21,03,00,AAXX 21034 41989 02450 51803 10275 20260 30034 40037 83530 333 58002 70030 83618 83362==
41989,2024,06,21,06,00,AAXX 21064 41989 02440 51403 10277 20250 30054 40058 83530 333 58014 70030 83618 83362==
41989,2024,06,21,09,00,AAXX 21094 41989 02450 41306 10315 20270 30021 40024 83430 333 59022 70030 82618 84362==
41989,2024,06,21,12,00,AAXX 21124 41989 02450 51803 10300 20260 30011 40014 83530 333 10330 59021 70030 83618 83362==
41989,2024,06,21,15,00,AAXX 21154 41989 02450 51702 10281 20250 30013 40017 82530 333 59037 70030 82618 85462==
41989,2024,06,21,18,00,AAXX 21184 41989 NIL=
41989,2024,06,21,21,00,AAXX 21214 41989 02450 41402 10275 20260 30017 40020 82530 333 59021 70030 82618 84362==
41989,2024,06,22,00,00,AAXX 22004 41989 02450 31802 10268 20250 30014 40017 83500 333 59001 70000 83618==
41989,2024,06,22,03,00,AAXX 22034 41989 02456 21705 10316 20260 30035 40038 82500 333 20256 58001 70000 82618==
41989,2024,06,22,06,00,AAXX 22064 41989 02450 41804 10330 20270 30024 40027 83530 333 59014 70000 82618 83362==
41989,2024,06,22,09,00,AAXX 22094 41989 02456 21704 10328 20270 30001 40004 82500 333 59020 70000 82618==
41989,2024,06,22,12,00,AAXX 22124 41989 02456 31303 10314 20270 39992 49995 83500 333 10332 59019 70000 83618==
41989,2024,06,22,15,00,AAXX 22154 41989 02450 31803 10290 20240 30021 40024 83530 333 58008 70000 83618==
41989,2024,06,22,18,00,AAXX 22184 41989 02440 31403 10285 20260 30031 40034 83500 333 58009 70000 83618==
41989,2024,06,22,21,00,AAXX 22214 41989 02440 41403 10280 20250 30018 40021 82530 333 58001 70000 82618 83362==
41989,2024,06,23,00,00,AAXX 23004 41989 02430 41804 10275 20260 30011 40014 82530 333 59007 70000 82618 83362==
41989,2024,06,23,03,00,AAXX 23034 41989 02450 51403 10298 20250 30045 40048 83530 333 20260 58010 70000 83618 83362==
41989,2024,06,23,06,00,AAXX 23064 41989 02456 41304 10328 20260 30032 40035 82530 333 58008 70000 82618 84362==
41989,2024,06,23,09,00,AAXX 23094 41989 02450 43102 10325 20280 30038 40041 82530 333 58037 70000 82618 83362==
41989,2024,06,23,12,00,AAXX 23124 41989 02450 41803 10310 20260 30021 40024 83530 333 10336 58029 70000 83618 83362==
41989,2024,06,23,15,00,AAXX 23154 41989 02450 51302 10299 20270 30019 40022 82570 333 59002 70000 82618 83362==
41989,2024,06,23,18,00,AAXX 23184 41989 NIL=
41989,2024,06,23,21,00,AAXX 23214 41989 02459 41702 10285 20270 30023 40026 83530 333 58005 70000 83618==
41989,2024,06,24,00,00,AAXX 24004 41989 01349 81302 10273 20260 30019 40022 76121 8572/ 333 58008 70010 82710 83614 88456==
41989,2024,06,24,03,00,AAXX 24034 41989 01450 71403 10288 20270 30036 40039 76201 83570 333 20266 59009 70020 83618 84460==
41989,2024,06,24,06,00,AAXX 24064 41989 11450 61304 10315 20270 30027 40030 60016 70162 83570 333 59005 70020 83618 84460==
41989,2024,06,24,09,00,AAXX 24094 41989 02456 41804 10326 20280 30003 40006 82530 333 59035 70020 82618 84362==
41989,2024,06,24,12,00,AAXX 24124 41989 02450 41703 10306 20270 39994 49997 83530 333 10328 59029 70020 83618==
41989,2024,06,24,15,00,AAXX 24154 41989 02450 31403 10300 20260 30028 40032 83500 333 58009 70020 83618==
41989,2024,06,24,18,00,AAXX 24184 41989 NIL=
41989,2024,06,24,21,00,AAXX 24214 41989 21440 61404 10285 20260 30019 40022 56990 59004 6025/ 70270 72162 83618 84460 84470=
41989,2024,06,25,00,00,AAXX 25004 41989 01440 61303 10280 20250 30014 40017 72162 84470 333 59005 70430 83618 84460==
41989,2024,06,25,03,00,AAXX 25034 41989 02450 51403 10300 20250 30037 40041 83530 333 20264 58001 70420 83618 83362==
41989,2024,06,25,06,00,AAXX 25064 41989 02456 51703 10318 20260 30024 40027 83530 333 59003 70420 83618 84362==
41989,2024,06,25,09,00,AAXX 25094 41989 02450 51803 10320 20270 30018 40021 83530 333 58013 70420 83618 84362==
41989,2024,06,25,12,00,AAXX 25124 41989 02450 51403 10300 20250 30004 40007 83530 333 10335 58010 70420 83618 83362==
41989,2024,06,25,15,00,AAXX 25154 41989 02450 60000 10297 20280 30010 40013 82570 333 59018 70420 82618 84460==
41989,2024,06,25,21,00,AAXX 25214 41989 02440 50000 10287 20280 30016 40019 82570 333 59003 70190 82618 83362==
41989,2024,06,26,00,00,AAXX 26004 41989 02440 50000 10283 20260 30009 40012 83530 333 59005 70020 83618 85362==
41989,2024,06,26,03,00,AAXX 26034 41989 02456 61803 10301 20270 30030 40033 82570 333 20276 59007 70020 82618 84460==
41989,2024,06,26,06,00,AAXX 26064 41989 02456 31404 10330 20270 30031 40034 83500 333 58007 70000 83618==
41989,2024,06,26,09,00,AAXX 26094 41989 01456 61703 10313 20270 30001 40004 70362 83570 333 59017 70040 83618 84460==
41989,2024,06,26,12,00,AAXX 26124 41989 01450 71703 10282 20260 39993 49996 72162 83570 333 10333 59011 70060 83618 85460==
41989,2024,06,26,15,00,AAXX 26154 41989 01440 81804 10285 20280 30041 40044 76162 8572/ 333 58031 70120 82708 83614 88456==
41989,2024,06,26,18,00,AAXX 26184 41989 NIL=
41989,2024,06,26,21,00,AAXX 26214 41989 02440 51804 10278 20250 30034 40037 82530 333 58018 70130 82618 84362==
41989,2024,06,27,00,00,AAXX 27004 41989 02450 41704 10275 20260 30028 40031 82530 333 58019 70130 82618 84362==
41989,2024,06,27,03,00,AAXX 27034 41989 02450 41803 10315 20270 30041 40045 83530 333 20267 58011 70130 83618 83362==
41989,2024,06,27,06,00,AAXX 27064 41989 02456 51304 10328 20260 30031 40034 82570 333 58000 70130 82618 83362==
41989,2024,06,27,09,00,AAXX 27094 41989 41350 81804 10285 20280 30031 40034 58030 70130 88456==
41989,2024,06,27,12,00,AAXX 27124 41989 21440 51403 10280 20250 30021 40024 70162 83570 333 10335 58028 60035 70120 82618 84460==
41989,2024,06,27,15,00,AAXX 27154 41989 02450 41305 10282 20260 30034 40038 82530 333 59007 70040 82618 84362==
41989,2024,06,27,18,00,AAXX 27184 41989 02450 51703 10280 20260 30043 40047 82570 333 59002 70030 82618 83362==
41989,2024,06,27,21,00,AAXX 27214 41989 02450 51705 10278 20260 30037 40040 83570 333 58003 70030 83618 83362==
41992,2024,06,21,00,00,AAXX 21004 41992 21320 80602 10250 20250 30026 40028 76396 8692/ 333 58016 60759 70870 82708 84612 88456 81925==
41992,2024,06,21,03,00,AAXX 21034 41992 41430 61503 10295 20270 30031 40033 70566 84520 333 20248 59002 84615 86460==
41992,2024,06,21,06,00,AAXX 21064 41992 11430 61808 10315 20270 30021 40023 60076 70562 84520 333 59004 70940 84615 86460==
41992,2024,06,21,09,00,AAXX 21094 41992 01430 62408 10300 20260 30006 40008 70522 84520 333 58000 70940 84615 86460==
41992,2024,06,21,12,00,AAXX 21124 41992 01430 71506 10280 20260 30006 40008 70522 84520 333 10322 59010 70940 84615 87460==
41992,2024,06,21,15,00,AAXX 21154 41992 01420 61503 10270 20250 30022 40024 70522 84520 333 59003 70940 84615 86460==
41992,2024,06,21,18,00,AAXX 21184 41992 01425 40000 10260 20250 30026 40028 71021 84500 333 58005 70820 84616==
41992,2024,06,21,21,00,AAXX 21214 41992 01420 60902 10262 20240 30011 40013 70522 84530 333 59005 70520 84616 86362==
41992,2024,06,22,00,00,AAXX 22004 41992 01430 60902 10260 20250 30018 40020 70522 84530 333 59008 70070 84616 86362==
41992,2024,06,22,03,00,AAXX 22034 41992 01435 31803 10305 20270 30023 40025 70522 82530 333 20258 59008 70000 82616 83362==
41992,2024,06,22,06,00,AAXX 22064 41992 01445 21803 10328 20270 30021 40023 70521 82400 333 58000 70000 81616==
41992,2024,06,22,09,00,AAXX 22094 41992 01440 21806 10322 20250 30001 40003 70511 82500 333 59005 70000 82616==
41992,2024,06,22,12,00,AAXX 22124 41992 01/35 21504 10307 20260 30002 40004 70511 82030 333 10330 59004 70000 82362==
41992,2024,06,22,15,00,AAXX 22154 41992 01425 40000 10290 20270 30025 40027 70511 84500 333 58003 70000 84616==
41992,2024,06,22,18,00,AAXX 22184 41992 01425 40000 10280 20260 30036 40038 70511 84500 333 58010 70000 84616==
41992,2024,06,22,21,00,AAXX 22214 41992 01420 80000 10275 20270 30021 40023 70562 8452/ 333 58010 70020 84616 88460==
41992,2024,06,23,00,00,AAXX 23004 41992 11430 60902 10270 20260 30030 40032 60026 70562 84520 333 58012 70020 84616 86460==
41992,2024,06,23,03,00,AAXX 23034 41992 01320 80000 10280 20260 30044 40046 76122 8692/ 333 20265 58021 70050 83708 85614 88458 81925==
41992,2024,06,23,06,00,AAXX 23064 41992 21435 51802 10323 20270 30031 40033 70565 81530 333 58010 60035 70050 81616 85362==
41992,2024,06,23,09,00,AAXX 23094 41992 01430 62106 10305 20280 30011 40013 70522 84530 333 58010 70050 84616 86462==
41992,2024,06,23,12,00,AAXX 23124 41992 41430 62106 10310 20260 30006 40008 70522 84501 333 10326 84616 86080==
41992,2024,06,23,15,00,AAXX 23154 41992 01425 30000 10290 20270 30023 40025 70521 83500 333 59002 70050 83616==
41992,2024,06,23,18,00,AAXX 23184 41992 01425 60000 10290 20270 30026 40028 70522 83530 333 58010 70050 83616 86362==
41992,2024,06,23,21,00,AAXX 23214 41992 01420 80302 10280 20260 30022 40024 76122 8592/ 333 58001 70040 84615 88458 81925==
41992,2024,06,24,00,00,AAXX 24004 41992 21320 80602 10270 20260 30028 40030 75196 8692/ 333 59002 60047 70070 82708 84614 88458 81925==
41992,2024,06,24,03,00,AAXX 24034 41992 01425 80000 10288 20270 30037 40039 70565 8432/ 333 20268 59007 70050 83615 88458 81925==
41992,2024,06,24,06,00,AAXX 24064 41992 01435 60000 10325 20280 30027 40029 70565 83530 333 59004 70050 83616 86362==
41992,2024,06,24,09,00,AAXX 24094 41992 01430 62104 10320 20260 30006 40008 70522 84501 333 59005 70050 84616 86080==
41992,2024,06,24,12,00,AAXX 24124 41992 01430 71802 10298 20270 30003 40005 70522 84530 333 10331 59003 70050 84616 87362==
41992,2024,06,24,15,00,AAXX 24154 41992 01320 80000 10282 20260 30022 40024 76122 8532/ 333 59001 70090 83707 85613 88458 81925==
41992,2024,06,24,18,00,AAXX 24184 41992 21425 70000 10284 20260 30028 40030 70562 84530 333 58002 60045 70090 84616 87360==
41992,2024,06,24,21,00,AAXX 24214 41992 21320 80902 10275 20270 30006 40008 72166 8692/ 333 56999 59016 6011/ 70190 82708 84614 81925 88458=
41992,2024,06,25,00,00,AAXX 25004 41992 11425 80302 10272 20270 30017 40019 60118 70562 8452/ 333 56999 59011 70160 84615 88460=
41992,2024,06,25,03,00,AAXX 25034 41992 01430 60000 10227 20270 30027 40029 70522 83530 333 20268 59010 70150 83616 86362==
41992,2024,06,25,06,00,AAXX 25064 41992 01435 50000 10317 20270 30019 40021 70522 81530 333 59008 70150 81616 85362==
41992,2024,06,25,09,00,AAXX 25094 41992 01435 50000 10317 20270 39994 49996 70522 82530 333 59012 70150 82616 85362==
41992,2024,06,25,12,00,AAXX 25124 41992 01430 60000 10300 20260 39995 49997 70522 83530 333 10326 59008 70150 83616 86362==
41992,2024,06,25,15,00,AAXX 25154 41992 01320 80000 10284 20270 30016 40018 76122 8532/ 333 59006 70120 83707 85613 88458 81925==
41992,2024,06,25,18,00,AAXX 25184 41992 21320 80000 10275 20270 30019 40021 75165 8432/ 333 59009 60017 70120 82708 84614 88458 81925==
41992,2024,06,25,21,00,AAXX 25214 41992 01420 80000 10275 20270 30006 40008 70522 8452/ 333 58000 70010 84615 88460==
41992,2024,06,26,00,00,AAXX 26004 41992 01425 80903 10273 20260 30010 40012 70522 8452/ 333 59007 70010 84615 88460==
41992,2024,06,26,03,00,AAXX 26034 41992 01430 51503 10315 20270 30021 40023 70522 81530 333 20270 59006 70010 81616 85362==
41992,2024,06,26,06,00,AAXX 26064 41992 01435 70000 10319 20270 30019 40021 70522 84530 333 58000 70010 84616 87360==
41992,2024,06,26,09,00,AAXX 26094 41992 01435 71804 10320 20270 30001 40003 70522 84530 333 58007 70010 84616 87360==
41992,2024,06,26,12,00,AAXX 26124 41992 01430 71702 10308 20270 30000 40002 70522 84530 333 10340 58005 70010 84616 87360==
41992,2024,06,26,15,00,AAXX 26154 41992 41425 80000 10295 20280 30032 40034 70522 8432/ 333 58016 83616 88460 81925==
41992,2024,06,26,18,00,AAXX 26184 41992 01420 80000 10275 20260 30035 40037 76122 8492/ 333 58016 70000 83614 88458 81925==
41992,2024,06,26,21,00,AAXX 26214 41992 41420 60000 10274 20240 30027 40029 70522 84520 333 58021 84615 86460==
41992,2024,06,27,00,00,AAXX 27004 41992 41425 61502 10270 20250 30032 40034 70522 84520 333 58022 84615 86460==
41992,2024,06,27,03,00,AAXX 27034 41992 41435 60000 10310 20260 30043 40045 70522 81530 333 20265 58022 81616 86362==
41992,2024,06,27,06,00,AAXX 27064 41992 41430 71504 10320 20250 30035 40037 70522 84530 333 58016 84615 87360==
41992,2024,06,27,09,00,AAXX 27094 41992 01325 81806 10282 20260 30028 40030 76162 8432/ 333 58027 70040 82708 84614 88458 81925==
41992,2024,06,27,12,00,AAXX 27124 41992 21430 51503 10285 20270 30030 40032 70562 83530 333 10330 58030 60058 70050 83616 85360==
41992,2024,06,27,15,00,AAXX 27154 41992 01320 81804 10275 20260 30047 40049 76162 8432/ 333 58015 70080 82708 84614 88458 81925==
41992,2024,06,27,18,00,AAXX 27184 41992 21320 81802 10272 20250 30046 40048 75162 8532/ 333 58011 60039 70080 82708 84614 88458 81925==
41992,2024,06,27,21,00,AAXX 27214 41992 01420 80906 10275 20260 30028 40030 75152 8452/ 333 58001 70080 84615 88460==
41998,2024,06,21,00,00,AAXX 21004 41998 NIL=
41998,2024,06,21,03,00,AAXX 21034 41998 01456 80000 10280 20260 30022 40026 72162 8342/ 333 20251 59007 70130 83618 88458==
41998,2024,06,21,06,00,AAXX 21064 41998 02456 80000 10283 20160 30007 40013 8342/ 333 59014 70130 83618 88458==
41998,2024,06,21,09,00,AAXX 21094 41998 01456 81402 10263 20250 39992 49998 76166 8442/ 333 59020 70180 83618 88458==
41998,2024,06,21,12,00,AAXX 21124 41998 21456 80000 10262 20250 30001 40007 76166 8442/ 333 10293 59009 60079 70200 83618 88458==
41998,2024,06,21,18,00,AAXX 21184 41998 NIL=
41998,2024,06,22,00,00,AAXX 22004 41998 02456 40000 10265 20250 30027 40033 83470 333 59018 70090 82618==
41998,2024,06,22,03,00,AAXX 22034 41998 02456 40000 10304 20250 30014 40020 83420 333 20257 59008 70070 82618==
41998,2024,06,22,06,00,AAXX 22064 41998 02456 80000 10325 20290 30005 40011 8342/ 333 59002 70070 83618 88458==
41998,2024,06,22,09,00,AAXX 22094 41998 02356 82201 10308 20300 39999 40005 8342/ 333 58007 70020 83618 88458==
41998,2024,06,22,12,00,AAXX 22124 41998 02456 80000 10294 20260 30006 40012 8442/ 333 10332 58014 70000 83618 88458==
41998,2024,06,22,18,00,AAXX 22184 41998 42456 60000 10273 20250 30017 40023 83470 333 59003 82618 84458==
41998,2024,06,23,00,00,AAXX 23004 41998 02456 60000 10276 20260 30031 40037 83470 333 58004 70000 82618 84458==
41998,2024,06,23,03,00,AAXX 23034 41998 02456 60000 10288 20270 30027 40033 83470 333 20260 58013 70000 82618 84458==
41998,2024,06,23,06,00,AAXX 23064 41998 NIL=
41998,2024,06,23,12,00,AAXX 23124 41998 02456 60000 10294 20250 30007 40013 83470 333 10324 58001 70000 82618 84458==
41998,2024,06,23,18,00,AAXX 23184 41998 NIL=
41998,2024,06,24,00,00,AAXX 24004 41998 21456 80000 10273 20260 30029 40035 76162 8442/ 333 58009 60167 70160 83616 88456==
41998,2024,06,24,03,00,AAXX 24034 41998 01456 80000 10280 20260 30028 40034 76166 8442/ 333 20261 58001 70380 83616 88456==
41998,2024,06,24,06,00,AAXX 24064 41998 21456 80000 10299 20270 30016 40022 76166 8342/ 333 59008 60279 70430 83616 88456==
41998,2024,06,24,09,00,AAXX 24094 41998 01456 81502 10304 20260 30004 40010 70262 8442/ 333 58004 70440 83618 88458==
41998,2024,06,24,12,00,AAXX 24124 41998 11456 61401 10302 20260 30003 40009 60016 70162 83470 333 10314 59004 70440 82618 84458==
41998,2024,06,24,15,00,AAXX 24154 41998 02456 60000 10285 20260 30024 40030 83470 333 58007 70440 82618 84458==
41998,2024,06,24,18,00,AAXX 24184 41998 NIL=
41998,2024,06,25,00,00,AAXX 25004 41998 02456 60000 10274 20250 30008 40012 83470 333 59021 70280 82618 84458==
41998,2024,06,25,03,00,AAXX 25034 41998 02356 60000 10298 20260 30016 40022 83420 333 20263 59010 70060 82618 83458==
41998,2024,06,25,06,00,AAXX 25064 41998 21456 80000 10305 20290 30005 40011 76162 8442/ 333 59011 60039 70040 83616 88456==
41998,2024,06,25,09,00,AAXX 25094 41998 02456 62201 10316 20290 30094 40000 83420 333 59010 70030 82618 83458==
41998,2024,06,25,12,00,AAXX 25124 41998 02456 60000 10310 20290 39999 40005 83470 333 10322 59004 70030 82618 84458==
41998,2024,06,26,00,00,AAXX 26004 41998 NIL=
41998,2024,06,26,03,00,AAXX 26034 41998 02456 60000 10290 20270 30006 40012 83420 333 20265 59010 70030 82618 83458==
41998,2024,06,26,06,00,AAXX 26064 41998 NIL=
41998,2024,06,26,09,00,AAXX 26094 41998 01456 81908 10268 20260 39991 49997 76122 8442/ 333 59003 70080 83618 88458==
41998,2024,06,26,12,00,AAXX 26124 41998 21456 60000 10298 20260 30004 40010 70162 83470 333 10323 58005 60065 70060 82618 83458==
41998,2024,06,26,15,00,AAXX 26154 41998 02456 60000 10288 20260 30014 40020 83470 333 58000 70060 82618 83458==
41998,2024,06,26,18,00,AAXX 26184 41998 02456 60000 10285 20270 30017 40023 83470 333 59003 70060 82618 84458==
41998,2024,06,27,03,00,AAXX 27034 41998 02456 60000 10290 20260 30035 40041 83470 333 20263 58029 70060 82618 83458==
41998,2024,06,27,06,00,AAXX 27064 41998 NIL=
41998,2024,06,27,09,00,AAXX 27094 41998 01456 82104 10264 20250 30001 40007 72122 8442/ 333 58010 70030 83618 88458==
41998,2024,06,27,12,00,AAXX 27124 41998 01456 60000 10298 20260 30020 40026 70162 83470 333 10327 58016 70040 82618 83458==
41998,2024,06,27,15,00,AAXX 27154 41998 02456 60000 10290 20260 30027 40033 83420 333 58013 70040 82618 83458==
